country_code,zipcode,place,state,state_code,province,province_code,community,community_code,latitude,longitude
BY,210000,Витебск,Vitebsk,"",Vitebsk,"","","",55.1904,30.2049
BY,211000,Старь,Vitebsk,"",Orcha,"","","",54.5603,30.2323
BY,211001,Заболотье,Vitebsk,"",Orcha,"","","",54.5322,30.3138
BY,211002,Заднепровский,Vitebsk,"",Orcha,"","","",54.5164,30.341
BY,211003,Устье,Vitebsk,"",Orcha,"","","",54.6293,30.8884
BY,211004,Болбасово,Vitebsk,"",Orcha,"","","",54.4207,30.2909
BY,211005,Зубревичи,Vitebsk,"",Orcha,"","","",54.3995,30.2119
BY,211006,Малое Бабино,Vitebsk,"",Orcha,"","","",54.6803,30.4233
BY,211007,Лисуны,Vitebsk,"",Orcha,"","","",54.4553,30.1386
BY,211008,Белево,Vitebsk,"",Orcha,"","","",54.4534,30.2286
BY,211011,Барань,Vitebsk,"",Orcha,"","","",54.4784,30.3159
BY,211012,Засекли,Vitebsk,"",Orcha,"","","",54.5734,30.1553
BY,211013,Корово,Vitebsk,"",Orcha,"","","",54.5676,30.318
BY,211014,Смольяны,Vitebsk,"",Orcha,"","","",54.6063,30.359
BY,211015,Стайки,Vitebsk,"",Orcha,"","","",54.6828,30.3179
BY,211016,Заполье,Vitebsk,"",Orcha,"","","",54.708,30.7287
BY,211017,Межево,Vitebsk,"",Orcha,"","","",54.6274,30.3082
BY,211018,Юрцево,Vitebsk,"",Orcha,"","","",54.6068,30.369
BY,211019,Пищалово,Vitebsk,"",Orcha,"","","",54.6063,30.359
BY,211020,Лариновка,Vitebsk,"",Orcha,"","","",54.5227,30.474
BY,211021,Крапивино,Vitebsk,"",Orcha,"","","",54.6654,30.4364
BY,211022,Митьковщина,Vitebsk,"",Orcha,"","","",54.5748,30.5243
BY,211023,Андреевщина,Vitebsk,"",Orcha,"","","",54.8076,30.2813
BY,211024,Высокое,Vitebsk,"",Orcha,"","","",54.6654,30.4364
BY,211026,Ореховск,Vitebsk,"",Orcha,"","","",54.6853,30.4998
BY,211029,Клюковка,Vitebsk,"",Orcha,"","","",54.7365,30.4027
BY,211030,Орша,Vitebsk,"",Orcha,"","","",54.5081,30.4172
BY,211031,Пинизовье,Vitebsk,"",Orcha,"","","",54.4016,30.4902
BY,211032,Пугляи,Vitebsk,"",Orcha,"","","",54.4274,30.5356
BY,211033,Браздетчино,Vitebsk,"",Orcha,"","","",54.4521,30.636
BY,211034,Борздовка,Vitebsk,"",Orcha,"","","",54.4122,30.6557
BY,211035,Бабиничи,Vitebsk,"",Orcha,"","","",54.4232,30.4418
BY,211036,Яковлевичи,Vitebsk,"",Orcha,"","","",54.3419,30.5018
BY,211037,Зубово,Vitebsk,"",Orcha,"","","",54.3568,30.4026
BY,211038,Копысь,Vitebsk,"",Orcha,"","","",54.3221,30.2897
BY,211039,Козловичи,Vitebsk,"",Orcha,"","","",54.371,30.5318
BY,211040,Дубровно,Vitebsk,"",Doubrovno,"","","",54.5716,30.691
BY,211041,Станиславово,Vitebsk,"",Doubrovno,"","","",54.5378,30.6838
BY,211044,Буда,Vitebsk,"",Doubrovno,"","","",54.6579,30.6446
BY,211045,Редьки,Vitebsk,"",Doubrovno,"","","",54.6891,30.7946
BY,211046,Осинторф,Vitebsk,"",Doubrovno,"","","",54.7148,30.6581
BY,211047,Застенки,Vitebsk,"",Doubrovno,"","","",54.6793,30.9272
BY,211048,Россасно,Vitebsk,"",Doubrovno,"","","",54.6466,30.8798
BY,211052,Баево,Vitebsk,"",Doubrovno,"","","",54.4866,31.1079
BY,211054,Добрынь,Vitebsk,"",Doubrovno,"","","",54.4495,30.7914
BY,211055,Сватошицы,Vitebsk,"",Doubrovno,"","","",54.5425,30.9345
BY,211057,Боброво,Vitebsk,"",Doubrovno,"","","",54.6181,30.8281
BY,211058,Еремеевщина,Vitebsk,"",Doubrovno,"","","",54.5582,30.7742
BY,211059,Ляды,Vitebsk,"",Doubrovno,"","","",54.6,31.171
BY,211060,Коханово,Vitebsk,"",Tolotchin,"","","",54.4611,30.0018
BY,211061,Мартюхово,Vitebsk,"",Tolotchin,"","","",54.4262,29.9535
BY,211062,Горщевщина,Vitebsk,"",Tolotchin,"","","",54.5602,29.9705
BY,211063,Лавреновка,Vitebsk,"",Tolotchin,"","","",54.5417,29.8486
BY,211064,Обольцы,Vitebsk,"",Tolotchin,"","","",54.4262,29.9535
BY,211065,Заболотье,Vitebsk,"",Tolotchin,"","","",54.5322,30.3138
BY,211066,Речки,Vitebsk,"",Tolotchin,"","","",54.4122,29.9892
BY,211067,Звенячи,Vitebsk,"",Tolotchin,"","","",54.4731,30.0374
BY,211068,Жукнево,Vitebsk,"",Tolotchin,"","","",54.3746,30.0023
BY,211069,Заозерье,Vitebsk,"",Tolotchin,"","","",54.0544,29.4643
BY,211070,Толочин,Vitebsk,"",Tolotchin,"","","",54.4087,29.6955
BY,211071,Новинка,Vitebsk,"",Tolotchin,"","","",54.3867,29.5201
BY,211072,Озерцы,Vitebsk,"",Tolotchin,"","","",54.7913,28.777
BY,211074,Волковичи,Vitebsk,"",Tolotchin,"","","",54.3782,29.8393
BY,211075,Воронцевичи,Vitebsk,"",Tolotchin,"","","",54.3694,29.9043
BY,211076,Друцк,Vitebsk,"",Tolotchin,"","","",54.3409,29.7652
BY,211077,Плоское,Vitebsk,"",Tolotchin,"","","",54.4425,29.5336
BY,211078,Матиево,Vitebsk,"",Tolotchin,"","","",54.4323,29.5696
BY,211079,Славени,Vitebsk,"",Tolotchin,"","","",54.3411,29.5216
BY,211080,Усвиж - Бук,Vitebsk,"",Tolotchin,"","","",54.4878,29.7022
BY,211081,Анелино,Vitebsk,"",Tolotchin,"","","",54.5222,29.7788
BY,211082,Серковица,Vitebsk,"",Tolotchin,"","","",54.5031,29.7155
BY,211084,Ромашково,Vitebsk,"",Tolotchin,"","","",54.5159,30.0476
BY,211085,Высокий Городец,Vitebsk,"",Tolotchin,"","","",54.5983,29.5478
BY,211086,Волосово,Vitebsk,"",Tolotchin,"","","",54.5501,29.5344
BY,211087,Мешково,Vitebsk,"",Tolotchin,"","","",54.4806,29.6303
BY,211088,Заднево,Vitebsk,"",Tolotchin,"","","",54.4505,29.8106
BY,211089,Райцы,Vitebsk,"",Tolotchin,"","","",54.4193,29.6727
BY,211090,Славное,Vitebsk,"",Tolotchin,"","","",54.3056,29.4441
BY,211095,Черцы,Vitebsk,"",Lepel,"","","",54.6226,29.1067
BY,211096,Велевщина,Vitebsk,"",Lepel,"","","",54.6226,29.1067
BY,211097,Старое Лядно,Vitebsk,"",Lepel,"","","",54.9395,28.7693
BY,211098,Черейшина,Vitebsk,"",Lepel,"","","",54.6226,29.1067
BY,211102,Литусово,Vitebsk,"",Senno,"","","",54.6836,30.1753
BY,211105,Богданово,Vitebsk,"",Senno,"","","",54.7,29.8001
BY,211110,Первая,Vitebsk,"",Senno,"","","",54.6848,29.6207
BY,211111,Пламя,Vitebsk,"",Senno,"","","",54.6848,29.6207
BY,211120,Сенно,Vitebsk,"",Senno,"","","",54.8108,29.7086
BY,211121,Немойта,Vitebsk,"",Senno,"","","",54.7501,29.7652
BY,211122,Латыголь,Vitebsk,"",Senno,"","","",54.7671,29.6292
BY,211123,Ульяновичи,Vitebsk,"",Senno,"","","",54.8021,29.4918
BY,211124,Поженьки,Vitebsk,"",Senno,"","","",54.8405,29.5461
BY,211126,Белая Липа,Vitebsk,"",Senno,"","","",54.9125,29.7404
BY,211127,Ходцы,Vitebsk,"",Senno,"","","",54.9686,29.8123
BY,211128,Поповка,Vitebsk,"",Senno,"","","",54.795,29.7381
BY,211130,Синегорская,Vitebsk,"",Senno,"","","",54.8172,29.9515
BY,211131,Алексиничи,Vitebsk,"",Senno,"","","",54.7715,29.9746
BY,211132,Оболь,Vitebsk,"",Senno,"","","",54.8372,29.9988
BY,211134,Дубовцы,Vitebsk,"",Senno,"","","",54.7369,29.8243
BY,211135,Мошканы,Vitebsk,"",Senno,"","","",54.952,30.0308
BY,211136,Застодолье,Vitebsk,"",Senno,"","","",54.8197,29.9894
BY,211137,Шинково,Vitebsk,"",Senno,"","","",54.7527,29.8842
BY,211138,Студенка,Vitebsk,"",Senno,"","","",54.8181,29.8809
BY,211139,Константово,Vitebsk,"",Senno,"","","",54.8495,30.029
BY,211140,Круглица,Vitebsk,"",Tchachniki,"","","",54.5936,28.7937
BY,211141,Гриньки,Vitebsk,"",Tchachniki,"","","",54.8096,29.3379
BY,211142,Дворец,Vitebsk,"",Tchachniki,"","","",54.8651,28.9759
BY,211147,Октябрьский,Vitebsk,"",Tchachniki,"","","",54.7766,29.0439
BY,211148,Тяпино,Vitebsk,"",Tchachniki,"","","",54.838,29.0683
BY,211150,Чашники,Vitebsk,"",Tchachniki,"","","",54.8584,29.1608
BY,211151,Проземля,Vitebsk,"",Tchachniki,"","","",54.8614,29.1049
BY,211152,Латыголичи,Vitebsk,"",Tchachniki,"","","",54.6245,28.7005
BY,211153,Иванск,Vitebsk,"",Tchachniki,"","","",54.9393,29.1446
BY,211154,Малая Ведрень,Vitebsk,"",Tchachniki,"","","",54.9183,29.3045
BY,211155,Малая Ольшанка,Vitebsk,"",Tchachniki,"","","",54.7482,28.9774
BY,211156,Краснозвездное,Vitebsk,"",Tchachniki,"","","",54.7482,28.9774
BY,211157,Антополье,Vitebsk,"",Tchachniki,"","","",54.1857,28.0544
BY,211158,Замочек,Vitebsk,"",Tchachniki,"","","",54.7002,29.3287
BY,211159,Паулье,Vitebsk,"",Tchachniki,"","","",54.8974,29.0207
BY,211160,Почаевичи,Vitebsk,"",Tchachniki,"","","",54.7923,29.2533
BY,211161,Лукомль,Vitebsk,"",Tchachniki,"","","",54.7078,29.1499
BY,211162,Новолукомль,Vitebsk,"",Tchachniki,"","","",54.6619,29.1502
BY,211163,Стражевичи,Vitebsk,"",Tchachniki,"","","",54.6618,29.2357
BY,211164,Черея,Vitebsk,"",Tchachniki,"","","",54.6134,29.2796
BY,211165,Гили,Vitebsk,"",Tchachniki,"","","",54.7444,29.0641
BY,211166,Новая Заря,Vitebsk,"",Tchachniki,"","","",55.5962,29.9195
BY,211167,Краснолуки,Vitebsk,"",Tchachniki,"","","",54.618,28.837
BY,211169,Вятеро,Vitebsk,"",Tchachniki,"","","",54.7346,29.3905
BY,211170,Новозаслоново,Vitebsk,"",Lepel,"","","",54.8835,28.9222
BY,211171,Межица,Vitebsk,"",Lepel,"","","",54.9008,28.9884
BY,211176,Поплавки,Vitebsk,"",Lepel,"","","",54.9305,28.5391
BY,211177,Пышно,Vitebsk,"",Lepel,"","","",54.9575,28.4851
BY,211180,Лепель,Vitebsk,"",Lepel,"","","",54.8814,28.699
BY,211181,Большой Полсвиж,Vitebsk,"",Lepel,"","","",54.8529,28.7453
BY,211182,Горки,Vitebsk,"",Lepel,"","","",54.8771,28.8676
BY,211183,Новые Волосовичи,Vitebsk,"",Lepel,"","","",54.8564,28.7
BY,211184,Грогоровичи,Vitebsk,"",Lepel,"","","",54.8564,28.7
BY,211185,Старый Лепель,Vitebsk,"",Lepel,"","","",54.8564,28.7
BY,211186,Слобода,Vitebsk,"",Lepel,"","","",54.857,28.9112
BY,211187,Барсуки,Vitebsk,"",Lepel,"","","",54.7728,28.4767
BY,211188,Домжерицы,Vitebsk,"",Lepel,"","","",54.7392,28.3168
BY,211189,Камень,Vitebsk,"",Lepel,"","","",55.0146,28.8835
BY,211190,Стаи,Vitebsk,"",Lepel,"","","",55.1984,29.1613
BY,211191,Заборовье,Vitebsk,"",Lepel,"","","",55.0054,28.7475
BY,211192,Губино,Vitebsk,"",Lepel,"","","",55.0426,28.9534
BY,211194,Боровка,Vitebsk,"",Lepel,"","","",55.8115,27.944
BY,211195,Двор - Бобча,Vitebsk,"",Lepel,"","","",55.2249,28.7598
BY,211196,Суша,Vitebsk,"",Lepel,"","","",55.0851,29.0185
BY,211197,Боброво,Vitebsk,"",Lepel,"","","",55.1887,28.9521
BY,211198,Матырино,Vitebsk,"",Lepel,"","","",55.2423,28.542
BY,211200,Лиозно,Vitebsk,"",Liozno,"","","",55.0247,30.797
BY,211201,Черноручье,Vitebsk,"",Liozno,"","","",54.6974,30.9575
BY,211202,Надежино,Vitebsk,"",Liozno,"","","",55.1512,30.9264
BY,211203,Зачерня,Vitebsk,"",Liozno,"","","",54.9305,30.7883
BY,211204,Барсеево,Vitebsk,"",Liozno,"","","",54.8645,30.7067
BY,211206,Бабиновичи,Vitebsk,"",Liozno,"","","",54.8351,30.5725
BY,211208,Зубки,Vitebsk,"",Liozno,"","","",55.0102,30.7699
BY,211210,Стасево,Vitebsk,"",Liozno,"","","",55.092,30.643
BY,211211,Новое Село,Vitebsk,"",Liozno,"","","",55.0258,30.581
BY,211212,Крынки,Vitebsk,"",Liozno,"","","",55.0265,30.4326
BY,211213,Высочаны,Vitebsk,"",Liozno,"","","",54.9786,30.4415
BY,211214,Великое Село,Vitebsk,"",Liozno,"","","",54.6917,29.9805
BY,211215,Велешковичи,Vitebsk,"",Liozno,"","","",55.1357,30.7791
BY,211216,Адаменки,Vitebsk,"",Liozno,"","","",55.042,30.788
BY,211217,Замшено,Vitebsk,"",Liozno,"","","",55.1466,30.833
BY,211218,Емельяново,Vitebsk,"",Liozno,"","","",55.1922,30.7743
BY,211219,Мальково,Vitebsk,"",Liozno,"","","",54.8822,30.7413
BY,211222,Яськовщина,Vitebsk,"",Liozno,"","","",54.0569,30.697
BY,211223,Добромысли,Vitebsk,"",Liozno,"","","",54.9309,30.6717
BY,211224,Осипенки,Vitebsk,"",Liozno,"","","",54.8623,30.5567
BY,211225,Пушки,Vitebsk,"",Liozno,"","","",54.9818,30.8199
BY,211226,Михалиново,Vitebsk,"",Liozno,"","","",55.0878,30.7893
BY,211227,Завидиненты,Grodno,"",Ostrovets,"","","",54.9054,30.3871
BY,211227,Осипово,Vitebsk,"",Liozno,"","","",54.9054,30.3871
BY,211228,Ковали,Vitebsk,"",Liozno,"","","",54.8246,29.9099
BY,211230,Малые Летцы,Vitebsk,"",Vitebsk,"","","",55.051,30.1679
BY,211232,Замосточье,Vitebsk,"",Vitebsk,"","","",55.0163,30.1653
BY,211233,Сосновка,Vitebsk,"",Vitebsk,"","","",55.0856,30.1706
BY,211240,Старое Село,Vitebsk,"",Vitebsk,"","","",55.1792,28.5003
BY,211250,Язвино,Vitebsk,"",Choumilino,"","","",55.2613,29.7491
BY,211255,Польковичи,Vitebsk,"",Choumilino,"","","",55.0842,29.5168
BY,211258,Светлосельская,Vitebsk,"",Choumilino,"","","",55.1728,29.633
BY,211260,Шумилино,Vitebsk,"",Choumilino,"","","",55.2985,29.6121
BY,211261,Лесковичи,Vitebsk,"",Choumilino,"","","",55.2489,29.6397
BY,211262,Амбросовичи,Vitebsk,"",Choumilino,"","","",55.1968,29.6515
BY,211263,Большие Лежни,Vitebsk,"",Choumilino,"","","",55.2289,29.492
BY,211264,Добея,Vitebsk,"",Choumilino,"","","",55.2457,29.5608
BY,211265,Кривое Село,Vitebsk,"",Choumilino,"","","",55.1426,29.577
BY,211266,Оболь,Vitebsk,"",Choumilino,"","","",55.3552,29.2918
BY,211267,Леоново,Vitebsk,"",Choumilino,"","","",55.3174,29.1976
BY,211268,Кордон,Vitebsk,"",Choumilino,"","","",55.2607,29.2271
BY,211269,Николаево,Vitebsk,"",Choumilino,"","","",55.2394,29.2547
BY,211270,Слобода,Vitebsk,"",Choumilino,"","","",55.2883,29.4286
BY,211271,Сиротино,Vitebsk,"",Choumilino,"","","",55.3749,29.6253
BY,211272,Мишневичи,Vitebsk,"",Choumilino,"","","",55.4403,29.599
BY,211275,Мишковичи,Vitebsk,"",Choumilino,"","","",55.1869,29.3558
BY,211276,Победа,Vitebsk,"",Choumilino,"","","",55.2953,29.474
BY,211277,Грудиново,Vitebsk,"",Choumilino,"","","",55.353,29.2155
BY,211278,Добрино,Vitebsk,"",Choumilino,"","","",55.3248,29.5189
BY,211279,Башни,Vitebsk,"",Choumilino,"","","",55.2218,29.6712
BY,211280,Никитиха,Vitebsk,"",Choumilino,"","","",55.3161,29.4391
BY,211282,Суравни,Vitebsk,"",Choumilino,"","","",55.5358,29.5848
BY,211284,Якубовщина,Vitebsk,"",Miory,"","","",55.6412,27.7868
BY,211285,Слобода,Vitebsk,"",Miory,"","","",55.4619,28.8824
BY,211286,Язно,Vitebsk,"",Miory,"","","",55.4255,28.157
BY,211290,Горяны,Vitebsk,"",Polotsk,"","","",55.4209,29.0313
BY,211292,Быковщина,Vitebsk,"",Polotsk,"","","",55.436,28.405
BY,211293,Близница,Vitebsk,"",Polotsk,"","","",55.3117,28.606
BY,211294,Богатырское,Vitebsk,"",Polotsk,"","","",55.3895,28.6808
BY,211300,Витьба,Vitebsk,"",Vitebsk,"","","",55.2486,30.3242
BY,211301,Новка,Vitebsk,"",Vitebsk,"","","",55.1352,30.1529
BY,211302,Васильки,Vitebsk,"",Vitebsk,"","","",55.137,29.9744
BY,211303,Комары,Vitebsk,"",Vitebsk,"","","",55.1545,30.0441
BY,211304,Кировская,Vitebsk,"",Vitebsk,"","","",55.2403,30.1105
BY,211306,Пестуница,Vitebsk,"",Vitebsk,"","","",55.2734,29.9826
BY,211307,Зароново,Vitebsk,"",Vitebsk,"","","",55.3034,29.8871
BY,211308,Полудетки,Vitebsk,"",Vitebsk,"","","",55.3184,30.4375
BY,211309,Должа,Vitebsk,"",Vitebsk,"","","",55.352,30.0812
BY,211310,Мазолово,Vitebsk,"",Vitebsk,"","","",55.2857,30.1469
BY,211311,Лужесно,Vitebsk,"",Vitebsk,"","","",55.2548,30.1415
BY,211312,Руба 2,Vitebsk,"",Vitebsk,"","","",55.2912,30.1935
BY,211313,Михалково,Vitebsk,"",Vitebsk,"","","",55.3713,30.372
BY,211314,Курино,Vitebsk,"",Vitebsk,"","","",55.3678,30.4279
BY,211315,Большие Летцы,Vitebsk,"",Vitebsk,"","","",55.1959,29.9696
BY,211317,Хайсы,Vitebsk,"",Vitebsk,"","","",55.2718,30.1031
BY,211318,Сущево,Vitebsk,"",Vitebsk,"","","",55.2912,30.1935
BY,211319,Октябрьская,Vitebsk,"",Vitebsk,"","","",55.2912,30.1935
BY,211320,Ольгово,Vitebsk,"",Vitebsk,"","","",55.2284,30.2134
BY,211321,Руба 1,Vitebsk,"",Vitebsk,"","","",55.2658,30.4726
BY,211322,Бабиничи,Vitebsk,"",Vitebsk,"","","",55.2609,30.3547
BY,211323,Жебентяи,Vitebsk,"",Vitebsk,"","","",55.2658,30.4726
BY,211324,Войтово,Vitebsk,"",Vitebsk,"","","",55.218,30.5136
BY,211325,Присушино,Vitebsk,"",Vitebsk,"","","",55.3655,30.5194
BY,211326,Вымно,Vitebsk,"",Vitebsk,"","","",55.258,30.606
BY,211328,Слобода,Vitebsk,"",Vitebsk,"","","",55.2639,30.6285
BY,211329,Рябово,Vitebsk,"",Vitebsk,"","","",55.2658,30.4726
BY,211330,Сураж,Vitebsk,"",Vitebsk,"","","",55.4092,30.7246
BY,211331,Задубровье,Vitebsk,"",Vitebsk,"","","",55.3513,30.6567
BY,211332,Яновичи,Vitebsk,"",Vitebsk,"","","",55.2962,30.6997
BY,211333,Островские,Vitebsk,"",Vitebsk,"","","",55.4249,30.7535
BY,211335,Новоселки,Vitebsk,"",Vitebsk,"","","",55.5596,30.8413
BY,211336,Заполье,Vitebsk,"",Vitebsk,"","","",55.5111,30.7793
BY,211337,Тарасенки,Vitebsk,"",Vitebsk,"","","",55.4393,30.7119
BY,211338,Шапурово,Vitebsk,"",Vitebsk,"","","",55.385,30.756
BY,211339,Стайки,Vitebsk,"",Vitebsk,"","","",55.4474,30.8584
BY,211341,Вороны,Vitebsk,"",Vitebsk,"","","",55.1498,30.3958
BY,211342,Еремино,Vitebsk,"",Vitebsk,"","","",55.1282,30.4655
BY,211343,Тулово,Vitebsk,"",Vitebsk,"","","",55.2045,30.2965
BY,211345,Дыманово,Vitebsk,"",Vitebsk,"","","",55.0897,30.2957
BY,211346,Большие Копти,Vitebsk,"",Vitebsk,"","","",55.0977,30.2697
BY,211347,Шапечино,Vitebsk,"",Vitebsk,"","","",54.9905,30.3108
BY,211348,Осиновка,Vitebsk,"",Vitebsk,"","","",55.0946,30.0683
BY,211349,Скрыдлево,Vitebsk,"",Vitebsk,"","","",55.0269,30.0553
BY,211350,Бешенковичи,Vitebsk,"",Bechenkovitchi,"","","",55.0444,29.4617
BY,211351,Рубеж,Vitebsk,"",Bechenkovitchi,"","","",54.9884,29.6096
BY,211353,Пальцы,Vitebsk,"",Bechenkovitchi,"","","",54.9933,29.4963
BY,211354,Верховье,Vitebsk,"",Bechenkovitchi,"","","",54.9659,29.3933
BY,211356,Будилово,Vitebsk,"",Bechenkovitchi,"","","",55.1104,29.7232
BY,211357,Верхнее Кривино,Vitebsk,"",Bechenkovitchi,"","","",54.9933,29.4963
BY,211358,Луг,Vitebsk,"",Bechenkovitchi,"","","",54.924,29.3464
BY,211359,Дапаны,Vitebsk,"",Bechenkovitchi,"","","",54.9267,29.4434
BY,211360,Ржавка,Vitebsk,"",Bechenkovitchi,"","","",55.0721,29.5831
BY,211362,Синицы,Vitebsk,"",Bechenkovitchi,"","","",55.0696,29.779
BY,211363,Плиса,Vitebsk,"",Bechenkovitchi,"","","",55.0676,29.9169
BY,211364,Островно,Vitebsk,"",Bechenkovitchi,"","","",55.137,29.8596
BY,211368,Забелье,Vitebsk,"",Bechenkovitchi,"","","",55.0073,29.1132
BY,211370,Свеча,Vitebsk,"",Bechenkovitchi,"","","",55.0316,29.2803
BY,211371,Бочейково,Vitebsk,"",Bechenkovitchi,"","","",55.0185,29.1425
BY,211372,Двор - Низголово,Vitebsk,"",Bechenkovitchi,"","","",55.0567,29.1477
BY,211373,Сокорово,Vitebsk,"",Bechenkovitchi,"","","",55.1,29.1194
BY,211375,Улла,Vitebsk,"",Bechenkovitchi,"","","",55.2252,29.252
BY,211376,Дрозды,Vitebsk,"",Bechenkovitchi,"","","",55.0675,29.4115
BY,211377,Стрижево,Vitebsk,"",Bechenkovitchi,"","","",55.082,29.2733
BY,211378,Чурилово,Vitebsk,"",Bechenkovitchi,"","","",55.071,29.1931
BY,211379,Камоски,Vitebsk,"",Bechenkovitchi,"","","",55.0816,29.2275
BY,211400,Полоцк,Vitebsk,"",Polotsk,"","","",55.4879,28.7856
BY,211417,Заозерье,Vitebsk,"",Polotsk,"","","",55.5178,28.862
BY,211418,Захарничи,Vitebsk,"",Polotsk,"","","",55.5502,28.868
BY,211419,Солоники,Vitebsk,"",Polotsk,"","","",55.4854,28.8561
BY,211420,Карпеки,Vitebsk,"",Polotsk,"","","",55.4525,28.9731
BY,211421,Матюши,Vitebsk,"",Polotsk,"","","",55.682,28.5473
BY,211423,Зеленка,Vitebsk,"",Polotsk,"","","",55.6486,28.8383
BY,211424,Азино,Vitebsk,"",Polotsk,"","","",55.6299,28.643
BY,211426,Грамощье,Vitebsk,"",Polotsk,"","","",55.5974,28.7512
BY,211428,Кушлики,Vitebsk,"",Polotsk,"","","",55.5599,28.3981
BY,211429,Полота,Vitebsk,"",Polotsk,"","","",55.6116,29.1072
BY,211430,Ветрино 1,Vitebsk,"",Polotsk,"","","",55.3762,28.4359
BY,211431,Нача,Vitebsk,"",Polotsk,"","","",55.3941,28.3493
BY,211432,Лесово,Vitebsk,"",Polotsk,"","","",55.3358,28.3799
BY,211433,Бобыничи,Vitebsk,"",Polotsk,"","","",55.2772,28.4103
BY,211434,Ветрино,Vitebsk,"",Polotsk,"","","",55.4112,28.4673
BY,211435,Рудня,Vitebsk,"",Polotsk,"","","",55.4484,28.5847
BY,211436,Ухвище,Vitebsk,"",Polotsk,"","","",55.2499,28.4808
BY,211437,Жерносеки,Vitebsk,"",Polotsk,"","","",55.4238,28.4784
BY,211438,Островщина,Vitebsk,"",Polotsk,"","","",55.3762,28.4359
BY,211439,Шпаковщина,Vitebsk,"",Polotsk,"","","",55.469,28.3362
BY,211440,Новополоцк,Vitebsk,"",Vitebsk,"","","",55.5318,28.5987
BY,211450,Освея,Vitebsk,"",Verkhnedvinsk,"","","",56.0147,28.1105
BY,211451,Сеньково,Vitebsk,"",Verkhnedvinsk,"","","",55.352,29.8166
BY,211453,Игналино,Vitebsk,"",Verkhnedvinsk,"","","",56.0753,28.2395
BY,211454,Чапаевский,Vitebsk,"",Verkhnedvinsk,"","","",55.814,28.7222
BY,211460,Россоны,Vitebsk,"",Rossony,"","","",55.9058,28.8135
BY,211461,Селявщина,Vitebsk,"",Rossony,"","","",55.8186,28.7972
BY,211462,Янковичи,Vitebsk,"",Rossony,"","","",55.7711,28.7873
BY,211463,Клястицы,Vitebsk,"",Rossony,"","","",55.889,28.607
BY,211464,Соколище,Vitebsk,"",Rossony,"","","",55.7737,28.6039
BY,211465,Ковали,Vitebsk,"",Rossony,"","","",55.8402,28.5026
BY,211467,Юховичи,Vitebsk,"",Rossony,"","","",56.0119,28.6467
BY,211469,Морочково,Vitebsk,"",Rossony,"","","",55.8693,28.3363
BY,211470,Бирюзово,Vitebsk,"",Rossony,"","","",55.8821,28.8492
BY,211472,Дворище,Vitebsk,"",Rossony,"","","",55.9407,28.9034
BY,211474,Краснополье,Vitebsk,"",Rossony,"","","",55.8135,29.2653
BY,211475,Заборье,Vitebsk,"",Rossony,"","","",55.8673,28.6075
BY,211476,Голубово,Vitebsk,"",Rossony,"","","",55.9351,29.2024
BY,211478,Горбачево,Vitebsk,"",Rossony,"","","",55.9584,29.0513
BY,211480,Ушачи,Vitebsk,"",Ouchatchi,"","","",55.179,28.6158
BY,211481,Лесные Озера,Vitebsk,"",Ouchatchi,"","","",55.1307,28.4734
BY,211482,Жары,Vitebsk,"",Ouchatchi,"","","",55.078,28.6608
BY,211483,Ильюшино,Vitebsk,"",Ouchatchi,"","","",55.1307,28.4734
BY,211484,Большие Дольцы,Vitebsk,"",Ouchatchi,"","","",55.1307,28.4734
BY,211485,Малые Дольцы,Vitebsk,"",Ouchatchi,"","","",54.9867,28.386
BY,211486,Косари,Vitebsk,"",Ouchatchi,"","","",55.0241,28.3124
BY,211487,Кубличи,Vitebsk,"",Ouchatchi,"","","",55.1604,28.3417
BY,211488,Селище,Vitebsk,"",Ouchatchi,"","","",55.1989,28.4307
BY,211489,Двор - Плино,Vitebsk,"",Ouchatchi,"","","",55.2094,28.5198
BY,211489,Двор-Плино,Vitebsk,"",Ouchatchi,"","","",55.2094,28.5198
BY,211490,Лутово,Vitebsk,"",Ouchatchi,"","","",55.21,28.6404
BY,211491,Сорочино,Vitebsk,"",Ouchatchi,"","","",55.2036,28.7529
BY,211492,Старое Село,Vitebsk,"",Ouchatchi,"","","",55.1792,28.5003
BY,211493,Веркуды,Vitebsk,"",Ouchatchi,"","","",55.2058,28.9175
BY,211495,Дудровка,Vitebsk,"",Ouchatchi,"","","",55.1922,28.7504
BY,211496,Красное,Vitebsk,"",Ouchatchi,"","","",55.2179,28.9903
BY,211497,Глыбочка,Vitebsk,"",Ouchatchi,"","","",55.2318,28.6475
BY,211499,Мосор,Vitebsk,"",Ouchatchi,"","","",55.097,28.8041
BY,211502,Боровуха,Vitebsk,"",Novopolotsk,"","","",55.2881,30.0348
BY,211510,Богушевск,Vitebsk,"",Senno,"","","",54.8435,30.2081
BY,211511,Песочанка,Vitebsk,"",Senno,"","","",54.8932,30.2454
BY,211512,Заборовье,Vitebsk,"",Senno,"","","",54.7845,30.1198
BY,211513,Яново,Vitebsk,"",Senno,"","","",54.5737,29.7348
BY,211514,Лесниково,Vitebsk,"",Senno,"","","",54.7309,29.9667
BY,211515,Коковчино,Vitebsk,"",Senno,"","","",54.6886,30.0861
BY,211516,Ледневичи,Vitebsk,"",Senno,"","","",54.7151,30.1556
BY,211523,Слобода,Vitebsk,"",Ouchatchi,"","","",55.1155,28.6491
BY,211525,Ореховно,Vitebsk,"",Ouchatchi,"","","",55.2036,28.685
BY,211540,Городок,Vitebsk,"",Gorodok,"","","",55.1617,28.6444
BY,211541,Москаленята,Vitebsk,"",Gorodok,"","","",55.4121,29.3427
BY,211542,Долгополье,Vitebsk,"",Gorodok,"","","",55.4121,29.3427
BY,211543,Пролетарск,Vitebsk,"",Gorodok,"","","",55.5916,29.6514
BY,211547,Полешино,Vitebsk,"",Gorodok,"","","",55.483,29.7323
BY,211549,Прудники,Vitebsk,"",Gorodok,"","","",55.4121,29.3427
BY,211550,Пальминка,Vitebsk,"",Gorodok,"","","",55.448,30.1377
BY,211551,Кабище,Vitebsk,"",Gorodok,"","","",55.4278,30.2183
BY,211552,Стодолище,Vitebsk,"",Gorodok,"","","",55.4624,30.1273
BY,211553,Смоловка,Vitebsk,"",Gorodok,"","","",55.5458,30.2204
BY,211554,Веремеевка,Vitebsk,"",Gorodok,"","","",55.4837,29.9671
BY,211555,Веречье,Vitebsk,"",Gorodok,"","","",55.5832,30.3693
BY,211556,Канаши,Vitebsk,"",Gorodok,"","","",55.4624,30.1273
BY,211558,Хмельник,Vitebsk,"",Gorodok,"","","",55.0577,29.4793
BY,211559,Степановичи,Vitebsk,"",Gorodok,"","","",55.6906,30.4991
BY,211563,Дуброво,Vitebsk,"",Gorodok,"","","",55.6353,30.1609
BY,211565,Межа,Vitebsk,"",Gorodok,"","","",55.6805,30.421
BY,211567,Полово,Vitebsk,"",Gorodok,"","","",55.7315,30.5641
BY,211569,Вархи,Vitebsk,"",Gorodok,"","","",55.5749,29.9808
BY,211570,Бычиха,Vitebsk,"",Gorodok,"","","",55.6781,29.9807
BY,211571,Меховое,Vitebsk,"",Gorodok,"","","",55.7106,29.9593
BY,211572,Вировля,Vitebsk,"",Gorodok,"","","",55.6438,29.8603
BY,211580,Езерище,Vitebsk,"",Gorodok,"","","",55.8333,30.0333
BY,211581,Холомерье,Vitebsk,"",Gorodok,"","","",55.7439,29.7109
BY,211582,Гурки,Vitebsk,"",Gorodok,"","","",55.7821,30.0155
BY,211583,Хвошно,Vitebsk,"",Gorodok,"","","",55.7355,30.146
BY,211584,Марченки,Vitebsk,"",Gorodok,"","","",55.8343,30.1857
BY,211585,Рудня,Vitebsk,"",Gorodok,"","","",55.7599,30.2966
BY,211588,Якубово,Vitebsk,"",Doubrovno,"","","",55.8843,28.5546
BY,211590,Ляховка,Vitebsk,"",Doubrovno,"","","",54.4463,30.9892
BY,211591,Сипищево,Vitebsk,"",Doubrovno,"","","",54.471,30.7081
BY,211592,Калиновка,Vitebsk,"",Doubrovno,"","","",54.596,31.0038
BY,211593,Орловичи,Vitebsk,"",Doubrovno,"","","",54.6647,31.0442
BY,211594,Зарубы,Vitebsk,"",Doubrovno,"","","",54.5213,30.9357
BY,211600,Борковичи,Vitebsk,"",Verkhnedvinsk,"","","",55.6709,28.3254
BY,211601,Нурово,Vitebsk,"",Verkhnedvinsk,"","","",55.5855,28.2099
BY,211602,Прудинки,Vitebsk,"",Verkhnedvinsk,"","","",55.6822,28.1625
BY,211603,Шайтерово,Vitebsk,"",Verkhnedvinsk,"","","",55.7336,28.2744
BY,211604,Дерновичи,Vitebsk,"",Verkhnedvinsk,"","","",55.7194,28.4415
BY,211605,Леонишино,Vitebsk,"",Verkhnedvinsk,"","","",55.8066,28.3096
BY,211607,Стрелки,Vitebsk,"",Verkhnedvinsk,"","","",55.9372,28.1976
BY,211610,Волынцы,Vitebsk,"",Verkhnedvinsk,"","","",55.709,28.1864
BY,211612,Голубово,Vitebsk,"",Verkhnedvinsk,"","","",55.7785,28.2135
BY,211613,Антоново,Vitebsk,"",Verkhnedvinsk,"","","",55.7198,28.2265
BY,211620,Верхнедвинск,Vitebsk,"",Vitebsk,"","","",55.7777,27.9389
BY,211622,Боровка,Vitebsk,"",Verkhnedvinsk,"","","",55.8115,27.944
BY,211623,Соколовщина,Vitebsk,"",Verkhnedvinsk,"","","",55.786,28.1594
BY,211624,Первомайская,Vitebsk,"",Verkhnedvinsk,"","","",55.8167,28.0469
BY,211625,Кохановичи,Vitebsk,"",Verkhnedvinsk,"","","",55.8698,28.1315
BY,211626,Видоки,Vitebsk,"",Verkhnedvinsk,"","","",55.9705,28.0076
BY,211627,Сарья,Vitebsk,"",Verkhnedvinsk,"","","",55.9115,27.8826
BY,211628,Устье,Vitebsk,"",Verkhnedvinsk,"","","",55.8385,27.8741
BY,211632,Морозы,Vitebsk,"",Verkhnedvinsk,"","","",55.8831,27.7414
BY,211640,Бигосово,Vitebsk,"",Verkhnedvinsk,"","","",55.8351,27.7399
BY,211641,Росица,Vitebsk,"",Verkhnedvinsk,"","","",55.919,27.7627
BY,211650,Дретунь,Vitebsk,"",Polotsk,"","","",55.6961,29.2145
BY,211651,Труды,Vitebsk,"",Polotsk,"","","",55.6351,29.3887
BY,211652,Малое Ситно,Vitebsk,"",Polotsk,"","","",55.692,29.3555
BY,211653,Экимань,Vitebsk,"",Polotsk,"","","",55.4865,28.723
BY,211654,Фариново,Vitebsk,"",Polotsk,"","","",55.4283,28.5847
BY,211655,Заскорки,Vitebsk,"",Polotsk,"","","",55.3789,28.647
BY,211656,Вороничи,Vitebsk,"",Polotsk,"","","",55.3267,28.6443
BY,211657,Гомель,Vitebsk,"",Polotsk,"","","",55.2987,28.7739
BY,211657,Гомель,Gomel,"",Gomel,"","","",55.2987,28.7739
BY,211658,Туровля,Vitebsk,"",Polotsk,"","","",55.3655,28.9402
BY,211660,Новая Полота,Vitebsk,"",Polotsk,"","","",55.6045,29.0367
BY,211661,Юровичи,Vitebsk,"",Polotsk,"","","",55.6045,29.0367
BY,211710,Парафьяново,Vitebsk,"",Dokchitsy,"","","",54.8913,27.5761
BY,211711,Юрковщина,Vitebsk,"",Dokchitsy,"","","",54.8357,27.5561
BY,211712,Ситцы,Vitebsk,"",Dokchitsy,"","","",54.9217,27.537
BY,211713,Волколата,Vitebsk,"",Dokchitsy,"","","",54.9301,27.3701
BY,211714,Городище,Vitebsk,"",Dokchitsy,"","","",54.6457,27.8198
BY,211715,Станиславцы,Vitebsk,"",Dokchitsy,"","","",54.8617,27.6157
BY,211716,Крулевщина,Vitebsk,"",Dokchitsy,"","","",55.0257,27.7801
BY,211719,Березовка,Vitebsk,"",Dokchitsy,"","","",54.7818,27.6709
BY,211720,Докшицы,Vitebsk,"",Dokchitsy,"","","",54.8918,27.7667
BY,211721,Порплище,Vitebsk,"",Dokchitsy,"","","",54.9625,27.6551
BY,211724,Гнездилово,Vitebsk,"",Dokchitsy,"","","",54.8317,27.7591
BY,211725,Крипули,Vitebsk,"",Dokchitsy,"","","",54.786,27.6351
BY,211726,Торгуны,Vitebsk,"",Dokchitsy,"","","",54.9261,27.8434
BY,211727,Тумиловичи,Vitebsk,"",Dokchitsy,"","","",54.9372,27.9539
BY,211728,Нестеровщина,Vitebsk,"",Dokchitsy,"","","",54.9549,28.0096
BY,211729,Барсуки,Vitebsk,"",Dokchitsy,"","","",54.9246,27.7035
BY,211730,Бегомль,Vitebsk,"",Dokchitsy,"","","",54.7316,28.0577
BY,211731,Глинное,Vitebsk,"",Dokchitsy,"","","",54.4531,26.9022
BY,211732,Березино,Vitebsk,"",Dokchitsy,"","","",54.9065,28.1929
BY,211734,Прудники,Vitebsk,"",Dokchitsy,"","","",54.822,27.9292
BY,211735,Комайск,Vitebsk,"",Dokchitsy,"","","",54.8803,27.8957
BY,211736,Замосточье,Vitebsk,"",Dokchitsy,"","","",54.8892,27.9486
BY,211737,Витуничи,Vitebsk,"",Dokchitsy,"","","",54.7693,27.8873
BY,211738,Березки,Vitebsk,"",Dokchitsy,"","","",54.6998,27.8197
BY,211739,Бересневка,Vitebsk,"",Dokchitsy,"","","",54.7962,28.0797
BY,211741,Лесное,Vitebsk,"",Dokchitsy,"","","",54.8816,27.7872
BY,211796,Бортники,Vitebsk,"",Gloubokoe,"","","",55.3081,28.0335
BY,211797,Подсвилье,Vitebsk,"",Gloubokoe,"","","",55.1498,27.9617
BY,211798,Стринадки,Vitebsk,"",Gloubokoe,"","","",55.1495,27.9098
BY,211799,Копыльщина,Vitebsk,"",Gloubokoe,"","","",55.2025,27.9683
BY,211800,Глубокое,Vitebsk,"",Gloubokoe,"","","",55.1384,27.6905
BY,211801,Шуневцы,Vitebsk,"",Gloubokoe,"","","",55.0649,27.5649
BY,211802,Озерцы,Vitebsk,"",Gloubokoe,"","","",54.8364,27.9563
BY,211803,Залесье,Vitebsk,"",Gloubokoe,"","","",55.2553,27.6917
BY,211804,Бабичи,Vitebsk,"",Gloubokoe,"","","",55.2666,27.6199
BY,211805,Петровщина,Vitebsk,"",Gloubokoe,"","","",54.1257,26.9654
BY,211806,Удело,Vitebsk,"",Gloubokoe,"","","",55.2107,27.5613
BY,211807,Мосар,Vitebsk,"",Gloubokoe,"","","",55.2232,27.4609
BY,211808,Запрудье,Vitebsk,"",Gloubokoe,"","","",55.4629,27.5736
BY,211809,Мерецкие,Vitebsk,"",Gloubokoe,"","","",55.0649,27.5649
BY,211810,Зябки,Vitebsk,"",Gloubokoe,"","","",55.2285,28.1423
BY,211811,Плиса,Vitebsk,"",Gloubokoe,"","","",55.2147,27.9525
BY,211812,Гатовщина,Vitebsk,"",Gloubokoe,"","","",55.346,28.354
BY,211813,Черневичи,Vitebsk,"",Gloubokoe,"","","",55.33,28.0995
BY,211814,Мнюто,Vitebsk,"",Gloubokoe,"","","",55.2507,27.9357
BY,211815,Борисковичи,Vitebsk,"",Gloubokoe,"","","",55.2262,28.0656
BY,211816,Псуя,Vitebsk,"",Gloubokoe,"","","",55.206,28.1598
BY,211817,Прозороки,Vitebsk,"",Gloubokoe,"","","",55.2906,28.2198
BY,211818,Ломаши,Vitebsk,"",Gloubokoe,"","","",55.3479,28.3254
BY,211819,Ивесь,Vitebsk,"",Gloubokoe,"","","",55.1858,28.2656
BY,211820,Шуневичи,Vitebsk,"",Gloubokoe,"","","",55.095,27.704
BY,211821,Дерковщина,Vitebsk,"",Gloubokoe,"","","",55.1499,27.7851
BY,211822,Коробы,Vitebsk,"",Gloubokoe,"","","",55.1499,27.7851
BY,211823,Верхнее,Vitebsk,"",Gloubokoe,"","","",55.1602,27.496
BY,211824,Обруб,Vitebsk,"",Gloubokoe,"","","",55.1064,27.7787
BY,211825,Матюково,Vitebsk,"",Gloubokoe,"","","",55.2668,28.0107
BY,211826,Голубичи,Vitebsk,"",Gloubokoe,"","","",55.1125,27.9695
BY,211827,Станули,Vitebsk,"",Gloubokoe,"","","",55.1588,27.7518
BY,211828,Урожайная,Vitebsk,"",Gloubokoe,"","","",55.1499,27.7851
BY,211829,Зарубино,Vitebsk,"",Gloubokoe,"","","",55.1499,27.7851
BY,211830,Воропаево,Vitebsk,"",Postavy,"","","",55.1409,27.2043
BY,211831,Старый Двор,Vitebsk,"",Postavy,"","","",55.2379,27.6088
BY,211832,Новоселки Первые,Vitebsk,"",Postavy,"","","",55.317,27.5007
BY,211833,Гута,Vitebsk,"",Postavy,"","","",55.2013,27.1973
BY,211835,Козловщина,Vitebsk,"",Postavy,"","","",55.8501,28.1115
BY,211836,Париж,Vitebsk,"",Postavy,"","","",55.1547,27.3817
BY,211837,Ляховщина,Vitebsk,"",Postavy,"","","",55.317,27.5007
BY,211840,Поставы,Vitebsk,"",Postavy,"","","",55.1168,26.8326
BY,211841,Хотилы,Vitebsk,"",Postavy,"","","",55.144,26.8044
BY,211842,Курополье,Vitebsk,"",Postavy,"","","",55.2264,26.8698
BY,211844,Андроны,Vitebsk,"",Postavy,"","","",55.2301,26.9717
BY,211845,Теляки,Vitebsk,"",Postavy,"","","",55.1977,26.8171
BY,211851,Юньки,Vitebsk,"",Postavy,"","","",55.1163,26.9236
BY,211852,Лучай,Vitebsk,"",Postavy,"","","",55.09,27.1202
BY,211853,Волки,Vitebsk,"",Postavy,"","","",55.0795,27.4242
BY,211854,Дуниловичи,Vitebsk,"",Postavy,"","","",55.0768,27.2415
BY,211855,Сергеевичи,Vitebsk,"",Postavy,"","","",55.0631,27.1869
BY,211856,Янчуки,Vitebsk,"",Postavy,"","","",55.0034,27.401
BY,211858,Груздово,Vitebsk,"",Postavy,"","","",55.0128,27.0109
BY,211860,Дворчаны,Vitebsk,"",Postavy,"","","",55.0796,26.7479
BY,211861,Вереньки,Vitebsk,"",Postavy,"","","",54.9968,26.7461
BY,211862,Камаи,Vitebsk,"",Postavy,"","","",55.0595,26.607
BY,211863,Новоселки Вторые,Vitebsk,"",Postavy,"","","",55.0532,26.644
BY,211865,Мягуны,Vitebsk,"",Postavy,"","","",55.0721,26.5193
BY,211866,Муляры,Vitebsk,"",Postavy,"","","",55.1116,26.5943
BY,211868,Ярево,Vitebsk,"",Postavy,"","","",55.0532,26.644
BY,211869,Свираны,Vitebsk,"",Postavy,"","","",54.9998,26.6494
BY,211870,Лынтупы,Vitebsk,"",Postavy,"","","",55.0516,26.3103
BY,211872,Полесье,Vitebsk,"",Postavy,"","","",55.0928,26.3893
BY,211900,Жуковщина,Vitebsk,"",Charkovchtchina,"","","",55.397,27.3566
BY,211901,Кубелевщина,Vitebsk,"",Charkovchtchina,"","","",55.4708,27.4493
BY,211902,Лонские,Vitebsk,"",Charkovchtchina,"","","",55.3824,27.2242
BY,211909,Пялики,Vitebsk,"",Charkovchtchina,"","","",55.3377,27.3963
BY,211910,Шарковщина,Vitebsk,"",Charkovchtchina,"","","",55.3689,27.4686
BY,211911,Васюки,Vitebsk,"",Charkovchtchina,"","","",55.3198,27.335
BY,211912,Корница,Vitebsk,"",Charkovchtchina,"","","",55.4102,27.2696
BY,211913,Иоды,Vitebsk,"",Charkovchtchina,"","","",55.4519,27.2282
BY,211914,Сосновцы,Vitebsk,"",Charkovchtchina,"","","",55.4055,27.3699
BY,211915,Бильдюги,Vitebsk,"",Charkovchtchina,"","","",55.3997,27.4425
BY,211916,Ковшелево,Vitebsk,"",Charkovchtchina,"","","",55.472,27.5271
BY,211917,Ручай,Vitebsk,"",Charkovchtchina,"","","",55.4046,27.5455
BY,211918,Великое Село,Vitebsk,"",Charkovchtchina,"","","",55.3996,27.6696
BY,211919,Болкалы,Vitebsk,"",Charkovchtchina,"","","",55.3649,27.5687
BY,211920,Радюки,Vitebsk,"",Charkovchtchina,"","","",55.0348,29.4116
BY,211923,Шкунтики,Vitebsk,"",Charkovchtchina,"","","",55.3674,27.6723
BY,211924,Германовичи,Vitebsk,"",Charkovchtchina,"","","",55.4138,27.736
BY,211925,Зорька,Vitebsk,"",Charkovchtchina,"","","",55.7418,28.4781
BY,211926,Лужки,Vitebsk,"",Charkovchtchina,"","","",55.3514,27.8757
BY,211927,Веретеи,Vitebsk,"",Charkovchtchina,"","","",55.3176,27.8101
BY,211928,Дворново,Vitebsk,"",Charkovchtchina,"","","",55.3587,27.9536
BY,211929,Столица,Vitebsk,"",Charkovchtchina,"","","",55.3694,28.1339
BY,211930,Миоры,Vitebsk,"",Miory,"","","",55.6222,27.6281
BY,211931,Заболотье,Vitebsk,"",Miory,"","","",55.4705,27.1381
BY,211932,Перебродье,Vitebsk,"",Miory,"","","",55.6241,27.3943
BY,211933,Волковщина,Vitebsk,"",Miory,"","","",55.5492,27.4186
BY,211934,Новый Погост,Vitebsk,"",Miory,"","","",55.583,27.4697
BY,211935,Новгороды,Vitebsk,"",Miory,"","","",55.5272,27.5995
BY,211936,Чепуки,Vitebsk,"",Miory,"","","",55.583,27.4697
BY,211938,Дворное Село,Vitebsk,"",Miory,"","","",55.583,27.4697
BY,211939,Повятье,Vitebsk,"",Miory,"","","",55.7045,27.6397
BY,211940,Идолта,Vitebsk,"",Miory,"","","",55.7192,27.5654
BY,211941,Поташня,Vitebsk,"",Miory,"","","",55.7519,27.7164
BY,211943,Узмены,Vitebsk,"",Miory,"","","",55.7416,27.9197
BY,211944,Долгиново,Vitebsk,"",Miory,"","","",55.7377,27.7941
BY,211945,Черессы,Vitebsk,"",Miory,"","","",55.6232,27.7069
BY,211946,Турково,Vitebsk,"",Miory,"","","",55.6193,28.0368
BY,211947,Дригучин,Vitebsk,"",Miory,"","","",55.6784,27.842
BY,211949,Шараги,Vitebsk,"",Miory,"","","",55.5556,28.1545
BY,211950,Дисна,Vitebsk,"",Miory,"","","",55.5676,28.2076
BY,211951,Николаево,Vitebsk,"",Miory,"","","",55.2394,29.2547
BY,211952,Ситьково,Vitebsk,"",Miory,"","","",55.5295,28.0555
BY,211954,Заутье,Vitebsk,"",Miory,"","","",55.4681,28.1178
BY,211955,Папшули,Vitebsk,"",Miory,"","","",55.4912,28.0348
BY,211956,Канцерово,Vitebsk,"",Miory,"","","",55.455,28.3159
BY,211957,Босянки,Vitebsk,"",Miory,"","","",55.455,28.3159
BY,211958,Цветино,Vitebsk,"",Miory,"","","",55.455,28.3159
BY,211959,Ист,Vitebsk,"",Miory,"","","",55.4345,28.2252
BY,211960,Друя,Vitebsk,"",Braslav,"","","",55.7906,27.4505
BY,211962,Оплиса,Vitebsk,"",Braslav,"","","",55.6835,27.294
BY,211965,Подрушка,Vitebsk,"",Braslav,"","","",55.737,27.3723
BY,211970,Браслав,Vitebsk,"",Braslav,"","","",55.6413,27.0418
BY,211971,Иказнь,Vitebsk,"",Braslav,"","","",55.6222,27.2586
BY,211972,Ахремовцы,Vitebsk,"",Braslav,"","","",55.5817,27.1153
BY,211973,Замошье,Vitebsk,"",Braslav,"","","",55.4955,27.0839
BY,211974,Тетерки,Vitebsk,"",Braslav,"","","",55.5454,27.2552
BY,211975,Мильки,Vitebsk,"",Braslav,"","","",55.5159,27.3191
BY,211977,Слободка,Vitebsk,"",Braslav,"","","",55.688,27.1838
BY,211978,Друйск,Vitebsk,"",Braslav,"","","",55.7281,27.2801
BY,211979,Литовщина,Vitebsk,"",Braslav,"","","",55.6411,27.1622
BY,211980,Урбаны,Vitebsk,"",Braslav,"","","",55.695,26.8985
BY,211981,Зарачье,Vitebsk,"",Braslav,"","","",55.7154,26.9213
BY,211982,Межаны,Vitebsk,"",Braslav,"","","",55.6492,26.7708
BY,211983,Карасино,Vitebsk,"",Braslav,"","","",55.6598,26.6822
BY,211984,Дрисвяты,Vitebsk,"",Braslav,"","","",55.5884,26.6718
BY,211985,Гирейши,Vitebsk,"",Braslav,"","","",55.7154,26.9213
BY,211986,Быстромовцы,Vitebsk,"",Braslav,"","","",55.764,27.1829
BY,211987,Спринды,Vitebsk,"",Braslav,"","","",55.8133,27.1549
BY,211988,Плюсы,Vitebsk,"",Braslav,"","","",55.8133,27.0453
BY,211989,Боруны,Vitebsk,"",Braslav,"","","",55.7402,26.9637
BY,211990,Видзы,Vitebsk,"",Braslav,"","","",55.3945,26.6305
BY,211991,Пакульня,Vitebsk,"",Braslav,"","","",55.4441,26.5908
BY,211993,Дубровка,Vitebsk,"",Braslav,"","","",55.3549,26.9338
BY,211994,Козяки,Vitebsk,"",Braslav,"","","",55.448,26.7731
BY,211995,Богино,Vitebsk,"",Braslav,"","","",55.4219,26.8001
BY,211996,Далекие,Vitebsk,"",Braslav,"","","",55.4755,26.8625
BY,211997,Погоща,Vitebsk,"",Braslav,"","","",55.448,26.7731
BY,211998,Опса,Vitebsk,"",Braslav,"","","",55.5359,26.8238
BY,211999,Вайнюнцы,Vitebsk,"",Braslav,"","","",55.5092,26.7701
BY,212000,Могилев,Moghilev,"",Moghilev,"","","",53.9168,30.3449
BY,213000,Большой Межник,Moghilev,"",Chklov,"","","",54.7536,29.8163
BY,213010,Шклов,Moghilev,"",Chklov,"","","",54.2131,30.2877
BY,213011,Городец,Moghilev,"",Chklov,"","","",53.9096,30.9841
BY,213012,Забродье,Moghilev,"",Chklov,"","","",54.2525,30.4501
BY,213013,Никитиничи,Moghilev,"",Chklov,"","","",54.2791,30.3756
BY,213014,Окуневка,Moghilev,"",Chklov,"","","",54.2092,30.5506
BY,213015,Большие Словени,Moghilev,"",Chklov,"","","",54.2589,30.4216
BY,213016,Малое Заречье,Moghilev,"",Chklov,"","","",54.1943,30.4642
BY,213017,Александрия,Moghilev,"",Chklov,"","","",54.3333,30.2828
BY,213018,Добрейка,Moghilev,"",Chklov,"","","",54.0988,30.3612
BY,213020,Уланово,Moghilev,"",Chklov,"","","",54.2482,30.1607
BY,213021,Ново-Бращено,Moghilev,"",Chklov,"","","",54.2158,30.1142
BY,213022,Черноручье,Moghilev,"",Chklov,"","","",54.2158,30.1142
BY,213024,Говяды,Moghilev,"",Chklov,"","","",54.2158,30.1142
BY,213025,Лозицы,Moghilev,"",Chklov,"","","",54.0793,30.0744
BY,213026,Староселье,Moghilev,"",Chklov,"","","",54.3198,30.1075
BY,213030,Княжицы,Moghilev,"",Chklov,"","","",53.9747,30.1513
BY,213031,Фащевка,Moghilev,"",Chklov,"","","",54.0047,30.3094
BY,213032,Локути,Moghilev,"",Chklov,"","","",54.118,30.4538
BY,213033,Заходы,Moghilev,"",Chklov,"","","",54.0423,30.4587
BY,213038,Городище,Moghilev,"",Chklov,"","","",53.7329,29.8004
BY,213039,Ордать,Moghilev,"",Chklov,"","","",54.1554,30.6826
BY,213040,Лотва,Moghilev,"",Chklov,"","","",54.1013,30.2639
BY,213041,Савеленки,Moghilev,"",Chklov,"","","",54.1324,30.2526
BY,213042,Старая Водва,Moghilev,"",Chklov,"","","",54.0729,30.1952
BY,213050,Барсуки,Moghilev,"",Chklov,"","","",54.0545,30.3135
BY,213101,Лыково,Moghilev,"",Moghilev,"","","",53.7542,30.3451
BY,213103,Махоново,Moghilev,"",Moghilev,"","","",53.7981,30.408
BY,213104,Недашево,Moghilev,"",Moghilev,"","","",53.7652,30.4844
BY,213105,Вейно,Moghilev,"",Moghilev,"","","",53.8333,30.3833
BY,213107,Брыли,Moghilev,"",Moghilev,"","","",53.9025,30.5645
BY,213108,Дашковка,Moghilev,"",Moghilev,"","","",53.7352,30.2625
BY,213109,Амховая,Moghilev,"",Moghilev,"","","",53.7981,30.408
BY,213111,Подгорье,Moghilev,"",Moghilev,"","","",53.8321,30.4469
BY,213112,Кадино,Moghilev,"",Moghilev,"","","",53.8839,30.5203
BY,213114,Мостюк,Moghilev,"",Moghilev,"","","",53.8401,30.5361
BY,213115,Макаренцы,Moghilev,"",Moghilev,"","","",53.9742,30.5099
BY,213116,Сухари,Moghilev,"",Moghilev,"","","",53.9581,30.7045
BY,213117,Зарестье,Moghilev,"",Moghilev,"","","",53.6671,30.7233
BY,213118,Черемушки,Moghilev,"",Moghilev,"","","",53.8863,30.4627
BY,213119,Сидоровичи,Moghilev,"",Moghilev,"","","",53.6792,30.3854
BY,213120,Николаевка,Moghilev,"",Moghilev,"","","",54.0426,30.0225
BY,213121,Полыковичи Первые,Moghilev,"",Moghilev,"","","",53.9771,30.1997
BY,213122,Романовичи,Moghilev,"",Moghilev,"","","",53.8653,30.5597
BY,213123,Новое Пашково,Moghilev,"",Moghilev,"","","",53.9567,30.2496
BY,213124,Речки,Moghilev,"",Moghilev,"","","",54.0977,29.9251
BY,213125,Княжицы,Moghilev,"",Moghilev,"","","",53.9747,30.1513
BY,213126,Браково,Moghilev,"",Moghilev,"","","",54.0104,30.1279
BY,213127,Грибаны,Moghilev,"",Moghilev,"","","",53.9983,30.5095
BY,213129,Михалево,Moghilev,"",Moghilev,"","","",53.8715,30.0517
BY,213130,Тишовка,Moghilev,"",Moghilev,"","","",53.8853,30.2731
BY,213131,Голынец,Moghilev,"",Moghilev,"","","",53.8481,30.1667
BY,213133,Гуслище,Moghilev,"",Moghilev,"","","",53.8105,30.134
BY,213134,Буйничи,Moghilev,"",Moghilev,"","","",53.8536,30.2671
BY,213135,Селец,Moghilev,"",Moghilev,"","","",53.8268,30.2433
BY,213136,Красница,Moghilev,"",Moghilev,"","","",53.8743,30.7375
BY,213138,Восход,Moghilev,"",Moghilev,"","","",53.8881,31.0111
BY,213150,Вендорож,Moghilev,"",Moghilev,"","","",53.8415,30.0202
BY,213151,Заводская Слобода,Moghilev,"",Moghilev,"","","",53.7838,30.015
BY,213153,Семукачи,Moghilev,"",Moghilev,"","","",53.7471,29.8645
BY,213154,Большие Белевичи,Moghilev,"",Moghilev,"","","",53.796,29.8248
BY,213160,Белыничи,Moghilev,"",Belynitchi,"","","",53.9994,29.7141
BY,213161,Ланьков,Moghilev,"",Belynitchi,"","","",54.0424,29.7379
BY,213162,Лубяное,Moghilev,"",Belynitchi,"","","",54.0102,29.9031
BY,213163,Кудин,Moghilev,"",Belynitchi,"","","",54.0102,29.9031
BY,213164,Головчин,Moghilev,"",Belynitchi,"","","",54.0601,29.9184
BY,213165,Новоселки,Moghilev,"",Belynitchi,"","","",54.0327,30.0311
BY,213166,Вишов,Moghilev,"",Belynitchi,"","","",53.9805,29.9925
BY,213167,Ермоловичи,Moghilev,"",Belynitchi,"","","",53.9833,30.0652
BY,213168,Лебедянка,Moghilev,"",Belynitchi,"","","",54.0102,29.9031
BY,213169,Светиловичи,Moghilev,"",Belynitchi,"","","",53.973,29.8623
BY,213171,Эсьмоны,Moghilev,"",Belynitchi,"","","",54.0184,29.5495
BY,213172,Староселье,Moghilev,"",Belynitchi,"","","",54.3198,30.1075
BY,213173,Большая Мощеница,Moghilev,"",Belynitchi,"","","",54.0086,29.749
BY,213174,Лемнница,Moghilev,"",Belynitchi,"","","",54.0086,29.749
BY,213177,Техтин,Moghilev,"",Belynitchi,"","","",53.8581,29.7316
BY,213179,Заполье,Moghilev,"",Belynitchi,"","","",53.8382,29.6073
BY,213180,Круглое,Moghilev,"",Krougloe,"","","",54.2497,29.7968
BY,213182,Дудаковичи,Moghilev,"",Krougloe,"","","",54.2881,29.9076
BY,213184,Комсеничи,Moghilev,"",Krougloe,"","","",54.1503,29.8794
BY,213186,Тетерин,Moghilev,"",Krougloe,"","","",54.1554,29.7602
BY,213187,Запрудье,Moghilev,"",Krougloe,"","","",54.1732,29.9331
BY,213189,Радча,Moghilev,"",Krougloe,"","","",54.2954,29.778
BY,213190,Гробино,Moghilev,"",Krougloe,"","","",54.23,29.6569
BY,213191,Филатово,Moghilev,"",Krougloe,"","","",54.3046,29.6273
BY,213192,Ельковщина,Moghilev,"",Krougloe,"","","",54.2599,29.9158
BY,213193,Павловичи,Moghilev,"",Krougloe,"","","",54.2156,29.6371
BY,213195,Шепелевичи,Moghilev,"",Krougloe,"","","",54.1252,29.5624
BY,213197,Круча,Moghilev,"",Krougloe,"","","",54.2448,29.5418
BY,213200,Чаусы,Moghilev,"",Tchaoussy,"","","",53.8098,30.9717
BY,213201,Путьки,Moghilev,"",Tchaoussy,"","","",53.8461,31.0773
BY,213203,Радомля,Moghilev,"",Tchaoussy,"","","",53.6581,31.0689
BY,213205,Осиновка,Moghilev,"",Tchaoussy,"","","",53.3185,31.1576
BY,213210,Горбовичи,Moghilev,"",Tchaoussy,"","","",53.8183,30.7001
BY,213211,Войнилы,Moghilev,"",Tchaoussy,"","","",53.8795,30.781
BY,213212,Благовичи,Moghilev,"",Tchaoussy,"","","",53.8386,30.8489
BY,213213,Левковщина,Moghilev,"",Tchaoussy,"","","",53.8778,30.6391
BY,213215,Пилищино,Moghilev,"",Tchaoussy,"","","",53.8795,30.781
BY,213216,Сластены,Moghilev,"",Tchaoussy,"","","",53.9832,30.803
BY,213217,Каменка,Moghilev,"",Tchaoussy,"","","",53.8797,30.9141
BY,213220,Антоновка,Moghilev,"",Tchaoussy,"","","",53.8124,30.639
BY,213221,Устье,Moghilev,"",Tchaoussy,"","","",53.7191,30.8041
BY,213223,Черенки,Moghilev,"",Tchaoussy,"","","",53.6197,30.7579
BY,213224,Дужевка,Moghilev,"",Tchaoussy,"","","",53.6578,30.9373
BY,213227,Заболотье,Moghilev,"",Tchaoussy,"","","",53.6036,31.0502
BY,213232,Волковичи,Moghilev,"",Tchaoussy,"","","",53.6754,30.6783
BY,213240,Славгород,Moghilev,"",Slavgorod,"","","",53.4429,31.0014
BY,213241,Гайшин,Moghilev,"",Slavgorod,"","","",53.3461,30.994
BY,213242,Гиженка,Moghilev,"",Slavgorod,"","","",53.5709,31.0533
BY,213243,Телеши,Moghilev,"",Slavgorod,"","","",53.4533,31.0162
BY,213244,Березовка,Moghilev,"",Slavgorod,"","","",53.4533,31.0162
BY,213250,Лесная,Moghilev,"",Slavgorod,"","","",53.5076,30.8529
BY,213251,Лопатичи,Moghilev,"",Slavgorod,"","","",53.5671,30.8769
BY,213252,Хворостяны,Moghilev,"",Slavgorod,"","","",53.6281,30.859
BY,213254,Шеломы,Moghilev,"",Slavgorod,"","","",53.4367,30.8793
BY,213258,Ржавка,Moghilev,"",Slavgorod,"","","",53.3984,30.7962
BY,213260,Поповка,Moghilev,"",Slavgorod,"","","",53.4534,30.5755
BY,213261,Свенск,Moghilev,"",Slavgorod,"","","",53.3408,30.8094
BY,213263,Ректа,Moghilev,"",Slavgorod,"","","",53.2933,30.7091
BY,213264,Зимница,Moghilev,"",Slavgorod,"","","",53.8126,30.4499
BY,213266,Старая Каменка,Moghilev,"",Slavgorod,"","","",53.3233,31.058
BY,213310,Баркалабово,Moghilev,"",Bykhov,"","","",53.6168,30.2769
BY,213311,Косичи,Moghilev,"",Bykhov,"","","",53.663,30.175
BY,213312,Колос,Moghilev,"",Bykhov,"","","",53.5891,29.0296
BY,213315,Чечевичи,Moghilev,"",Bykhov,"","","",53.5173,29.843
BY,213317,Черный Бор,Moghilev,"",Bykhov,"","","",53.5822,29.9621
BY,213318,Дуброва,Moghilev,"",Bykhov,"","","",53.5844,29.9092
BY,213319,Смолица,Moghilev,"",Bykhov,"","","",53.5228,30.5391
BY,213320,Быхов,Moghilev,"",Bykhov,"","","",53.521,30.2454
BY,213321,Мокрое,Moghilev,"",Bykhov,"","","",53.5562,30.2087
BY,213322,Холстово,Moghilev,"",Bykhov,"","","",53.5563,30.1676
BY,213323,Восточная,Moghilev,"",Bykhov,"","","",53.6078,30.0999
BY,213325,Городец,Moghilev,"",Bykhov,"","","",53.4035,29.4949
BY,213326,Дунаек,Moghilev,"",Bykhov,"","","",53.5115,29.9672
BY,213327,Ямное,Moghilev,"",Bykhov,"","","",53.5115,29.9672
BY,213328,Глухи,Moghilev,"",Bykhov,"","","",53.6477,30.0754
BY,213329,Хомичи,Moghilev,"",Bykhov,"","","",53.2883,29.4785
BY,213330,Воронино,Moghilev,"",Bykhov,"","","",53.5315,30.3555
BY,213331,Следюки,Moghilev,"",Bykhov,"","","",53.5784,30.3562
BY,213332,Годылево,Moghilev,"",Bykhov,"","","",53.6084,30.3696
BY,213333,Красница,Moghilev,"",Bykhov,"","","",53.8743,30.7375
BY,213334,Грудиновка,Moghilev,"",Bykhov,"","","",53.6354,30.4733
BY,213340,Никоновичи,Moghilev,"",Bykhov,"","","",53.4472,30.4361
BY,213341,Красная Слобода,Moghilev,"",Bykhov,"","","",53.531,31.0045
BY,213342,Селец,Moghilev,"",Bykhov,"","","",53.8268,30.2433
BY,213343,Обидовичи,Moghilev,"",Bykhov,"","","",53.336,30.4156
BY,213344,Поляниновичи,Moghilev,"",Bykhov,"","","",53.3778,30.517
BY,213345,Нереж,Moghilev,"",Bykhov,"","","",53.4951,30.4809
BY,213346,Лудчицы,Moghilev,"",Bykhov,"","","",53.4519,30.2686
BY,213347,Таймоново,Moghilev,"",Bykhov,"","","",53.4951,30.4809
BY,213348,Новый Быхов,Moghilev,"",Bykhov,"","","",53.4951,30.4809
BY,213351,Искань,Moghilev,"",Bykhov,"","","",53.3181,30.4888
BY,213360,Торфозавод Красная Беларусь,Moghilev,"",Bykhov,"","","",53.5354,30.2078
BY,213371,Красный Берег,Moghilev,"",Bykhov,"","","",53.3291,30.1929
BY,213400,Коптевка,Moghilev,"",Gorki,"","","",54.1764,31.2792
BY,213401,Маслаки,Moghilev,"",Gorki,"","","",54.3217,30.6513
BY,213403,Аниковичи,Moghilev,"",Gorki,"","","",54.2633,30.5925
BY,213405,Большие Шарипы,Moghilev,"",Gorki,"","","",54.3736,30.8967
BY,213406,Красулино,Moghilev,"",Gorki,"","","",54.3896,30.9347
BY,213410,Горки,Moghilev,"",Gorki,"","","",54.2862,30.9863
BY,213411,Ректа,Moghilev,"",Gorki,"","","",54.3098,30.918
BY,213412,Сова,Moghilev,"",Gorki,"","","",54.3083,30.8938
BY,213413,Рудковщина,Moghilev,"",Gorki,"","","",54.4016,30.7177
BY,213414,Мацуты,Moghilev,"",Gorki,"","","",54.3083,30.8938
BY,213415,Добрая,Moghilev,"",Gorki,"","","",54.1871,30.9456
BY,213416,Овсянка,Moghilev,"",Gorki,"","","",54.3083,30.8938
BY,213417,Хаминичи,Moghilev,"",Gorki,"","","",54.3571,30.6471
BY,213418,Никулино,Moghilev,"",Gorki,"","","",54.3079,31.1479
BY,213420,Шалахановка,Moghilev,"",Gorki,"","","",54.326,31.1577
BY,213421,Ленино,Moghilev,"",Gorki,"","","",54.4082,31.1252
BY,213422,Староселье,Moghilev,"",Gorki,"","","",54.3953,31.1662
BY,213423,Каменка,Moghilev,"",Gorki,"","","",54.3231,31.2333
BY,213424,Горы,Moghilev,"",Gorki,"","","",54.2672,31.2032
BY,213425,Буды,Moghilev,"",Gorki,"","","",54.2883,31.0805
BY,213426,Паршино,Moghilev,"",Gorki,"","","",54.2344,31.0577
BY,213428,Ходоровка,Moghilev,"",Gorki,"","","",54.3657,31.2381
BY,213450,Ракшино,Moghilev,"",Mstislavl,"","","",54.0395,31.2796
BY,213460,Ходосы,Moghilev,"",Mstislavl,"","","",53.9266,31.4779
BY,213461,Усполье,Moghilev,"",Mstislavl,"","","",53.9226,31.4053
BY,213462,Андраны,Moghilev,"",Mstislavl,"","","",53.9804,31.3122
BY,213463,Долговичи,Moghilev,"",Mstislavl,"","","",53.9408,31.3076
BY,213464,Заболотье,Moghilev,"",Mstislavl,"","","",53.6036,31.0502
BY,213465,Лютня,Moghilev,"",Mstislavl,"","","",54.0469,31.6861
BY,213470,Мстиславль,Moghilev,"",Mstislavl,"","","",54.0185,31.7217
BY,213473,Коробчино,Moghilev,"",Mstislavl,"","","",54.0007,31.7646
BY,213474,Подлужье,Moghilev,"",Mstislavl,"","","",53.9273,31.8409
BY,213475,Селец,Moghilev,"",Mstislavl,"","","",53.9312,31.0803
BY,213476,Мушино,Moghilev,"",Mstislavl,"","","",53.9165,31.6344
BY,213477,Мазолово,Moghilev,"",Mstislavl,"","","",53.9582,31.6277
BY,213479,Ларьяново,Moghilev,"",Mstislavl,"","","",53.9553,31.7246
BY,213480,Шамовщина,Moghilev,"",Mstislavl,"","","",54.0434,31.6281
BY,213481,Подсолтово,Moghilev,"",Mstislavl,"","","",54.0947,31.4702
BY,213482,Мишни,Moghilev,"",Mstislavl,"","","",54.0033,31.3278
BY,213483,Копачи,Moghilev,"",Mstislavl,"","","",54.0068,31.4649
BY,213484,Бастеновичи,Moghilev,"",Mstislavl,"","","",54.0313,31.3885
BY,213485,Курманово,Moghilev,"",Mstislavl,"","","",54.1165,31.3774
BY,213487,Нестерово,Moghilev,"",Mstislavl,"","","",54.1794,31.387
BY,213488,Рязанцы,Moghilev,"",Mstislavl,"","","",54.0679,31.4348
BY,213489,Милейково,Moghilev,"",Mstislavl,"","","",54.0679,31.4348
BY,213490,Молятичи,Moghilev,"",Kritchev,"","","",53.8571,31.5422
BY,213500,Кричев,Moghilev,"",Kritchev,"","","",53.7125,31.717
BY,213501,Сокольничи,Moghilev,"",Kritchev,"","","",53.6645,31.6657
BY,213502,Костюшковичи,Moghilev,"",Kritchev,"","","",53.6885,31.6913
BY,213503,Сычик,Moghilev,"",Kritchev,"","","",53.6885,31.6913
BY,213510,Красная Буда,Moghilev,"",Kritchev,"","","",53.7144,30.9001
BY,213513,Луты,Moghilev,"",Kritchev,"","","",53.8162,31.5794
BY,213514,Бель,Moghilev,"",Kritchev,"","","",54.1511,31.4043
BY,213515,Лобковичи,Moghilev,"",Kritchev,"","","",53.8419,31.7563
BY,213516,Дяговичи,Moghilev,"",Kritchev,"","","",53.7715,31.8103
BY,213520,Ботвиновка,Moghilev,"",Kritchev,"","","",53.7585,31.4662
BY,213521,Осовец,Moghilev,"",Kritchev,"","","",53.4798,31.6078
BY,213530,Чериков,Moghilev,"",Tcherikov,"","","",53.5689,31.3831
BY,213531,Мирогощь,Moghilev,"",Tcherikov,"","","",53.5394,31.3619
BY,213532,Соколовка,Moghilev,"",Tcherikov,"","","",53.5361,31.2235
BY,213534,Майский,Moghilev,"",Tcherikov,"","","",53.5481,31.3228
BY,213540,Речица,Moghilev,"",Tcherikov,"","","",53.6415,31.5175
BY,213542,Удога,Moghilev,"",Tcherikov,"","","",53.6713,31.3844
BY,213543,Лобановка,Moghilev,"",Tcherikov,"","","",53.6608,31.2637
BY,213544,Шароевка,Moghilev,"",Tcherikov,"","","",53.6334,31.2987
BY,213545,Лобча,Moghilev,"",Tcherikov,"","","",53.6059,31.1967
BY,213546,Езеры,Moghilev,"",Tcherikov,"","","",53.6377,31.3548
BY,213548,Зори,Moghilev,"",Tcherikov,"","","",53.6135,31.4681
BY,213550,Веремейки,Moghilev,"",Tcherikov,"","","",53.7666,31.2771
BY,213560,Краснополье,Moghilev,"",Krasnopolie,"","","",53.3353,31.3999
BY,213562,Палуж,Moghilev,"",Krasnopolie,"","","",53.3317,31.5469
BY,213566,Яновка,Moghilev,"",Krasnopolie,"","","",53.5095,31.8489
BY,213567,Горы,Moghilev,"",Krasnopolie,"","","",53.2247,31.5527
BY,213568,Имени Ленина,Moghilev,"",Krasnopolie,"","","",53.342,31.5519
BY,213569,Турья,Moghilev,"",Krasnopolie,"","","",53.3087,31.4112
BY,213570,Холмы,Moghilev,"",Krasnopolie,"","","",53.2509,31.3772
BY,213572,Выдренка,Moghilev,"",Krasnopolie,"","","",53.132,31.3027
BY,213573,Соболи,Moghilev,"",Krasnopolie,"","","",53.1765,31.2097
BY,213574,Почепы,Moghilev,"",Krasnopolie,"","","",53.2873,31.3383
BY,213577,Сидоровка,Moghilev,"",Krasnopolie,"","","",53.3386,31.3635
BY,213578,Городецкая,Moghilev,"",Krasnopolie,"","","",53.337,31.271
BY,213600,Климовичи,Moghilev,"",Klimovitchi,"","","",53.6079,31.9586
BY,213601,Лобжа,Moghilev,"",Klimovitchi,"","","",53.5975,31.78
BY,213602,Борисовичи,Moghilev,"",Klimovitchi,"","","",53.6005,31.6794
BY,213603,Тимоново,Moghilev,"",Klimovitchi,"","","",53.5785,31.8916
BY,213604,Красавичи,Moghilev,"",Klimovitchi,"","","",53.4797,31.868
BY,213606,Гусарка,Moghilev,"",Klimovitchi,"","","",53.6615,32.0112
BY,213607,Высокое,Moghilev,"",Klimovitchi,"","","",53.8211,31.5049
BY,213609,Барсуки,Moghilev,"",Klimovitchi,"","","",53.7069,31.9104
BY,213610,Домановичи,Moghilev,"",Klimovitchi,"","","",53.6994,32.1999
BY,213611,Хотовиж,Moghilev,"",Klimovitchi,"","","",53.735,32.0041
BY,213612,Киселева Буда,Moghilev,"",Klimovitchi,"","","",53.7226,32.1262
BY,213613,Звенчатка,Moghilev,"",Klimovitchi,"","","",53.751,32.2242
BY,213614,Великий Мох,Moghilev,"",Klimovitchi,"","","",53.7169,32.1614
BY,213615,Милославичи,Moghilev,"",Klimovitchi,"","","",53.6882,32.253
BY,213616,Недведь,Moghilev,"",Klimovitchi,"","","",53.5998,32.2266
BY,213617,Макеевичи,Moghilev,"",Klimovitchi,"","","",53.6821,32.4035
BY,213621,Родня,Moghilev,"",Klimovitchi,"","","",53.515,32.1348
BY,213622,Судилы,Moghilev,"",Klimovitchi,"","","",53.5508,32.1461
BY,213623,Малашковичи,Moghilev,"",Klimovitchi,"","","",53.5224,32.2693
BY,213624,Галичи,Moghilev,"",Klimovitchi,"","","",53.578,32.3263
BY,213625,Старый Дедин,Moghilev,"",Klimovitchi,"","","",53.5416,32.2191
BY,213630,Осмоловичи,Moghilev,"",Klimovitchi,"","","",53.531,31.9976
BY,213636,Павловичи,Moghilev,"",Klimovitchi,"","","",53.597,32.0462
BY,213640,Костюковичи,Moghilev,"",Kostukovitchi,"","","",53.3525,32.0514
BY,213641,Низьки,Moghilev,"",Kostukovitchi,"","","",53.3848,32.1089
BY,213642,Забычанье,Moghilev,"",Kostukovitchi,"","","",53.4216,31.8882
BY,213644,Пролетарское,Moghilev,"",Kostukovitchi,"","","",53.4257,32.1197
BY,213646,Тупичино,Moghilev,"",Kostukovitchi,"","","",53.387,32.2407
BY,213647,Демидовичи,Moghilev,"",Kostukovitchi,"","","",53.3417,32.2099
BY,213648,Прусино,Moghilev,"",Kostukovitchi,"","","",53.3543,32.0987
BY,213649,Шарейки,Moghilev,"",Kostukovitchi,"","","",53.411,32.1536
BY,213650,Студенец,Moghilev,"",Kostukovitchi,"","","",53.4447,31.7665
BY,213651,Белая Дуброва,Moghilev,"",Kostukovitchi,"","","",53.2504,31.9772
BY,213656,Муравилье,Moghilev,"",Kostukovitchi,"","","",53.3475,31.8719
BY,213660,Хотимск,Moghilev,"",Khotimsk,"","","",53.4086,32.578
BY,213661,Боханы,Moghilev,"",Khotimsk,"","","",53.3685,32.4423
BY,213662,Березки,Moghilev,"",Khotimsk,"","","",53.3421,32.3379
BY,213663,Беседовичи,Moghilev,"",Khotimsk,"","","",53.3814,32.5677
BY,213664,Липовка,Moghilev,"",Khotimsk,"","","",53.4176,32.6967
BY,213667,Енополье,Moghilev,"",Khotimsk,"","","",53.3836,32.5245
BY,213670,Тростино,Moghilev,"",Khotimsk,"","","",53.4849,32.4865
BY,213672,Забельшин,Moghilev,"",Khotimsk,"","","",53.3743,32.0226
BY,213674,Ельня,Moghilev,"",Khotimsk,"","","",53.3838,31.2087
BY,213675,Чернявка,Moghilev,"",Khotimsk,"","","",53.3743,32.0226
BY,213676,Батаево,Moghilev,"",Khotimsk,"","","",53.2543,32.3725
BY,213680,Белынковичи,Moghilev,"",Kostukovitchi,"","","",53.2441,32.1377
BY,213681,Бороньки,Moghilev,"",Kostukovitchi,"","","",53.1441,32.1373
BY,213682,Мошевое,Moghilev,"",Kostukovitchi,"","","",53.1349,32.0291
BY,213683,Большая Крапивня,Moghilev,"",Kostukovitchi,"","","",53.2617,32.2399
BY,213684,Липовка,Moghilev,"",Kostukovitchi,"","","",53.2947,32.0777
BY,213684,Новые Самотевичи,Moghilev,"",Kostukovitchi,"","","",53.2947,32.0777
BY,213686,Гавриленка,Moghilev,"",Kostukovitchi,"","","",53.1116,32.1203
BY,213690,Селецкое,Moghilev,"",Kostukovitchi,"","","",53.1891,32.3165
BY,213691,Смольки,Moghilev,"",Kostukovitchi,"","","",53.1413,32.2252
BY,213692,Ветка,Moghilev,"",Khotimsk,"","","",53.237,32.4079
BY,213711,Вязье,Moghilev,"",Ossipovitchi,"","","",53.7964,29.1315
BY,213712,Липень,Moghilev,"",Ossipovitchi,"","","",53.4133,28.8226
BY,213713,Вязовница,Moghilev,"",Ossipovitchi,"","","",53.456,28.8305
BY,213714,Свислочь,Moghilev,"",Ossipovitchi,"","","",53.4375,28.9699
BY,213715,Замошье,Moghilev,"",Ossipovitchi,"","","",53.294,28.7031
BY,213716,Верейцы,Moghilev,"",Ossipovitchi,"","","",53.3397,28.5219
BY,213717,Протасевичи,Moghilev,"",Ossipovitchi,"","","",53.3019,28.5652
BY,213720,Ручей,Moghilev,"",Ossipovitchi,"","","",53.4267,28.4713
BY,213721,Лапичи,Moghilev,"",Ossipovitchi,"","","",53.4354,28.5376
BY,213722,Жорновка,Moghilev,"",Ossipovitchi,"","","",53.4686,28.5884
BY,213724,Погорелое,Moghilev,"",Ossipovitchi,"","","",52.8134,28.7049
BY,213725,Гродзянка,Moghilev,"",Ossipovitchi,"","","",53.5492,28.7448
BY,213726,Каменичи,Moghilev,"",Ossipovitchi,"","","",53.5404,28.8363
BY,213727,Цель,Moghilev,"",Ossipovitchi,"","","",53.3947,28.4576
BY,213728,Сосновый,Moghilev,"",Ossipovitchi,"","","",53.3755,28.6201
BY,213730,Елизово,Moghilev,"",Ossipovitchi,"","","",53.3994,29.0048
BY,213731,Красное,Moghilev,"",Ossipovitchi,"","","",53.5242,28.8809
BY,213740,Татарка,Moghilev,"",Ossipovitchi,"","","",53.2533,28.8193
BY,213742,Ясень,Moghilev,"",Ossipovitchi,"","","",53.2534,28.9289
BY,213743,Корытное,Moghilev,"",Ossipovitchi,"","","",53.1701,28.7765
BY,213752,Дричин,Moghilev,"",Ossipovitchi,"","","",53.2134,28.2285
BY,213760,Осиповичи,Moghilev,"",Ossipovitchi,"","","",53.3011,28.6386
BY,213770,Дараганово,Moghilev,"",Ossipovitchi,"","","",53.1746,28.4958
BY,213800,Бобруйск,Moghilev,"",Bobrouisk,"","","",53.1384,29.2214
BY,213831,Вишневка,Moghilev,"",Bobrouisk,"","","",53.0062,29.1872
BY,213832,Стасевка,Moghilev,"",Bobrouisk,"","","",52.9756,29.3322
BY,213833,Брожа,Moghilev,"",Bobrouisk,"","","",52.9601,29.1153
BY,213834,Редкий Рог,Moghilev,"",Bobrouisk,"","","",52.9337,29.1203
BY,213835,Гороховка,Moghilev,"",Bobrouisk,"","","",53.0272,28.9391
BY,213836,Турки,Moghilev,"",Bobrouisk,"","","",53.0235,28.7369
BY,213837,Петровичи,Moghilev,"",Bobrouisk,"","","",53.0147,29.0352
BY,213838,Туголица,Moghilev,"",Bobrouisk,"","","",53.0697,29.1649
BY,213839,Мосты,Moghilev,"",Bobrouisk,"","","",53.0601,28.853
BY,213840,Юбилейный,Moghilev,"",Bobrouisk,"","","",53.1407,29.131
BY,213841,Слободка,Moghilev,"",Bobrouisk,"","","",53.1162,29.1136
BY,213842,Горбацевичи,Moghilev,"",Bobrouisk,"","","",53.0546,29.0837
BY,213844,Глуша,Moghilev,"",Bobrouisk,"","","",53.0868,28.8567
BY,213845,Дойничево,Moghilev,"",Bobrouisk,"","","",53.1183,28.8168
BY,213846,Осово,Moghilev,"",Bobrouisk,"","","",53.1654,28.922
BY,213847,Свчково,Moghilev,"",Bobrouisk,"","","",53.1296,28.9704
BY,213848,Имени Ленина - Совхоз,Moghilev,"",Bobrouisk,"","","",53.1296,28.9704
BY,213849,Слобода,Moghilev,"",Bobrouisk,"","","",53.2251,28.8693
BY,213850,Телуша,Moghilev,"",Bobrouisk,"","","",53.0547,29.4038
BY,213851,Плесы,Moghilev,"",Bobrouisk,"","","",52.4521,31.0677
BY,213852,Ковали,Moghilev,"",Bobrouisk,"","","",53.0402,29.5463
BY,213853,Ламбово,Moghilev,"",Bobrouisk,"","","",53.0036,29.4347
BY,213854,Воротынь,Moghilev,"",Bobrouisk,"","","",52.9894,29.6447
BY,213855,Химы,Moghilev,"",Bobrouisk,"","","",53.1644,29.4001
BY,213856,Михалево,Moghilev,"",Bobrouisk,"","","",53.11,29.5379
BY,213857,Большие Бортники,Moghilev,"",Bobrouisk,"","","",52.9879,29.6869
BY,213858,Ивановка,Moghilev,"",Bobrouisk,"","","",53.0884,29.4602
BY,213860,Глуск,Moghilev,"",Glousk,"","","",52.903,28.6845
BY,213861,Маковичи,Moghilev,"",Glousk,"","","",52.9789,28.5963
BY,213862,Дуброва,Moghilev,"",Glousk,"","","",52.9446,28.5525
BY,213863,Доколь,Moghilev,"",Glousk,"","","",52.8414,28.5168
BY,213864,Турино,Moghilev,"",Glousk,"","","",52.8887,28.5887
BY,213865,Балашевичи,Moghilev,"",Glousk,"","","",52.8956,28.7769
BY,213866,Устерхи,Moghilev,"",Glousk,"","","",52.8988,28.8667
BY,213870,Заелица,Moghilev,"",Glousk,"","","",52.981,28.7722
BY,213871,Калатичи,Moghilev,"",Glousk,"","","",52.9232,28.7047
BY,213872,Городок,Moghilev,"",Glousk,"","","",53.0486,28.7699
BY,213873,Заволочицы,Moghilev,"",Glousk,"","","",52.981,28.7722
BY,213875,Бабирово,Moghilev,"",Glousk,"","","",53.0314,28.5525
BY,213876,Дикое,Moghilev,"",Glousk,"","","",52.981,28.7722
BY,213877,Старое Село,Moghilev,"",Glousk,"","","",52.9653,28.8948
BY,213878,Чикили,Moghilev,"",Glousk,"","","",52.9367,28.9392
BY,213880,Клетное,Moghilev,"",Glousk,"","","",52.8201,28.6342
BY,213881,Славковичи,Moghilev,"",Glousk,"","","",52.7218,28.5022
BY,213882,Катка,Moghilev,"",Glousk,"","","",52.7196,28.7237
BY,213884,Березовка,Moghilev,"",Glousk,"","","",52.8151,28.8032
BY,213886,Зеленковичи,Moghilev,"",Glousk,"","","",52.807,28.9221
BY,213900,Кличев,Moghilev,"",Klitchev,"","","",53.4923,29.3356
BY,213901,Бацевичи,Moghilev,"",Klitchev,"","","",53.3961,29.2294
BY,213902,Долгое,Moghilev,"",Klitchev,"","","",53.597,29.678
BY,213903,Заполье,Moghilev,"",Klitchev,"","","",53.8382,29.6073
BY,213905,Вирков,Moghilev,"",Klitchev,"","","",53.4597,29.0417
BY,213906,Торфопредприятие Гончанское,Moghilev,"",Klitchev,"","","",53.572,29.3544
BY,213908,Колбча,Moghilev,"",Klitchev,"","","",53.6485,29.2346
BY,213909,Максимовичи,Moghilev,"",Klitchev,"","","",53.572,29.3544
BY,213913,Несята - Станция,Moghilev,"",Klitchev,"","","",53.4379,29.0481
BY,213914,Несята,Moghilev,"",Klitchev,"","","",53.48,29.2263
BY,213916,Остров,Moghilev,"",Klitchev,"","","",53.1499,28.3697
BY,213917,Ореховка,Moghilev,"",Klitchev,"","","",53.5033,29.148
BY,213918,Дулевцы,Grodno,"",Volkovyssk,"","","",53.4379,29.0481
BY,213919,Усакино,Moghilev,"",Klitchev,"","","",53.6184,29.4484
BY,213930,Любоничи,Moghilev,"",Kirovsk,"","","",53.2767,29.241
BY,213940,Кировск,Moghilev,"",Kirovsk,"","","",53.2693,29.4752
BY,213941,Пацева Слобода,Moghilev,"",Kirovsk,"","","",53.2111,29.5373
BY,213942,Козуличи,Moghilev,"",Kirovsk,"","","",53.2669,29.3472
BY,213943,Подречье,Moghilev,"",Kirovsk,"","","",53.2292,29.3645
BY,213944,Мышковичи,Moghilev,"",Kirovsk,"","","",53.2172,29.512
BY,213945,Павловичи,Moghilev,"",Kirovsk,"","","",53.1753,29.5478
BY,213946,Барсуки,Moghilev,"",Kirovsk,"","","",53.1966,29.5594
BY,213947,Левковичи,Moghilev,"",Kirovsk,"","","",53.1837,29.6711
BY,213948,Жиличи,Moghilev,"",Kirovsk,"","","",53.16,29.6806
BY,213949,Добосна,Moghilev,"",Kirovsk,"","","",53.2014,29.678
BY,213950,Скачев,Moghilev,"",Kirovsk,"","","",53.4161,29.6272
BY,213951,Боровица,Moghilev,"",Kirovsk,"","","",53.7707,29.3419
BY,213952,Городец,Moghilev,"",Kirovsk,"","","",53.4035,29.4949
BY,213953,Хвойница,Moghilev,"",Kirovsk,"","","",53.4161,29.6272
BY,213954,Стайки,Moghilev,"",Kirovsk,"","","",53.3741,29.8153
BY,213956,Чигиринка,Moghilev,"",Kirovsk,"","","",53.4213,29.853
BY,213957,Шалаевка,Moghilev,"",Kirovsk,"","","",53.4161,29.6272
BY,213958,Капустино,Moghilev,"",Kirovsk,"","","",53.2677,29.59
BY,213959,Барчицы,Moghilev,"",Kirovsk,"","","",53.259,29.6682
BY,213960,Скриплица,Moghilev,"",Kirovsk,"","","",53.5156,29.6816
BY,213970,Дрибин,Moghilev,"",Dribin,"","","",54.1192,31.0939
BY,213974,Белая,Moghilev,"",Dribin,"","","",54.1326,30.8266
BY,213975,Коровчино,Moghilev,"",Dribin,"","","",54.0463,30.8274
BY,213976,Кледневичи,Moghilev,"",Dribin,"","","",54.1723,31.1191
BY,213978,Михеевка,Moghilev,"",Dribin,"","","",54.6565,31.1048
BY,213979,Пудовня,Moghilev,"",Dribin,"","","",54.2254,30.9944
BY,213980,Рясна,Moghilev,"",Dribin,"","","",53.5156,29.6816
BY,213981,Старое Прибужье,Moghilev,"",Dribin,"","","",53.5156,29.6816
BY,213983,Темный Лес,Moghilev,"",Dribin,"","","",53.5156,29.6816
BY,213984,Чернявка,Moghilev,"",Dribin,"","","",53.5156,29.6816
BY,220000,Минск,Minsk,"",Minsk,"","","",53.9,27.5667
BY,220002,Minsk,Minsk,"","","","","",53.9,27.5667
BY,220004,Minsk,Minsk,"","","","","",53.9,27.5667
BY,220005,Minsk,Minsk,"","","","","",53.9,27.5667
BY,220006,Minsk,Minsk,"","","","","",53.9,27.5667
BY,220007,Minsk,Minsk,"","","","","",53.9,27.5667
BY,220008,Minsk,Minsk,"","","","","",53.9,27.5667
BY,220010,Minsk,Minsk,"","","","","",53.9,27.5667
BY,220012,Minsk,Minsk,"","","","","",53.9,27.5667
BY,220013,Minsk,Minsk,"","","","","",53.9,27.5667
BY,220014,Minsk,Minsk,"","","","","",53.9,27.5667
BY,220015,Minsk,Minsk,"","","","","",53.9,27.5667
BY,220016,Minsk,Minsk,"","","","","",53.9,27.5667
BY,220017,Minsk,Minsk,"","","","","",53.9,27.5667
BY,220018,Minsk,Minsk,"","","","","",53.9,27.5667
BY,220019,Minsk,Minsk,"","","","","",53.9,27.5667
BY,220020,Minsk,Minsk,"","","","","",53.9,27.5667
BY,220021,Minsk,Minsk,"","","","","",53.9,27.5667
BY,220024,Minsk,Minsk,"","","","","",53.9,27.5667
BY,220024,Холопеничи,Minsk,"",Kroupki,"","","",54.5175,28.9565
BY,220025,Minsk,Minsk,"","","","","",53.9,27.5667
BY,220026,Minsk,Minsk,"","","","","",53.9,27.5667
BY,220027,Minsk,Minsk,"","","","","",53.9,27.5667
BY,220028,Minsk,Minsk,"","","","","",53.9,27.5667
BY,220029,Minsk,Minsk,"","","","","",53.9,27.5667
BY,220030,Minsk,Minsk,"","","","","",53.9,27.5667
BY,220031,Minsk,Minsk,"","","","","",53.9,27.5667
BY,220033,Minsk,Minsk,"","","","","",53.9,27.5667
BY,220034,Minsk,Minsk,"","","","","",53.9,27.5667
BY,220035,Minsk,Minsk,"","","","","",53.9,27.5667
BY,220036,Minsk,Minsk,"","","","","",53.9,27.5667
BY,220037,Minsk,Minsk,"","","","","",53.9,27.5667
BY,220039,Minsk,Minsk,"","","","","",53.9,27.5667
BY,220040,Minsk,Minsk,"","","","","",53.9,27.5667
BY,220042,Minsk,Minsk,"","","","","",53.9,27.5667
BY,220043,Minsk,Minsk,"","","","","",53.9,27.5667
BY,220044,Minsk,Minsk,"","","","","",53.9,27.5667
BY,220047,Minsk,Minsk,"","","","","",53.9,27.5667
BY,220048,Minsk,Minsk,"","","","","",53.9,27.5667
BY,220049,Minsk,Minsk,"","","","","",53.9,27.5667
BY,220050,Minsk,Minsk,"","","","","",53.9,27.5667
BY,220051,Minsk,Minsk,"","","","","",53.9,27.5667
BY,220053,Minsk,Minsk,"","","","","",53.9,27.5667
BY,220056,Minsk,Minsk,"","","","","",53.9,27.5667
BY,220057,Minsk,Minsk,"","","","","",53.9,27.5667
BY,220060,Minsk,Minsk,"","","","","",53.9,27.5667
BY,220066,Minsk,Minsk,"","","","","",53.9,27.5667
BY,220068,Minsk,Minsk,"","","","","",53.9,27.5667
BY,220070,Minsk,Minsk,"","","","","",53.9,27.5667
BY,220072,Minsk,Minsk,"","","","","",53.9,27.5667
BY,220073,Minsk,Minsk,"","","","","",53.9,27.5667
BY,220075,Minsk,Minsk,"","","","","",53.9,27.5667
BY,220077,Minsk,Minsk,"","","","","",53.9,27.5667
BY,220079,Minsk,Minsk,"","","","","",53.9,27.5667
BY,220082,Minsk,Minsk,"","","","","",53.9,27.5667
BY,220085,Minsk,Minsk,"","","","","",53.9,27.5667
BY,220086,Minsk,Minsk,"","","","","",53.9,27.5667
BY,220088,Minsk,Minsk,"","","","","",53.9,27.5667
BY,220089,Minsk,Minsk,"","","","","",53.9,27.5667
BY,220090,Minsk,Minsk,"","","","","",53.9,27.5667
BY,220092,Minsk,Minsk,"","","","","",53.9,27.5667
BY,220093,Minsk,Minsk,"","","","","",53.9,27.5667
BY,220094,Minsk,Minsk,"","","","","",53.9,27.5667
BY,220095,Minsk,Minsk,"","","","","",53.9,27.5667
BY,220096,Minsk,Minsk,"","","","","",53.9,27.5667
BY,220099,Minsk,Minsk,"","","","","",53.9,27.5667
BY,220100,Minsk,Minsk,"","","","","",53.9,27.5667
BY,220101,Minsk,Minsk,"","","","","",53.9,27.5667
BY,220102,Minsk,Minsk,"","","","","",53.9,27.5667
BY,220103,Minsk,Minsk,"","","","","",53.9,27.5667
BY,220104,Minsk,Minsk,"","","","","",53.9,27.5667
BY,220107,Minsk,Minsk,"","","","","",53.9,27.5667
BY,220108,Minsk,Minsk,"","","","","",53.9,27.5667
BY,220109,Minsk,Minsk,"","","","","",53.9,27.5667
BY,220112,Minsk,Minsk,"","","","","",53.9,27.5667
BY,220113,Minsk,Minsk,"","","","","",53.9,27.5667
BY,220114,Minsk,Minsk,"","","","","",53.9,27.5667
BY,220116,Minsk,Minsk,"","","","","",53.9,27.5667
BY,220117,Minsk,Minsk,"","","","","",53.9,27.5667
BY,220118,Minsk,Minsk,"","","","","",53.9,27.5667
BY,220119,Minsk,Minsk,"","","","","",53.9,27.5667
BY,220121,Minsk,Minsk,"","","","","",53.9,27.5667
BY,220123,Minsk,Minsk,"","","","","",53.9,27.5667
BY,220124,Minsk,Minsk,"","","","","",53.9,27.5667
BY,220125,Minsk,Minsk,"","","","","",53.9,27.5667
BY,220126,Minsk,Minsk,"","","","","",53.9,27.5667
BY,220131,Minsk,Minsk,"","","","","",53.9,27.5667
BY,220136,Minsk,Minsk,"","","","","",53.9,27.5667
BY,220137,Minsk,Minsk,"","","","","",53.9,27.5667
BY,220138,Minsk,Minsk,"","","","","",53.9,27.5667
BY,220140,Minsk,Minsk,"","","","","",53.9,27.5667
BY,220141,Minsk,Minsk,"","","","","",53.9,27.5667
BY,220902,Минск - Сокол,Minsk,"",Minsk,"","","",53.9067,27.5818
BY,222010,Крупки,Minsk,"",Kroupki,"","","",54.3027,29.0739
BY,222011,Худовцы,Minsk,"",Kroupki,"","","",54.4497,29.2829
BY,222012,Смородинка,Minsk,"",Kroupki,"","","",54.4359,29.3611
BY,222013,Прошика,Minsk,"",Kroupki,"","","",54.4875,29.1478
BY,222014,Обчуга,Minsk,"",Kroupki,"","","",54.5004,29.3695
BY,222017,Яновщина,Minsk,"",Kroupki,"","","",54.4497,29.2829
BY,222018,Замки,Minsk,"",Kroupki,"","","",54.3824,29.2893
BY,222019,Косеничи,Minsk,"",Kroupki,"","","",54.5894,29.4557
BY,222020,Крупский,Minsk,"",Kroupki,"","","",54.5175,28.9565
BY,222021,Игрушка,Minsk,"",Kroupki,"","","",54.4004,29.0499
BY,222022,Хотюхово,Minsk,"",Kroupki,"","","",54.4324,28.8837
BY,222023,Узнацк,Minsk,"",Kroupki,"","","",54.4709,28.9849
BY,222025,Слобода,Minsk,"",Kroupki,"","","",53.9127,28.5735
BY,222026,Ротань,Minsk,"",Kroupki,"","","",54.4151,29.1247
BY,222027,Староселье,Minsk,"",Kroupki,"","","",54.368,29.007
BY,222028,Колодница,Minsk,"",Kroupki,"","","",54.5497,29.1936
BY,222029,Якимовка,Minsk,"",Kroupki,"","","",54.4881,28.9219
BY,222030,Выдрица,Minsk,"",Kroupki,"","","",54.1798,29.0487
BY,222031,Докудово,Minsk,"",Kroupki,"","","",54.3256,28.8986
BY,222032,Нача,Minsk,"",Kroupki,"","","",54.2857,28.9727
BY,222040,Бобр,Minsk,"",Kroupki,"","","",54.342,29.2736
BY,222042,Новые Денисовичи,Minsk,"",Kroupki,"","","",54.1869,29.2671
BY,222044,Ухвала,Minsk,"",Kroupki,"","","",54.1062,29.2142
BY,222045,Старая Слобода,Minsk,"",Kroupki,"","","",54.1125,29.3136
BY,222114,Пересады,Minsk,"",Borissov,"","","",54.133,28.418
BY,222115,Гливин,Minsk,"",Borissov,"","","",54.1589,28.6083
BY,222117,Забашевичи,Minsk,"",Borissov,"","","",54.0715,28.6188
BY,222118,Черневичи,Minsk,"",Borissov,"","","",54.0391,28.7575
BY,222120,Борисов,Minsk,"",Borissov,"","","",54.2279,28.505
BY,222121,Новоселки,Minsk,"",Borissov,"","","",54.3192,28.7715
BY,222122,Лошница,Minsk,"",Borissov,"","","",54.2796,28.7649
BY,222123,Приямино,Minsk,"",Borissov,"","","",54.2805,28.8394
BY,222124,Велятичи,Minsk,"",Borissov,"","","",54.164,28.9071
BY,222125,Новосады,Minsk,"",Borissov,"","","",54.2515,28.7104
BY,222126,Большие Негновичи,Minsk,"",Borissov,"","","",54.2286,28.7611
BY,222127,Неманица,Minsk,"",Borissov,"","","",54.274,28.6119
BY,222128,Оздятичи,Minsk,"",Borissov,"","","",54.0992,28.8361
BY,222130,Староборисов,Minsk,"",Borissov,"","","",54.2807,28.482
BY,222131,Бытча,Minsk,"",Borissov,"","","",54.3083,28.4085
BY,222132,Веселово,Minsk,"",Borissov,"","","",54.3647,28.3403
BY,222133,Зембин,Minsk,"",Borissov,"","","",54.3579,28.2207
BY,222134,Корсаковичи,Minsk,"",Borissov,"","","",54.461,28.2905
BY,222135,Иканы,Minsk,"",Borissov,"","","",54.4981,28.2158
BY,222136,Ганцевичи,Minsk,"",Borissov,"","","",54.3855,28.2544
BY,222137,Мстиж,Minsk,"",Borissov,"","","",54.565,28.1982
BY,222138,Нивки,Minsk,"",Borissov,"","","",54.2485,27.8788
BY,222140,Житьково,Minsk,"",Borissov,"","","",54.3377,28.5663
BY,222142,Зачистье,Minsk,"",Borissov,"","","",54.3971,28.7511
BY,222143,Бродовка,Minsk,"",Borissov,"","","",54.4079,28.5845
BY,222144,Кищина Слобода,Minsk,"",Borissov,"","","",54.3355,28.5941
BY,222145,Холхолица,Minsk,"",Borissov,"","","",54.3355,28.5941
BY,222146,Новая Метча,Minsk,"",Borissov,"","","",54.1864,28.7417
BY,222147,Большая Ухолода,Minsk,"",Borissov,"","","",54.3355,28.5941
BY,222149,Костюки,Minsk,"",Borissov,"","","",54.3484,28.3267
BY,222150,Барань,Minsk,"",Borissov,"","","",54.4911,28.6686
BY,222151,Моисеевщина,Minsk,"",Borissov,"","","",54.5672,28.6995
BY,222152,Жортай,Minsk,"",Borissov,"","","",54.5477,28.5927
BY,222154,Трояновка,Minsk,"",Borissov,"","","",54.5442,28.7977
BY,222160,Жодино,Minsk,"",Smolevitchi,"","","",54.0985,28.3331
BY,222209,Орешники,Minsk,"",Smolevitchi,"","","",53.9781,27.9635
BY,222210,Смолевичи,Minsk,"",Smolevitchi,"","","",54.0249,28.0894
BY,222211,Курково,Minsk,"",Smolevitchi,"","","",54.0712,28.068
BY,222212,Усяж,Minsk,"",Smolevitchi,"","","",54.076,28.007
BY,222213,Прилепы,Minsk,"",Smolevitchi,"","","",54.0722,27.8397
BY,222214,Усяжа,Minsk,"",Smolevitchi,"","","",54.0922,27.9171
BY,222215,Слобода,Minsk,"",Smolevitchi,"","","",54.0087,27.8866
BY,222216,Юрьево,Minsk,"",Smolevitchi,"","","",54.1648,28.0938
BY,222217,Жажелка,Minsk,"",Smolevitchi,"","","",54.0934,28.1588
BY,222218,Зеленый Бор,Minsk,"",Smolevitchi,"","","",54.0119,28.4843
BY,222219,Дынаровка,Minsk,"",Smolevitchi,"","","",54.0684,28.0605
BY,222220,Плиса,Minsk,"",Smolevitchi,"","","",54.0501,28.193
BY,222221,Черницкий,Minsk,"",Smolevitchi,"","","",54.0056,28.2449
BY,222223,Заболотье,Minsk,"",Smolevitchi,"","","",53.7809,27.9183
BY,222224,Петровичи,Minsk,"",Smolevitchi,"","","",53.8341,27.958
BY,222225,Ворот,Minsk,"",Smolevitchi,"","","",53.9509,28.113
BY,222226,Пекалин,Minsk,"",Smolevitchi,"","","",53.9088,28.1226
BY,222227,Драчково,Minsk,"",Smolevitchi,"","","",53.8205,28.077
BY,222228,Алесино,Minsk,"",Smolevitchi,"","","",53.955,28.2377
BY,222229,Курганье,Minsk,"",Smolevitchi,"","","",53.688,27.4427
BY,222230,Кленник,Minsk,"",Smolevitchi,"","","",53.94,28.4132
BY,222232,Задомля,Minsk,"",Smolevitchi,"","","",54.0499,27.8843
BY,222310,Молодечно,Minsk,"",Molodetchno,"","","",54.3167,26.854
BY,222311,Тюрли,Minsk,"",Molodetchno,"","","",54.2851,26.7464
BY,222312,Полачаны,Minsk,"",Molodetchno,"","","",54.3321,26.676
BY,222313,Березинское,Minsk,"",Molodetchno,"","","",54.3321,26.676
BY,222315,Лебедево,Minsk,"",Molodetchno,"","","",54.3131,26.7024
BY,222316,Турец Бояры,Minsk,"",Molodetchno,"","","",54.3321,26.676
BY,222317,Засковичи,Minsk,"",Molodetchno,"","","",54.3967,26.6083
BY,222318,Марково,Minsk,"",Molodetchno,"","","",54.334,26.5884
BY,222319,Беница,Minsk,"",Molodetchno,"","","",54.3472,26.5563
BY,222320,Красное,Minsk,"",Molodetchno,"","","",54.2438,27.0758
BY,222321,Чисть,Minsk,"",Molodetchno,"","","",54.2698,27.1067
BY,222322,Радошковичи,Minsk,"",Molodetchno,"","","",54.1554,27.2412
BY,222323,Олехновичи,Minsk,"",Molodetchno,"","","",54.1531,27.098
BY,222324,Дуброво,Minsk,"",Molodetchno,"","","",54.0902,27.0924
BY,222330,Крыница,Minsk,"",Molodetchno,"","","",54.29,26.9611
BY,222331,Видевщина,Minsk,"",Molodetchno,"","","",54.215,26.9387
BY,222332,Раевка,Minsk,"",Molodetchno,"","","",54.3033,27.2254
BY,222333,Граничи,Minsk,"",Molodetchno,"","","",54.2187,27.1904
BY,222334,Хожово,Minsk,"",Molodetchno,"","","",54.2458,26.8365
BY,222335,Холхлово,Minsk,"",Molodetchno,"","","",54.1659,26.7682
BY,222336,Городок,Minsk,"",Molodetchno,"","","",54.1545,26.9213
BY,222337,Селевцы,Minsk,"",Molodetchno,"","","",54.1271,26.7976
BY,222338,Носилово,Minsk,"",Molodetchno,"","","",54.3044,26.7821
BY,222339,Петровщина,Minsk,"",Molodetchno,"","","",54.1257,26.9654
BY,222340,Воложин,Minsk,"",Volojin,"","","",54.0892,26.5266
BY,222341,Саковщина,Minsk,"",Volojin,"","","",54.1098,26.3632
BY,222342,Адамово,Minsk,"",Volojin,"","","",54.1378,26.3126
BY,222343,Вишнево,Minsk,"",Volojin,"","","",54.139,26.2042
BY,222344,Богданов,Minsk,"",Volojin,"","","",54.177,26.1068
BY,222345,Подберезье,Minsk,"",Volojin,"","","",54.6474,27.1028
BY,222347,Сивица,Minsk,"",Volojin,"","","",54.3646,26.5069
BY,222348,Судники,Minsk,"",Volojin,"","","",53.9039,26.8993
BY,222350,Брильки,Minsk,"",Volojin,"","","",54.1102,26.5841
BY,222351,Сугвозды,Minsk,"",Volojin,"","","",54.1177,26.6898
BY,222352,Узболоть,Minsk,"",Volojin,"","","",54.1819,26.4992
BY,222353,Забрезье,Minsk,"",Volojin,"","","",54.1795,26.5318
BY,222354,Городьки,Minsk,"",Volojin,"","","",54.218,26.4481
BY,222355,Лоск,Minsk,"",Volojin,"","","",54.2698,26.4376
BY,222360,Бобровичи,Minsk,"",Volojin,"","","",54.0481,26.5708
BY,222361,Першаи,Minsk,"",Volojin,"","","",54.0496,26.8914
BY,222362,Доры,Minsk,"",Volojin,"","","",54.0765,26.7725
BY,222363,Яршевичи,Minsk,"",Volojin,"","","",54.0368,26.9076
BY,222364,Дворец,Minsk,"",Volojin,"","","",54.0716,26.9015
BY,222365,Раков,Minsk,"",Volojin,"","","",53.9674,27.0562
BY,222366,Залесье,Minsk,"",Volojin,"","","",54.0594,27.0331
BY,222369,Пугачи,Minsk,"",Volojin,"","","",54.0874,26.9978
BY,222370,Ивенец,Minsk,"",Volojin,"","","",53.8864,26.7432
BY,222371,Камень,Minsk,"",Volojin,"","","",54.5777,27.4686
BY,222372,Падневичи,Minsk,"",Volojin,"","","",53.9683,26.8333
BY,222373,Родники,Minsk,"",Volojin,"","","",53.9047,26.8105
BY,222374,Волма,Minsk,"",Dzerjinsk,"","","",53.8711,26.9535
BY,222374,Будслав,Minsk,"",Miadel,"","","",54.7833,27.45
BY,222375,Илово,Minsk,"",Miadel,"","","",54.8281,27.4519
BY,222376,Кривичи,Minsk,"",Miadel,"","","",54.7132,27.2886
BY,222377,Княгинин,Minsk,"",Miadel,"","","",54.6845,27.1699
BY,222378,Осово,Minsk,"",Miadel,"","","",54.7236,27.2062
BY,222379,Пузырь,Minsk,"",Miadel,"","","",54.3941,27.1376
BY,222380,Мядель,Minsk,"",Miadel,"","","",54.8789,26.9371
BY,222381,Лотва,Minsk,"",Miadel,"","","",54.9826,26.8902
BY,222382,Занарочь,Minsk,"",Miadel,"","","",54.8035,26.7757
BY,222383,Узла,Minsk,"",Miadel,"","","",54.7198,26.9393
BY,222384,Сварки,Minsk,"",Miadel,"","","",54.8511,26.6961
BY,222385,Черевки,Minsk,"",Miadel,"","","",54.8944,26.7672
BY,222386,Константиново,Minsk,"",Miadel,"","","",54.9173,26.4549
BY,222387,Свирь,Minsk,"",Miadel,"","","",54.8517,26.395
BY,222388,Старлыги,Minsk,"",Miadel,"","","",54.8264,26.5126
BY,222389,Сырмеж,Minsk,"",Miadel,"","","",54.7849,26.593
BY,222390,Зани,Minsk,"",Miadel,"","","",54.8858,27.0878
BY,222392,Слобода,Minsk,"",Miadel,"","","",54.7118,26.7663
BY,222393,Старые Габы,Minsk,"",Miadel,"","","",54.7665,26.9804
BY,222394,Комарово,Minsk,"",Miadel,"","","",54.7649,27.3861
BY,222395,Нарочь,Minsk,"",Miadel,"","","",54.5652,26.7314
BY,222396,Нарочь - Деревня,Minsk,"",Miadel,"","","",54.7665,26.9804
BY,222399,Бояры,Minsk,"",Miadel,"","","",54.905,26.9303
BY,222400,Лукьяновичи,Minsk,"",Miadel,"","","",54.8521,27.01
BY,222401,Зубренок,Minsk,"",Miadel,"","","",54.7987,26.9979
BY,222403,Гатовичи,Minsk,"",Miadel,"","","",54.8559,26.8686
BY,222404,Выголовичи,Minsk,"",Miadel,"","","",54.688,27.1151
BY,222410,Вилейка,Minsk,"",Vileika,"","","",54.4914,26.9111
BY,222411,Осиповичи,Minsk,"",Vileika,"","","",54.4551,26.8459
BY,222415,Куренец,Minsk,"",Vileika,"","","",54.561,26.9585
BY,222418,Нарочь,Minsk,"",Vileika,"","","",54.5652,26.7314
BY,222421,Балаши,Minsk,"",Vileika,"","","",54.632,27.0791
BY,222422,Стешицы,Minsk,"",Vileika,"","","",54.5722,27.398
BY,222423,Жары,Minsk,"",Vileika,"","","",54.6243,27.3747
BY,222424,Долгиново,Minsk,"",Vileika,"","","",54.6434,27.4752
BY,222425,Погост,Minsk,"",Vileika,"","","",54.6244,27.5656
BY,222426,Мильча,Minsk,"",Vileika,"","","",54.6821,27.616
BY,222428,Язни,Minsk,"",Vileika,"","","",54.6861,27.3513
BY,222429,Терешки,Minsk,"",Vileika,"","","",54.6589,27.2744
BY,222430,Кривое Село,Minsk,"",Vileika,"","","",54.5309,27.0508
BY,222431,Илья,Minsk,"",Vileika,"","","",54.4167,27.2958
BY,222434,Хотенчицы,Minsk,"",Vileika,"","","",54.414,27.2262
BY,222435,Карповичи,Minsk,"",Vileika,"","","",54.2943,27.3319
BY,222440,Рабунь,Minsk,"",Vileika,"","","",54.5032,27.1525
BY,222441,Заболотье,Minsk,"",Vileika,"","","",54.3527,26.7868
BY,222442,Матьковцы,Minsk,"",Vileika,"","","",54.3814,26.8676
BY,222445,Вязынь,Minsk,"",Vileika,"","","",54.4166,27.1726
BY,222446,Редьковичи,Minsk,"",Vileika,"","","",54.4453,27.0729
BY,222447,Селище,Minsk,"",Vileika,"","","",54.1893,26.1534
BY,222451,Любань,Minsk,"",Vileika,"","","",54.595,26.8719
BY,222452,Журихи,Minsk,"",Vileika,"","","",54.6243,26.908
BY,222453,Талуть,Minsk,"",Vileika,"","","",54.6892,26.9427
BY,222454,Ижа,Minsk,"",Vileika,"","","",54.66,26.7694
BY,222455,Лыцевичи,Minsk,"",Vileika,"","","",54.7182,26.6333
BY,222459,Ерхи,Minsk,"",Vileika,"","","",54.5666,27.227
BY,222460,Бубны,Minsk,"",Vileika,"","","",54.7502,27.5719
BY,222461,Партизанский,Minsk,"",Vileika,"","","",54.6338,27.5928
BY,222462,Людвиново,Minsk,"",Vileika,"","","",54.5174,27.6136
BY,222533,Смоличи,Minsk,"",Kletsk,"","","",52.928,26.822
BY,222534,Озеречье,Minsk,"",Kletsk,"","","",52.8647,26.5036
BY,222535,Щепичи,Minsk,"",Kletsk,"","","",52.9572,26.6713
BY,222536,Секеричи,Minsk,"",Kletsk,"","","",53.0789,26.6882
BY,222601,Высокая Липа,Minsk,"",Nesvij,"","","",53.2328,26.47
BY,222602,Оношки,Minsk,"",Nesvij,"","","",53.1841,26.4751
BY,222604,Старые Новоселки,Minsk,"",Nesvij,"","","",53.2911,26.6631
BY,222605,Друцковщизна,Minsk,"",Nesvij,"","","",53.2319,26.3233
BY,222610,Городея,Minsk,"",Nesvij,"","","",53.3121,26.538
BY,222612,Островки,Minsk,"",Nesvij,"","","",53.3536,26.443
BY,222613,Большая Лысица,Minsk,"",Nesvij,"","","",53.2438,26.1965
BY,222615,Снов,Minsk,"",Nesvij,"","","",53.2201,26.401
BY,222617,Грицкевичи,Minsk,"",Nesvij,"","","",53.1743,24.7121
BY,222618,Козлы,Minsk,"",Nesvij,"","","",53.1717,26.5064
BY,222619,Саска - Липка,Minsk,"",Nesvij,"","","",53.231,26.5785
BY,222620,Несвиж,Minsk,"",Nesvij,"","","",53.2189,26.6779
BY,222621,Рудавка,Minsk,"",Nesvij,"","","",53.2351,26.6494
BY,222622,Навые Новоселки,Minsk,"",Nesvij,"","","",53.2483,26.7374
BY,222623,Сейловичи,Minsk,"",Nesvij,"","","",53.2799,26.7695
BY,222624,Затурья,Minsk,"",Nesvij,"","","",53.2808,26.8364
BY,222625,Юшевичи,Minsk,"",Nesvij,"","","",53.2483,26.7374
BY,222626,Славково,Minsk,"",Nesvij,"","","",53.2269,26.7538
BY,222630,Квачи,Minsk,"",Nesvij,"","","",53.2492,26.5705
BY,222631,Карцевичи,Minsk,"",Nesvij,"","","",53.1623,26.6683
BY,222632,Лань,Minsk,"",Nesvij,"","","",53.148,26.6896
BY,222633,Большая Быховщина,Minsk,"",Nesvij,"","","",53.1312,26.6363
BY,222634,Леоновичи,Minsk,"",Nesvij,"","","",53.1206,26.7769
BY,222635,Солтановщина,Minsk,"",Nesvij,"","","",53.1623,26.6683
BY,222640,Клецк,Minsk,"",Kletsk,"","","",53.0635,26.6321
BY,222641,Гурновщина,Minsk,"",Kletsk,"","","",53.0499,26.7459
BY,222642,Красная Звезда,Minsk,"",Kletsk,"","","",53.0104,26.6801
BY,222643,Грицевичи,Minsk,"",Kletsk,"","","",52.9826,26.7172
BY,222644,Орешница,Minsk,"",Kletsk,"","","",52.8859,26.6603
BY,222645,Лозовичи,Minsk,"",Kletsk,"","","",52.9956,26.7113
BY,222646,Морочь,Minsk,"",Kletsk,"","","",52.8732,26.8712
BY,222647,Заостровечье,Minsk,"",Kletsk,"","","",52.9956,26.7113
BY,222648,Загорная,Minsk,"",Kletsk,"","","",52.9956,26.7113
BY,222649,Рассвет,Minsk,"",Kletsk,"","","",53.1037,26.6721
BY,222650,Кухчицы,Minsk,"",Kletsk,"","","",53.0122,26.5583
BY,222651,Залешаны,Minsk,"",Kletsk,"","","",53.0309,26.4821
BY,222652,Синявка,Minsk,"",Kletsk,"","","",52.9636,26.4598
BY,222653,Голынка,Minsk,"",Kletsk,"","","",52.8922,26.546
BY,222654,Туча,Minsk,"",Kletsk,"","","",52.9606,26.5429
BY,222655,Карацк,Minsk,"",Kletsk,"","","",52.9311,26.568
BY,222656,Орда,Minsk,"",Kletsk,"","","",53.1249,26.4768
BY,222657,Домоткановичи,Minsk,"",Kletsk,"","","",53.1177,26.548
BY,222658,Зубки,Minsk,"",Kletsk,"","","",53.0805,26.7547
BY,222659,Яновичи,Minsk,"",Kletsk,"","","",53.0087,26.6465
BY,222660,Столбцы,Minsk,"",Stolbtsy,"","","",53.4785,26.7434
BY,222662,Засулье,Minsk,"",Stolbtsy,"","","",53.5754,26.8409
BY,222663,Рубежевичи,Minsk,"",Stolbtsy,"","","",53.6885,26.8642
BY,222664,Литва,Minsk,"",Stolbtsy,"","","",53.7745,26.8078
BY,222665,Рочевичи,Minsk,"",Stolbtsy,"","","",53.8199,26.8406
BY,222670,Слобода,Minsk,"",Stolbtsy,"","","",53.5145,26.7833
BY,222671,Заямное,Minsk,"",Stolbtsy,"","","",53.5092,26.7074
BY,222672,Опечки,Minsk,"",Stolbtsy,"","","",53.5413,26.6594
BY,222673,Аталезь,Minsk,"",Stolbtsy,"","","",53.57,26.6051
BY,222674,Старина,Minsk,"",Stolbtsy,"","","",53.6338,26.5999
BY,222675,Шашки,Minsk,"",Stolbtsy,"","","",53.616,26.6797
BY,222676,Тоново,Minsk,"",Stolbtsy,"","","",53.7237,26.767
BY,222680,Деревное,Minsk,"",Stolbtsy,"","","",53.6986,26.5646
BY,222681,Хотова,Minsk,"",Stolbtsy,"","","",53.7542,26.629
BY,222682,Пруды,Minsk,"",Stolbtsy,"","","",53.7897,26.5305
BY,222683,Налибоки,Minsk,"",Stolbtsy,"","","",53.7619,26.4685
BY,222684,Клетище,Minsk,"",Stolbtsy,"","","",53.2945,26.9968
BY,222685,Нивное,Minsk,"",Stolbtsy,"","","",53.6857,26.6469
BY,222686,Тесновая,Minsk,"",Stolbtsy,"","","",53.8155,26.6918
BY,222690,Новый Стержень,Minsk,"",Stolbtsy,"","","",53.3988,26.6809
BY,222691,Старый Свержень,Minsk,"",Stolbtsy,"","","",53.4586,26.6767
BY,222692,Залужье,Minsk,"",Stolbtsy,"","","",53.4377,26.6057
BY,222694,Великий Двор,Minsk,"",Stolbtsy,"","","",53.357,26.5485
BY,222695,Горки,Minsk,"",Stolbtsy,"","","",53.3911,26.6364
BY,222696,Вишневец,Minsk,"",Stolbtsy,"","","",53.3988,26.6809
BY,222697,Любковщина,Minsk,"",Stolbtsy,"","","",53.3429,26.7763
BY,222698,Николаевщина,Minsk,"",Stolbtsy,"","","",53.4054,26.8416
BY,222699,Мархачевщина,Minsk,"",Stolbtsy,"","","",53.3988,26.6809
BY,222700,Яблоновка,Minsk,"",Stolbtsy,"","","",53.6776,27.1109
BY,222710,Негорелое,Minsk,"",Dzerjinsk,"","","",53.6104,27.0733
BY,222720,Дзержинск,Minsk,"",Dzerjinsk,"","","",53.6832,27.138
BY,222721,Дворище,Minsk,"",Dzerjinsk,"","","",54.1737,26.6574
BY,222722,Черниковщина,Minsk,"",Dzerjinsk,"","","",53.7394,27.1847
BY,222724,Гричино,Minsk,"",Dzerjinsk,"","","",53.7336,27.3843
BY,222725,Боровики,Minsk,"",Dzerjinsk,"","","",53.6838,27.4389
BY,222726,Томковичи,Minsk,"",Dzerjinsk,"","","",53.6818,27.3498
BY,222727,Гарбузы,Minsk,"",Dzerjinsk,"","","",53.569,27.0744
BY,222728,Петревичи,Minsk,"",Dzerjinsk,"","","",53.7538,27.1953
BY,222729,Черкассы,Minsk,"",Dzerjinsk,"","","",53.7662,27.3347
BY,222730,Логовище,Minsk,"",Dzerjinsk,"","","",53.5336,27.0661
BY,222731,Станьково,Minsk,"",Dzerjinsk,"","","",53.6292,27.229
BY,222732,Ляховичи,Minsk,"",Dzerjinsk,"","","",53.0388,26.2656
BY,222733,Даниловичи,Minsk,"",Dzerjinsk,"","","",53.6025,27.353
BY,222735,Боровое,Minsk,"",Dzerjinsk,"","","",53.6724,27.0095
BY,222736,Журавинка,Minsk,"",Dzerjinsk,"","","",53.6663,26.9301
BY,222737,Старинки,Minsk,"",Dzerjinsk,"","","",53.7295,26.995
BY,222738,Поселок Энергетиков,Minsk,"",Dzerjinsk,"","","",53.5663,26.9867
BY,222739,Касиловичи,Minsk,"",Dzerjinsk,"","","",53.6585,27.0454
BY,222740,Новоселки,Minsk,"",Dzerjinsk,"","","",53.7303,27.1335
BY,222741,Путчино,Minsk,"",Dzerjinsk,"","","",53.7964,27.0287
BY,222742,Путчино 1,Minsk,"",Dzerjinsk,"","","",53.7464,27.1442
BY,222743,Скирмонтово,Minsk,"",Dzerjinsk,"","","",53.7464,27.1442
BY,222744,Юцки,Minsk,"",Dzerjinsk,"","","",53.7833,27.1485
BY,222746,Заболотье,Minsk,"",Dzerjinsk,"","","",53.6756,27.2663
BY,222750,Фаниполь,Minsk,"",Dzerjinsk,"","","",53.75,27.3334
BY,222810,Марьина Горка,Minsk,"",Poukhovitchi,"","","",53.509,28.147
BY,222812,Блужа,Minsk,"",Poukhovitchi,"","","",53.4201,28.2669
BY,222813,Талька,Minsk,"",Poukhovitchi,"","","",53.3692,28.3429
BY,222814,Сутин,Minsk,"",Poukhovitchi,"","","",53.2966,28.2369
BY,222815,Дубровка,Minsk,"",Poukhovitchi,"","","",53.4553,28.1133
BY,222816,Омельно,Minsk,"",Poukhovitchi,"","","",53.3639,28.037
BY,222817,Селецк,Minsk,"",Poukhovitchi,"","","",53.2673,27.8681
BY,222818,Светлый Бор,Minsk,"",Poukhovitchi,"","","",53.3847,28.1728
BY,222819,Орешковичи,Minsk,"",Poukhovitchi,"","","",53.3959,28.3704
BY,222820,Бор,Minsk,"",Poukhovitchi,"","","",53.5174,28.011
BY,222821,Дричин,Minsk,"",Poukhovitchi,"","","",53.5703,27.9853
BY,222822,Цитва,Minsk,"",Poukhovitchi,"","","",53.5486,27.8628
BY,222823,Свислочь,Minsk,"",Poukhovitchi,"","","",53.6404,27.9199
BY,222824,Шацк,Minsk,"",Poukhovitchi,"","","",53.4307,27.6953
BY,222825,Сергеевичи,Minsk,"",Poukhovitchi,"","","",53.4963,27.7525
BY,222826,Горелец,Minsk,"",Poukhovitchi,"","","",53.4279,27.9306
BY,222828,Ветеревичи - Вторые,Minsk,"",Poukhovitchi,"","","",53.533,27.8955
BY,222829,Энергия,Minsk,"",Poukhovitchi,"","","",53.632,28.0065
BY,222831,Блонь,Minsk,"",Poukhovitchi,"","","",53.5269,28.1732
BY,222832,Пуховичи,Minsk,"",Poukhovitchi,"","","",53.5297,28.2467
BY,222834,Красный Октябрь,Minsk,"",Poukhovitchi,"","","",53.5514,28.1201
BY,222834,Уречье 2,Minsk,"",Luban,"","","",53.5514,28.1201
BY,222836,Турин,Minsk,"",Poukhovitchi,"","","",53.5862,28.239
BY,222837,Ситники,Minsk,"",Poukhovitchi,"","","",53.6206,28.1415
BY,222838,Новоселки,Minsk,"",Poukhovitchi,"","","",53.5202,28.0896
BY,222839,Правдинский,Minsk,"",Poukhovitchi,"","","",53.5248,27.8303
BY,222840,Дукора,Minsk,"",Poukhovitchi,"","","",53.6786,27.94
BY,222841,Голоцк,Minsk,"",Poukhovitchi,"","","",53.6235,27.9384
BY,222842,Зазерье,Minsk,"",Poukhovitchi,"","","",53.6235,27.9384
BY,222843,Седча,Minsk,"",Poukhovitchi,"","","",53.6711,27.7475
BY,222844,Узляны,Minsk,"",Poukhovitchi,"","","",53.6238,27.7152
BY,222845,Новополье,Minsk,"",Poukhovitchi,"","","",53.4935,28.2439
BY,222846,Моторово,Minsk,"",Poukhovitchi,"","","",53.7404,27.8607
BY,222847,Марьино,Minsk,"",Poukhovitchi,"","","",53.5337,28.1234
BY,222850,Руденск,Minsk,"",Poukhovitchi,"","","",53.5983,27.8621
BY,222851,Озеричино,Minsk,"",Poukhovitchi,"","","",53.5753,27.7533
BY,222852,Дружный,Minsk,"",Poukhovitchi,"","","",53.5868,27.8077
BY,222910,Старые Дороги,Minsk,"",Starye Doroghi,"","","",53.0402,28.267
BY,222911,Новые Дороги,Minsk,"",Starye Doroghi,"","","",52.9411,28.3367
BY,222912,Пастовичи,Minsk,"",Starye Doroghi,"","","",53.0468,28.4853
BY,222913,Положевичи,Minsk,"",Starye Doroghi,"","","",52.9294,28.4326
BY,222914,Кривоносы,Minsk,"",Starye Doroghi,"","","",52.8892,28.3977
BY,222915,Пасека,Minsk,"",Starye Doroghi,"","","",52.9294,28.2355
BY,222917,Пруссы,Minsk,"",Starye Doroghi,"","","",52.8449,28.3859
BY,222918,Синегово,Minsk,"",Starye Doroghi,"","","",52.9075,28.1526
BY,222919,Старые Дороги - Совхоз,Minsk,"",Starye Doroghi,"","","",52.9411,28.3367
BY,222920,Паськовы Горки,Minsk,"",Starye Doroghi,"","","",53.0528,28.0308
BY,222921,Подоресье,Minsk,"",Starye Doroghi,"","","",53.1432,28.0619
BY,222922,Дражно,Minsk,"",Starye Doroghi,"","","",53.1678,28.124
BY,222923,Щитковичи,Minsk,"",Starye Doroghi,"","","",53.2186,27.9874
BY,222924,Языль,Minsk,"",Starye Doroghi,"","","",52.9797,27.9723
BY,222925,Теребуты,Minsk,"",Starye Doroghi,"","","",53.2491,28.0457
BY,222926,Залужье,Minsk,"",Starye Doroghi,"","","",53.1336,28.1664
BY,222927,Солон,Minsk,"",Starye Doroghi,"","","",53.0431,28.1193
BY,222930,Верхутино,Minsk,"",Starye Doroghi,"","","",52.9697,28.0586
BY,223011,Прилуки,Minsk,"",Minsk,"","","",53.7928,27.4524
BY,223012,Мачулищи,Minsk,"",Minsk,"","","",53.7788,27.5948
BY,223013,Самохваловичи,Minsk,"",Minsk,"","","",53.7396,27.5037
BY,223014,Крупица,Minsk,"",Minsk,"","","",53.6792,27.5287
BY,223016,Новый Двор,Minsk,"",Minsk,"","","",53.8533,27.3581
BY,223017,Гатово,Minsk,"",Minsk,"","","",53.7829,27.6407
BY,223018,Тарасово,Minsk,"",Minsk,"","","",53.9253,27.3815
BY,223021,Озерцо,Minsk,"",Minsk,"","","",53.8397,27.3917
BY,223022,Старое Село,Minsk,"",Minsk,"","","",53.8863,27.2681
BY,223023,Бровки,Minsk,"",Minsk,"","","",54.0432,27.3858
BY,223024,Тресковщина,Minsk,"",Minsk,"","","",53.9018,27.0801
BY,223025,Новое Поле,Minsk,"",Minsk,"","","",53.9732,27.1317
BY,223027,Городище,Minsk,"",Minsk,"","","",53.8296,27.3337
BY,223028,Ждановичи 2,Minsk,"",Minsk,"","","",53.889,27.3088
BY,223029,Чуриловичи,Minsk,"",Minsk,"","","",53.7489,27.5708
BY,223030,Новоселье,Minsk,"",Minsk,"","","",53.9162,27.2009
BY,223031,Ждановичи 1,Minsk,"",Minsk,"","","",53.9818,27.2714
BY,223032,Аксаковщина,Minsk,"",Minsk,"","","",53.9818,27.2714
BY,223034,Заславль 1,Minsk,"",Minsk,"","","",53.9818,27.2714
BY,223035,Ратомка,Minsk,"",Minsk,"","","",53.9404,27.3444
BY,223036,Заславль,Minsk,"",Minsk,"","","",54.0114,27.2695
BY,223037,Петришки,Minsk,"",Minsk,"","","",54.0686,27.2179
BY,223038,Лошаны,Minsk,"",Minsk,"","","",54.0446,27.2889
BY,223039,Хатежино,Minsk,"",Minsk,"","","",53.9094,27.3069
BY,223040,Лесной,Minsk,"",Minsk,"","","",54.0072,27.6963
BY,223041,Лесной 1,Minsk,"",Minsk,"","","",54.0904,27.4953
BY,223042,Семнов Городок,Minsk,"",Minsk,"","","",54.0904,27.4953
BY,223043,Большевик,Minsk,"",Minsk,"","","",54.0036,27.5669
BY,223044,Вишневка,Minsk,"",Minsk,"","","",54.0606,27.5521
BY,223045,Юзуфово,Minsk,"",Minsk,"","","",54.0904,27.4953
BY,223046,Шепели,Minsk,"",Minsk,"","","",54.1636,27.4952
BY,223047,Рогово,Minsk,"",Minsk,"","","",54.1264,27.3001
BY,223048,Шершуны,Minsk,"",Minsk,"","","",54.1812,27.3609
BY,223049,Щомыслица,Minsk,"",Minsk,"","","",54.0904,27.4953
BY,223050,Колодищи,Minsk,"",Minsk,"","","",53.944,27.7823
BY,223052,Лесной 2,Minsk,"",Minsk,"","","",53.969,27.6796
BY,223053,Боровляны,Minsk,"",Minsk,"","","",54.0022,27.6754
BY,223054,Острошицкий Городок,Minsk,"",Minsk,"","","",54.0651,27.695
BY,223055,Околица,Minsk,"",Minsk,"","","",53.969,27.6796
BY,223056,Сеница,Minsk,"",Minsk,"","","",53.8313,27.5343
BY,223058,Лесковка,Minsk,"",Minsk,"","","",54.0024,27.7108
BY,223060,Тростенец,Minsk,"",Minsk,"","","",54.0379,28.3806
BY,223062,Привольный,Minsk,"",Minsk,"","","",54.0379,28.3806
BY,223063,Луговая Слобода,Minsk,"",Minsk,"","","",54.0379,28.3806
BY,223064,Замосточье,Minsk,"",Minsk,"","","",53.9781,29.2907
BY,223065,Стайки,Minsk,"",Minsk,"","","",54.245,28.6477
BY,223066,Чачково,Minsk,"",Minsk,"","","",53.8905,27.2035
BY,223070,Михановичи,Minsk,"",Minsk,"","","",53.7556,27.7311
BY,223110,Логойск,Minsk,"",Loghoisk,"","","",54.2064,27.8512
BY,223111,Гостиловичи,Minsk,"",Loghoisk,"","","",54.2143,27.904
BY,223113,Острошицы,Minsk,"",Loghoisk,"","","",54.1063,27.6569
BY,223114,Беларучи,Minsk,"",Loghoisk,"","","",54.1196,27.5997
BY,223115,Чуденичи,Minsk,"",Loghoisk,"","","",54.1439,27.7838
BY,223116,Силичи,Minsk,"",Loghoisk,"","","",54.1632,27.8222
BY,223117,Юрковичи,Minsk,"",Loghoisk,"","","",53.7905,26.9804
BY,223118,Червонная Швабовка,Minsk,"",Loghoisk,"","","",54.1063,27.6569
BY,223119,Метличицы,Minsk,"",Loghoisk,"","","",54.1063,27.6569
BY,223120,Логоза,Minsk,"",Loghoisk,"","","",54.2366,27.7606
BY,223121,Гайна,Minsk,"",Loghoisk,"","","",54.2511,27.6992
BY,223123,Корень,Minsk,"",Loghoisk,"","","",54.3404,27.7299
BY,223124,Янушковичи,Minsk,"",Loghoisk,"","","",54.2691,27.6108
BY,223125,Калачи,Minsk,"",Loghoisk,"","","",54.3071,27.5005
BY,223127,Косино,Minsk,"",Loghoisk,"","","",54.1323,27.9595
BY,223130,Плещеницы,Minsk,"",Loghoisk,"","","",54.4235,27.8301
BY,223132,Камено,Minsk,"",Loghoisk,"","","",54.419,28.0297
BY,223134,Октябрь,Minsk,"",Loghoisk,"","","",54.4251,27.7325
BY,223135,Заречье,Minsk,"",Loghoisk,"","","",54.5809,28.1029
BY,223136,Завишено,Minsk,"",Loghoisk,"","","",54.4277,27.7751
BY,223137,Белое,Minsk,"",Loghoisk,"","","",54.4629,27.5874
BY,223138,Крайск,Minsk,"",Loghoisk,"","","",54.5196,27.5023
BY,223139,Семково,Minsk,"",Loghoisk,"","","",54.1627,27.6411
BY,223143,Засовье,Minsk,"",Loghoisk,"","","",54.1981,27.7945
BY,223144,Избище,Minsk,"",Loghoisk,"","","",53.6013,28.2487
BY,223145,Задорье,Minsk,"",Loghoisk,"","","",54.5662,27.6431
BY,223148,Жестинное,Minsk,"",Loghoisk,"","","",54.1981,27.7945
BY,223149,Посадец,Minsk,"",Loghoisk,"","","",54.4267,27.4918
BY,223210,Червень,Minsk,"",Tcherven,"","","",53.7059,28.4313
BY,223211,Гребенка,Minsk,"",Tcherven,"","","",53.8313,28.2431
BY,223212,Клинок,Minsk,"",Tcherven,"","","",53.6692,28.1893
BY,223213,Озерный,Minsk,"",Tcherven,"","","",53.6426,28.3246
BY,223214,Войнилово,Minsk,"",Tcherven,"","","",53.2374,28.9865
BY,223215,Валевачи,Minsk,"",Tcherven,"","","",53.6426,28.3246
BY,223216,Смиловичи,Minsk,"",Tcherven,"","","",53.7496,28.0115
BY,223217,Турец,Minsk,"",Tcherven,"","","",53.6623,28.0859
BY,223219,Красный Дар,Minsk,"",Tcherven,"","","",53.6426,28.3246
BY,223220,Новые Зеленки,Minsk,"",Tcherven,"","","",53.8343,28.3396
BY,223221,Рудня,Minsk,"",Tcherven,"","","",53.8886,28.3741
BY,223222,Чернова,Minsk,"",Tcherven,"","","",53.8637,28.3431
BY,223223,Рованичи,Minsk,"",Tcherven,"","","",53.8854,28.6108
BY,223224,Домовицк,Minsk,"",Tcherven,"","","",53.8181,28.4986
BY,223225,Любашино,Minsk,"",Tcherven,"","","",53.8943,28.435
BY,223226,Колодежи,Minsk,"",Tcherven,"","","",53.7186,28.5685
BY,223227,Хутор,Minsk,"",Tcherven,"","","",53.8804,28.5777
BY,223228,Ганута,Minsk,"",Tcherven,"","","",53.8943,28.435
BY,223229,Заполье,Minsk,"",Tcherven,"","","",54.265,28.168
BY,223230,Горки,Minsk,"",Tcherven,"","","",53.5498,28.0123
BY,223231,Ляды,Minsk,"",Tcherven,"","","",53.7761,28.0894
BY,223233,Луч,Minsk,"",Tcherven,"","","",53.6166,28.7618
BY,223234,Великополье,Minsk,"",Tcherven,"","","",53.6816,28.2705
BY,223235,Гребенец,Minsk,"",Tcherven,"","","",53.6816,28.2705
BY,223237,Черноградь,Minsk,"",Tcherven,"","","",53.7837,28.2186
BY,223239,Шестистоны,Minsk,"",Tcherven,"","","",53.6816,28.2705
BY,223310,Березино,Minsk,"",Berezino,"","","",53.8391,28.9879
BY,223312,Вешевка,Minsk,"",Berezino,"","","",53.8905,29.1191
BY,223313,Дмитровичи,Minsk,"",Berezino,"","","",53.9806,29.1147
BY,223314,Орешковичи,Minsk,"",Berezino,"","","",54.0123,28.9665
BY,223315,Высокая Гора,Minsk,"",Berezino,"","","",53.6738,28.8443
BY,223316,Косовка,Minsk,"",Berezino,"","","",53.7903,29.0291
BY,223317,Лешница,Minsk,"",Berezino,"","","",53.8286,29.0614
BY,223318,Большие Логи,Minsk,"",Berezino,"","","",53.8593,29.0176
BY,223320,Погост,Minsk,"",Berezino,"","","",53.8482,29.1491
BY,223322,Маческ,Minsk,"",Berezino,"","","",53.8209,29.3187
BY,223325,Каменный Борок,Minsk,"",Berezino,"","","",53.7726,29.1658
BY,223327,Бродец,Minsk,"",Berezino,"","","",53.7726,29.1658
BY,223328,Селиба,Minsk,"",Berezino,"","","",53.6185,28.9709
BY,223329,Любушаны,Minsk,"",Berezino,"","","",53.8028,29.2247
BY,223331,Уша,Minsk,"",Berezino,"","","",53.9841,28.8328
BY,223332,Котово,Minsk,"",Berezino,"","","",53.9501,28.7262
BY,223334,Поплавы,Minsk,"",Berezino,"","","",53.8066,28.8698
BY,223335,Новины,Minsk,"",Berezino,"","","",53.7626,28.7987
BY,223336,Богушевичи,Minsk,"",Berezino,"","","",53.7106,28.8237
BY,223337,Якшицы,Minsk,"",Berezino,"","","",53.6198,28.9128
BY,223338,Михалево,Minsk,"",Berezino,"","","",53.7028,28.9401
BY,223339,Чижаха,Minsk,"",Berezino,"","","",53.5778,28.9378
BY,223341,Микуличи,Minsk,"",Berezino,"","","",53.8318,28.7936
BY,223400,Узда,Minsk,"",Ouzda,"","","",53.4627,27.2137
BY,223401,Литвяны,Minsk,"",Ouzda,"","","",53.4527,27.1749
BY,223402,Зеньковичи,Minsk,"",Ouzda,"","","",53.4985,27.2476
BY,223403,Теляково,Minsk,"",Ouzda,"","","",53.5179,27.3877
BY,223404,Семеновичи,Minsk,"",Ouzda,"","","",53.4387,27.1371
BY,223405,Стальбовщина,Minsk,"",Ouzda,"","","",53.4237,27.0438
BY,223406,Могильно,Minsk,"",Ouzda,"","","",53.4125,26.9875
BY,223407,Присынок,Minsk,"",Ouzda,"","","",53.4146,27.2072
BY,223408,Войково,Minsk,"",Ouzda,"","","",53.4527,27.1749
BY,223410,Слобода,Minsk,"",Ouzda,"","","",53.3854,27.3323
BY,223412,Лоша,Minsk,"",Ouzda,"","","",53.421,27.4086
BY,223413,Валерьяны,Minsk,"",Ouzda,"","","",53.5029,27.4273
BY,223414,Хотляны,Minsk,"",Ouzda,"","","",53.5029,27.4273
BY,223415,Толкачевичи,Minsk,"",Ouzda,"","","",53.4595,27.6365
BY,223416,Теплень,Minsk,"",Ouzda,"","","",53.5708,27.5669
BY,223417,Озеро,Minsk,"",Ouzda,"","","",53.6304,27.454
BY,223418,Дещенка,Minsk,"",Ouzda,"","","",53.5853,27.4639
BY,223419,Кухтичи,Minsk,"",Ouzda,"","","",53.4681,27.1286
BY,223610,Слуцк,Minsk,"",Sloutsk,"","","",53.0274,27.5597
BY,223611,Лучники,Minsk,"",Sloutsk,"","","",53.0386,27.5165
BY,223613,Мусичи,Minsk,"",Sloutsk,"","","",53.1259,27.4026
BY,223614,Беличи,Minsk,"",Sloutsk,"","","",52.9425,27.4525
BY,223615,Новодворцы,Minsk,"",Sloutsk,"","","",52.9992,27.5337
BY,223616,Кирово,Minsk,"",Sloutsk,"","","",52.9623,27.5297
BY,223617,Козловичи,Minsk,"",Sloutsk,"","","",52.9945,27.6373
BY,223618,Великая Слива,Minsk,"",Sloutsk,"","","",52.9992,27.5337
BY,223619,Исерно,Minsk,"",Sloutsk,"","","",52.9031,27.6376
BY,223620,Селище,Minsk,"",Sloutsk,"","","",53.0018,27.4024
BY,223621,Знамя,Minsk,"",Sloutsk,"","","",53.044,27.3668
BY,223622,Вежи,Minsk,"",Sloutsk,"","","",53.2723,27.5991
BY,223623,Ленино,Minsk,"",Sloutsk,"","","",53.0518,27.2328
BY,223625,Танежицы,Minsk,"",Sloutsk,"","","",53.0421,27.381
BY,223626,Октябрь,Minsk,"",Sloutsk,"","","",52.9647,27.3821
BY,223627,Лядно,Minsk,"",Sloutsk,"","","",53.0421,27.381
BY,223628,Подлесье,Minsk,"",Sloutsk,"","","",53.0405,27.2807
BY,223629,Болотчицы,Minsk,"",Sloutsk,"","","",52.9197,27.4034
BY,223630,Мелешки,Minsk,"",Sloutsk,"","","",53.03,27.7203
BY,223631,Весея,Minsk,"",Sloutsk,"","","",53.0632,27.6787
BY,223632,Омговичи,Minsk,"",Sloutsk,"","","",53.0974,27.8083
BY,223633,Повстынь,Minsk,"",Sloutsk,"","","",52.9778,27.8117
BY,223634,Серяги,Minsk,"",Sloutsk,"","","",53.0621,27.4741
BY,223635,Сороги,Minsk,"",Sloutsk,"","","",53.0323,27.9307
BY,223636,Кучино,Minsk,"",Sloutsk,"","","",53.0605,27.8667
BY,223640,Заполье,Minsk,"",Sloutsk,"","","",53.2557,27.2147
BY,223641,Греск,Minsk,"",Sloutsk,"","","",53.1667,27.4885
BY,223643,Шищицы,Minsk,"",Sloutsk,"","","",53.2039,27.5358
BY,223644,Гацук,Minsk,"",Sloutsk,"","","",53.326,27.5264
BY,223645,Новинки,Minsk,"",Sloutsk,"","","",53.1888,27.7184
BY,223646,Гольчичи,Minsk,"",Sloutsk,"","","",53.1404,27.661
BY,223647,Мвяк,Minsk,"",Sloutsk,"","","",53.2039,27.5358
BY,223648,Леньки,Minsk,"",Sloutsk,"","","",53.1429,27.5464
BY,223649,Замостье,Minsk,"",Sloutsk,"","","",53.2065,27.595
BY,223650,Прошицы,Minsk,"",Sloutsk,"","","",53.0728,27.5516
BY,223710,Солигорск,Minsk,"",Solighorsk,"","","",52.7876,27.5415
BY,223711,Завшицы,Minsk,"",Solighorsk,"","","",52.8066,27.6137
BY,223712,Чижевичи,Minsk,"",Solighorsk,"","","",52.8091,27.5383
BY,223714,Погост - Второй,Minsk,"",Solighorsk,"","","",52.855,27.6266
BY,223715,Погост - Первый,Minsk,"",Solighorsk,"","","",52.8066,27.6137
BY,223716,Старые Терушки,Minsk,"",Solighorsk,"","","",52.7915,27.7226
BY,223717,Зажевичи,Minsk,"",Solighorsk,"","","",52.7899,27.6397
BY,223718,Новые Терушки,Minsk,"",Solighorsk,"","","",52.8066,27.6137
BY,223719,Желтый Брод,Minsk,"",Solighorsk,"","","",52.8066,27.6137
BY,223720,Чепели,Minsk,"",Solighorsk,"","","",52.8747,27.4793
BY,223721,Кривичи,Minsk,"",Solighorsk,"","","",52.823,27.3927
BY,223722,Октябрь,Minsk,"",Solighorsk,"","","",52.9647,27.3821
BY,223723,Красная Слобода,Minsk,"",Solighorsk,"","","",52.8522,27.1698
BY,223724,Первомайск,Minsk,"",Solighorsk,"","","",52.8249,27.3407
BY,223725,Великий Рожан,Minsk,"",Solighorsk,"","","",52.8249,27.3407
BY,223726,Мозоли,Minsk,"",Solighorsk,"","","",52.8858,27.2622
BY,223727,Саковичи,Minsk,"",Solighorsk,"","","",52.7337,27.6124
BY,223729,Гаврильчицы,Minsk,"",Solighorsk,"","","",52.6399,27.0866
BY,223730,Старобин,Minsk,"",Solighorsk,"","","",52.7267,27.4606
BY,223731,Копацевичи,Minsk,"",Solighorsk,"","","",52.6307,27.3796
BY,223732,Краснодворцы,Minsk,"",Solighorsk,"","","",52.6063,27.5019
BY,223733,Яськовичи,Minsk,"",Solighorsk,"","","",52.6063,27.5019
BY,223734,Хоростов,Minsk,"",Solighorsk,"","","",52.4966,27.2849
BY,223735,Гоцк,Minsk,"",Solighorsk,"","","",52.5714,27.141
BY,223736,Долгое,Minsk,"",Solighorsk,"","","",52.895,27.2672
BY,223737,Домановичи,Minsk,"",Solighorsk,"","","",52.5203,27.7719
BY,223738,Сковшин,Minsk,"",Solighorsk,"","","",52.5346,27.8393
BY,223739,Осово,Minsk,"",Solighorsk,"","","",52.4749,27.8708
BY,223740,Махновичи,Minsk,"",Solighorsk,"","","",52.6188,27.627
BY,223741,Ананчицы,Minsk,"",Solighorsk,"","","",52.6826,27.3833
BY,223742,Веска,Minsk,"",Solighorsk,"","","",52.7989,27.2648
BY,223743,Величковичи,Minsk,"",Solighorsk,"","","",52.6301,27.2581
BY,223810,Люань,Minsk,"",Luban,"","","",53.2452,28.2495
BY,223813,Сосны,Minsk,"",Luban,"","","",52.668,28.25
BY,223815,Кузьмичи,Minsk,"",Luban,"","","",52.5734,28.0705
BY,223817,Калиновка,Minsk,"",Luban,"","","",53.4476,28.3829
BY,223818,Ляховка,Minsk,"",Luban,"","","",54.292,28.2946
BY,223820,Редковичи,Minsk,"",Luban,"","","",52.7302,28.0561
BY,223822,Экспериментальная База Любанская,Minsk,"",Luban,"","","",52.7668,28.1741
BY,223823,Загалье,Minsk,"",Luban,"","","",52.6678,28.3541
BY,223824,Малые Городятичи,Minsk,"",Luban,"","","",52.7668,28.1741
BY,223825,Осовец,Minsk,"",Luban,"","","",52.8539,28.1963
BY,223826,Пласток,Minsk,"",Luban,"","","",52.7921,28.1467
BY,223827,Яминск,Minsk,"",Luban,"","","",52.7701,28.2729
BY,223828,Сорочи,Minsk,"",Luban,"","","",52.7867,28.0186
BY,223830,Таль,Minsk,"",Luban,"","","",52.8597,27.9578
BY,223831,Уречье,Minsk,"",Luban,"","","",52.9479,27.893
BY,223832,Дарасино,Minsk,"",Luban,"","","",52.9013,27.7838
BY,223833,Костюки,Minsk,"",Luban,"","","",52.8023,27.9349
BY,223835,Закальное,Minsk,"",Luban,"","","",52.7642,27.8022
BY,223836,Речень,Minsk,"",Luban,"","","",52.7474,27.853
BY,223837,Отрадное,Minsk,"",Luban,"","","",52.7156,27.7888
BY,223838,Обчин,Minsk,"",Luban,"","","",52.7616,27.9153
BY,223839,Смольгово,Minsk,"",Luban,"","","",52.8406,27.8143
BY,223840,Заболоть,Minsk,"",Luban,"","","",52.798,27.8778
BY,223841,Нежин,Minsk,"",Luban,"","","",52.6389,28.1669
BY,223842,Бояничи,Minsk,"",Luban,"","","",52.7185,28.0223
BY,223843,Старые Юрковичи,Minsk,"",Luban,"","","",52.7185,28.0223
BY,223910,Копыль,Minsk,"",Kopyl,"","","",53.1516,27.0913
BY,223911,Потейки,Minsk,"",Kopyl,"","","",53.14,27.1354
BY,223912,Велешино,Minsk,"",Kopyl,"","","",53.1757,27.1688
BY,223913,Старица,Minsk,"",Kopyl,"","","",53.2323,27.2691
BY,223914,Камень,Minsk,"",Kopyl,"","","",53.2251,27.4451
BY,223915,Новые Докторовичи,Minsk,"",Kopyl,"","","",53.14,27.1354
BY,223916,Ванелевичи,Minsk,"",Kopyl,"","","",53.0914,27.1557
BY,223917,Мажа,Minsk,"",Kopyl,"","","",53.113,27.0508
BY,223918,Душево,Minsk,"",Kopyl,"","","",53.1958,26.9891
BY,223919,Красная Дуброва,Minsk,"",Kopyl,"","","",52.9351,26.913
BY,223920,Тимковичи,Minsk,"",Kopyl,"","","",53.0672,26.9902
BY,223921,Кривоселки,Minsk,"",Kopyl,"","","",53.0167,26.9
BY,223922,Братково,Minsk,"",Kopyl,"","","",53.0554,26.8596
BY,223923,Рудное,Minsk,"",Kopyl,"","","",53.102,26.9349
BY,223924,Великая Раевка,Minsk,"",Kopyl,"","","",53.0581,27.0383
BY,223925,Садовичи,Minsk,"",Kopyl,"","","",52.9346,27.1347
BY,223926,Преснаки,Minsk,"",Kopyl,"","","",53.1727,27.4103
BY,223930,Быстрица,Minsk,"",Kopyl,"","","",52.9878,26.9935
BY,223931,Лешня,Minsk,"",Kopyl,"","","",53.0078,27.0026
BY,223932,Семежево,Minsk,"",Kopyl,"","","",52.9562,27.0039
BY,223933,Жилихово,Minsk,"",Kopyl,"","","",52.9549,27.0705
BY,223934,Бучатино,Minsk,"",Kopyl,"","","",52.912,27.0839
BY,223935,Смоличи,Minsk,"",Kopyl,"","","",53.1082,26.8064
BY,223940,Дусаевщина,Minsk,"",Kopyl,"","","",53.2077,27.1303
BY,223942,Бобовня,Minsk,"",Kopyl,"","","",53.2469,27.1647
BY,223943,Лесное,Minsk,"",Kopyl,"","","",53.2667,27.0698
BY,223944,Песочное,Minsk,"",Kopyl,"","","",53.3357,27.1021
BY,223945,Слобода - Кучинка,Minsk,"",Kopyl,"","","",53.2546,27.1885
BY,223947,Комсомольская,Minsk,"",Kopyl,"","","",53.2469,27.1647
BY,223948,Грозов,Minsk,"",Kopyl,"","","",53.1699,27.3328
BY,224000,Брест,Brest,"",Brest,"","","",52.0975,23.6878
BY,225001,Черни,Brest,"",Brest,"","","",52.1534,23.7596
BY,225002,Збироги,Brest,"",Brest,"","","",52.163,23.8829
BY,225003,Тельмы,Brest,"",Brest,"","","",52.1172,23.8317
BY,225006,Мухавец,Brest,"",Brest,"","","",52.0293,23.8053
BY,225007,Большие Радваничи,Brest,"",Brest,"","","",52.1157,23.8199
BY,225012,Страдечь,Brest,"",Brest,"","","",51.9352,23.6618
BY,225013,Знаменка,Brest,"",Brest,"","","",51.8817,23.6555
BY,225014,Медна,Brest,"",Brest,"","","",51.8614,23.7504
BY,225020,Леплевка,Brest,"",Brest,"","","",51.7603,23.6611
BY,225021,Домачево,Brest,"",Brest,"","","",51.75,23.6
BY,225022,Черск,Brest,"",Brest,"","","",51.7091,23.6962
BY,225023,Приборово,Brest,"",Brest,"","","",51.6306,23.578
BY,225025,Томашевка,Brest,"",Brest,"","","",51.5543,23.6068
BY,225026,Белое Озеро,Brest,"",Brest,"","","",51.6809,23.6284
BY,225027,Санаторий Берестье,Brest,"",Brest,"","","",51.6809,23.6284
BY,225030,Чернавчицы,Brest,"",Brest,"","","",52.2195,23.7404
BY,225031,Вистычи,Brest,"",Brest,"","","",52.2075,23.6764
BY,225032,Ковердяки,Brest,"",Brest,"","","",52.204,23.5893
BY,225033,Большие Мотыкалы,Brest,"",Brest,"","","",52.197,23.5841
BY,225034,Остромечево,Brest,"",Brest,"","","",52.2685,23.5858
BY,225035,Лыщицы,Brest,"",Brest,"","","",52.2599,23.4972
BY,225036,Сычи,Brest,"",Brest,"","","",52.2153,23.4662
BY,225037,Теребунь,Brest,"",Brest,"","","",52.1693,23.5261
BY,225038,Клейники,Brest,"",Brest,"","","",52.1411,23.602
BY,225039,Старое Село,Brest,"",Brest,"","","",52.1575,23.6258
BY,225041,Подлесье - Радваничское,Brest,"",Brest,"","","",52.0815,23.9235
BY,225042,Каменица - Жировецкая,Brest,"",Brest,"","","",52.0592,23.8219
BY,225043,Малые Зводы,Brest,"",Brest,"","","",52.1338,23.7209
BY,225044,Яцковичи,Brest,"",Brest,"","","",52.2607,23.4173
BY,225050,Каменец,Brest,"",Kamenets,"","","",52.4001,23.81
BY,225053,Турна - Большая,Brest,"",Kamenets,"","","",52.3299,23.8097
BY,225054,Пелище,Brest,"",Kamenets,"","","",52.3227,23.9164
BY,225055,Речица,Brest,"",Kamenets,"","","",52.1041,23.642
BY,225056,Подбела,Brest,"",Kamenets,"","","",52.4928,23.8705
BY,225058,Приозерский,Brest,"",Kamenets,"","","",52.3299,23.8097
BY,225059,Свищево,Brest,"",Kamenets,"","","",52.3299,23.8097
BY,225060,Николаево,Brest,"",Kamenets,"","","",52.398,23.7576
BY,225061,Новицковичи,Brest,"",Kamenets,"","","",52.4282,23.7288
BY,225062,Дмитровичи,Brest,"",Kamenets,"","","",52.4878,23.7853
BY,225063,Каменюки,Brest,"",Kamenets,"","","",52.5576,23.8053
BY,225065,Ходосы,Brest,"",Kamenets,"","","",52.471,23.7304
BY,225066,Войская,Brest,"",Kamenets,"","","",52.4108,23.6224
BY,225067,Видомля,Brest,"",Kamenets,"","","",52.3275,23.7866
BY,225068,Ратайчицы,Brest,"",Kamenets,"","","",52.3451,23.6138
BY,225071,Высоко - Литовск,Brest,"",Kamenets,"","","",52.3709,23.3708
BY,225072,Пограничная,Brest,"",Kamenets,"","","",52.4648,23.4945
BY,225073,Каролин,Brest,"",Kamenets,"","","",52.441,23.4627
BY,225074,Верховичи,Brest,"",Kamenets,"","","",52.4703,23.5108
BY,225075,Долбизино,Brest,"",Kamenets,"","","",52.4648,23.4945
BY,225076,Омеленец,Brest,"",Kamenets,"","","",52.5396,23.5497
BY,225077,Каленковичи,Brest,"",Kamenets,"","","",52.5023,23.5783
BY,225078,Беловежский,Brest,"",Kamenets,"","","",52.4648,23.4945
BY,225080,Высокое,Brest,"",Kamenets,"","","",52.3709,23.3708
BY,225081,Макарово,Brest,"",Kamenets,"","","",52.3603,23.321
BY,225082,Огородники,Brest,"",Kamenets,"","","",52.3446,23.3477
BY,225083,Волчин,Brest,"",Kamenets,"","","",52.2845,23.3108
BY,225084,Новоселки,Brest,"",Kamenets,"","","",52.2594,23.2245
BY,225085,Ставы,Brest,"",Kamenets,"","","",52.2311,23.3443
BY,225087,Минковичи,Brest,"",Kamenets,"","","",52.3606,23.534
BY,225088,Рясна,Brest,"",Kamenets,"","","",52.3909,23.4211
BY,225110,Жабинка,Brest,"",Jabinka,"","","",52.1904,23.9143
BY,225111,Ленинский,Brest,"",Jabinka,"","","",52.1904,23.9143
BY,225112,Чижевщина,Brest,"",Jabinka,"","","",52.1904,23.9143
BY,225114,Озяты,Brest,"",Jabinka,"","","",52.1904,23.9143
BY,225115,Федьковичи,Brest,"",Jabinka,"","","",52.1531,24.0502
BY,225116,Ракитница,Brest,"",Jabinka,"","","",52.1346,23.9871
BY,225117,Орепичи,Brest,"",Jabinka,"","","",52.3164,23.9941
BY,225118,Старое Село,Brest,"",Jabinka,"","","",52.1575,23.6258
BY,225119,Санаторий Буг,Brest,"",Jabinka,"","","",52.1904,23.9143
BY,225120,Соколово,Brest,"",Jabinka,"","","",52.5408,25.0748
BY,225121,Большие Яковчицы,Brest,"",Jabinka,"","","",52.3261,24.2954
BY,225122,Кривляны,Brest,"",Jabinka,"","","",52.3928,23.9875
BY,225123,Подлесье,Brest,"",Jabinka,"","","",52.1822,24.7651
BY,225124,Степанки,Brest,"",Jabinka,"","","",52.2698,23.9954
BY,225125,Вежки,Brest,"",Jabinka,"","","",52.3191,24.043
BY,225127,Хмелево,Brest,"",Jabinka,"","","",52.2516,23.9065
BY,225128,Матеевичи,Brest,"",Jabinka,"","","",52.3261,24.2954
BY,225140,Пружаны,Brest,"",Proujany,"","","",52.556,24.4573
BY,225141,Слободка,Brest,"",Proujany,"","","",52.5168,24.5172
BY,225142,Бакуны Первые,Brest,"",Proujany,"","","",52.5961,24.5582
BY,225143,Смоляны,Brest,"",Proujany,"","","",52.5961,24.5582
BY,225144,Скорцы,Brest,"",Proujany,"","","",52.6163,24.6768
BY,225145,Хорева,Brest,"",Proujany,"","","",52.637,24.5836
BY,225146,Смоляница,Brest,"",Proujany,"","","",52.7057,24.6386
BY,225147,Рудники,Brest,"",Proujany,"","","",52.6676,24.5179
BY,225148,Мокрое,Brest,"",Proujany,"","","",52.5961,24.5582
BY,225149,Линово,Brest,"",Proujany,"","","",52.473,24.5158
BY,225150,Байки,Brest,"",Proujany,"","","",52.8302,24.8513
BY,225151,Юндилы,Brest,"",Proujany,"","","",52.8601,24.8319
BY,225152,Колозубы,Brest,"",Proujany,"","","",52.8256,24.997
BY,225153,Ворониловичи,Brest,"",Proujany,"","","",52.8089,24.9356
BY,225154,Ружаны,Brest,"",Proujany,"","","",52.8632,24.8936
BY,225155,Полонск,Brest,"",Proujany,"","","",52.9215,24.8616
BY,225156,Зеленевичи,Brest,"",Proujany,"","","",52.9273,24.7176
BY,225157,Могилевцы,Brest,"",Proujany,"","","",52.8732,24.6751
BY,225158,Лысково,Brest,"",Proujany,"","","",52.853,24.6156
BY,225159,Долки,Brest,"",Proujany,"","","",52.8377,24.9393
BY,225160,Мурава,Brest,"",Proujany,"","","",52.643,24.2232
BY,225161,Сухополь,Brest,"",Proujany,"","","",52.659,24.1734
BY,225162,Ровбицк,Brest,"",Proujany,"","","",52.6672,24.0782
BY,225163,Попелево,Brest,"",Proujany,"","","",52.7451,24.0989
BY,225164,Бакуны Вторые,Brest,"",Proujany,"","","",52.6698,24.2246
BY,225165,Великое Село,Brest,"",Proujany,"","","",52.6698,24.2246
BY,225167,Солнечный,Brest,"",Proujany,"","","",52.6698,24.2246
BY,225169,Колядичи,Brest,"",Proujany,"","","",52.6347,24.5492
BY,225170,Шени,Brest,"",Proujany,"","","",52.5262,24.3967
BY,225171,Чахец,Brest,"",Proujany,"","","",52.4895,24.4198
BY,225172,Городечна,Brest,"",Proujany,"","","",52.4235,24.3099
BY,225173,Щерчево,Brest,"",Proujany,"","","",52.4254,24.1585
BY,225175,Шерешево,Brest,"",Proujany,"","","",52.5573,24.2156
BY,225176,Криница,Brest,"",Proujany,"","","",52.5454,24.4051
BY,225177,Староволя,Brest,"",Proujany,"","","",52.5454,24.4051
BY,225178,Белоусовщина,Brest,"",Proujany,"","","",52.594,24.4852
BY,225179,Клепачи,Brest,"",Proujany,"","","",52.8018,24.8501
BY,225181,Засимовичи,Brest,"",Proujany,"","","",52.5996,24.3998
BY,225182,Кобыловка,Brest,"",Proujany,"","","",52.6747,24.6654
BY,225205,Белоозерск 1,Brest,"",Brest,"","","",52.6315,25.3031
BY,225209,Береза Рупс,Brest,"",Brest,"","","",52.6315,25.3031
BY,225210,Береза,Brest,"",Brest,"","","",52.5314,24.9786
BY,225211,Стригинь,Brest,"",Brest,"","","",52.505,25.031
BY,225212,Соколово,Brest,"",Brest,"","","",52.5408,25.0748
BY,225213,Бронная Гора,Brest,"",Brest,"","","",52.6115,25.0983
BY,225214,Пески,Brest,"",Brest,"","","",52.522,25.1974
BY,225215,Белоозерск,Brest,"",Brest,"","","",52.4731,25.1784
BY,225216,Здитово,Brest,"",Brest,"","","",52.4804,25.0037
BY,225218,Спорово,Brest,"",Brest,"","","",52.4236,25.3186
BY,225221,Междулесье,Brest,"",Brest,"","","",52.4547,25.0035
BY,225222,Судиловичи,Brest,"",Brest,"","","",52.3529,25.0462
BY,225223,Сигневичи,Brest,"",Brest,"","","",52.4347,24.8942
BY,225224,Ревятичи,Brest,"",Brest,"","","",52.4373,24.8408
BY,225225,Борки,Brest,"",Brest,"","","",52.7835,25.3952
BY,225226,Земледелец,Brest,"",Brest,"","","",52.4547,25.0035
BY,225227,Ястребель,Brest,"",Brest,"","","",52.3936,24.9244
BY,225228,Большие Лесковичи,Brest,"",Brest,"","","",52.326,24.92
BY,225230,Первомайская,Brest,"",Brest,"","","",52.5274,24.8857
BY,225240,Самойловичи,Brest,"",Brest,"","","",52.5567,24.9549
BY,225242,Селец,Brest,"",Brest,"","","",52.5872,24.868
BY,225243,Нарутовичи,Brest,"",Brest,"","","",52.5535,24.7732
BY,225245,Малеч,Brest,"",Brest,"","","",52.4837,24.704
BY,225246,Кабаки,Brest,"",Brest,"","","",52.5026,24.7706
BY,225247,Подкраичи,Brest,"",Brest,"","","",52.4343,24.7158
BY,225250,Ивацевичи,Brest,"",Ivatsevitchi,"","","",52.709,25.3401
BY,225251,Подстаринь,Brest,"",Ivatsevitchi,"","","",52.6894,25.3136
BY,225252,Кушнеры,Brest,"",Ivatsevitchi,"","","",52.7539,25.3
BY,225253,Стайки,Brest,"",Ivatsevitchi,"","","",52.7065,25.2894
BY,225254,Воля,Brest,"",Ivatsevitchi,"","","",52.6641,25.3244
BY,225255,Житлин,Brest,"",Ivatsevitchi,"","","",52.5614,25.3768
BY,225256,Любищицы,Brest,"",Ivatsevitchi,"","","",52.7532,25.4157
BY,225257,Гощево,Brest,"",Ivatsevitchi,"","","",52.6892,25.2066
BY,225258,Милейки,Brest,"",Ivatsevitchi,"","","",52.7882,25.0864
BY,225259,Вулька - Обровская,Brest,"",Ivatsevitchi,"","","",52.579,25.4831
BY,225260,Зеленый Бор,Brest,"",Ivatsevitchi,"","","",52.7593,25.3039
BY,225261,Вулька,Brest,"",Ivatsevitchi,"","","",52.7829,25.643
BY,225262,Коссово,Brest,"",Ivatsevitchi,"","","",52.7583,25.1554
BY,225263,Белавичи,Brest,"",Ivatsevitchi,"","","",52.7155,25.1154
BY,225264,Квасевичи,Brest,"",Ivatsevitchi,"","","",52.7526,25.0638
BY,225265,Альба,Brest,"",Ivatsevitchi,"","","",52.7533,25.0255
BY,225266,Бусяж,Brest,"",Ivatsevitchi,"","","",52.8206,25.1418
BY,225267,Гривда,Brest,"",Ivatsevitchi,"","","",52.8316,25.2146
BY,225268,Заполье,Brest,"",Ivatsevitchi,"","","",52.8868,25.4545
BY,225269,Сомино,Brest,"",Ivatsevitchi,"","","",52.5321,25.9209
BY,225270,Яглевичи,Brest,"",Ivatsevitchi,"","","",52.5118,25.8006
BY,225271,Козики,Brest,"",Ivatsevitchi,"","","",52.6151,25.5598
BY,225272,Оброво,Brest,"",Ivatsevitchi,"","","",52.5084,25.561
BY,225273,Колонск,Brest,"",Ivatsevitchi,"","","",52.4618,25.7831
BY,225274,Святая Воля,Brest,"",Ivatsevitchi,"","","",52.5348,25.6895
BY,225275,Телеханы,Brest,"",Ivatsevitchi,"","","",52.5175,25.8429
BY,225276,Выгонощи,Brest,"",Ivatsevitchi,"","","",52.5118,25.8006
BY,225277,Гортоль,Brest,"",Ivatsevitchi,"","","",52.5012,25.9082
BY,225278,Речки,Brest,"",Ivatsevitchi,"","","",52.4589,26.053
BY,225279,Краи,Brest,"",Ivatsevitchi,"","","",52.4965,26.0071
BY,225280,Доманово,Brest,"",Ivatsevitchi,"","","",52.831,25.4803
BY,225281,Бытень,Brest,"",Ivatsevitchi,"","","",52.881,25.5011
BY,225282,Долгое,Brest,"",Ivatsevitchi,"","","",52.9253,25.5324
BY,225283,Мироним,Brest,"",Ivatsevitchi,"","","",52.952,25.4373
BY,225284,Волька,Brest,"",Ivatsevitchi,"","","",52.7829,25.643
BY,225285,Добромысль,Brest,"",Ivatsevitchi,"","","",52.8202,25.7162
BY,225287,Сосновый Бор,Brest,"",Ivatsevitchi,"","","",52.8549,25.6371
BY,225288,Селец,Brest,"",Ivatsevitchi,"","","",52.5872,24.868
BY,225289,Рудня,Brest,"",Ivatsevitchi,"","","",52.879,25.4787
BY,225290,Углы,Brest,"",Ivatsevitchi,"","","",52.9337,25.5965
BY,225296,Омельная,Brest,"",Ivatsevitchi,"","","",52.6963,25.5885
BY,225297,Краглевичи,Brest,"",Ivatsevitchi,"","","",52.4734,25.8336
BY,225298,Чемелы,Brest,"",Ivatsevitchi,"","","",52.7882,25.5364
BY,225299,Ходаки,Brest,"",Ivatsevitchi,"","","",52.5899,25.3876
BY,225311,Малая Колпеница,Brest,"",Baranovitchi,"","","",53.2439,26.0875
BY,225312,Столовичи,Brest,"",Baranovitchi,"","","",53.2142,26.0377
BY,225314,Арабовщина,Brest,"",Baranovitchi,"","","",53.2635,26.0461
BY,225315,Стайки,Brest,"",Baranovitchi,"","","",53.2539,26.1787
BY,225316,Жемчужный,Brest,"",Baranovitchi,"","","",53.2439,26.0875
BY,225320,Барановичи,Brest,"",Baranovitchi,"","","",53.1327,26.0139
BY,225321,Зеленая,Brest,"",Baranovitchi,"","","",53.2745,25.9113
BY,225323,Почапово,Brest,"",Baranovitchi,"","","",53.3612,25.8208
BY,225324,Застаринье,Brest,"",Baranovitchi,"","","",53.3358,25.8453
BY,225325,Катминовцы,Brest,"",Baranovitchi,"","","",53.2694,25.8512
BY,225326,Гирмонтовцы,Brest,"",Baranovitchi,"","","",53.2745,25.9113
BY,225327,Постаринье,Brest,"",Baranovitchi,"","","",53.2229,25.9256
BY,225328,Городище,Brest,"",Baranovitchi,"","","",53.3247,26.0107
BY,225330,Приозерная,Brest,"",Baranovitchi,"","","",53.1872,25.7638
BY,225331,Новая Мышь,Brest,"",Baranovitchi,"","","",53.1405,25.9032
BY,225332,Полонка,Brest,"",Baranovitchi,"","","",53.1441,25.719
BY,225333,Лотвичи,Brest,"",Baranovitchi,"","","",53.1911,25.6697
BY,225334,Перховичи,Brest,"",Baranovitchi,"","","",53.2457,25.6512
BY,225335,Малая Своротва,Brest,"",Baranovitchi,"","","",53.1872,25.7638
BY,225336,Тешевля,Brest,"",Baranovitchi,"","","",53.2278,25.8163
BY,225337,Заболотье,Brest,"",Baranovitchi,"","","",53.181,25.8356
BY,225338,Люшнево,Brest,"",Baranovitchi,"","","",53.236,25.7089
BY,225339,Севрюки,Brest,"",Baranovitchi,"","","",53.1317,25.8064
BY,225340,Молчадь,Brest,"",Baranovitchi,"","","",53.3129,25.6996
BY,225341,Мир,Brest,"",Baranovitchi,"","","",53.177,25.9256
BY,225350,Русино,Brest,"",Baranovitchi,"","","",53.086,26.0895
BY,225351,Великие Луки,Brest,"",Baranovitchi,"","","",53.0002,25.8582
BY,225352,Малаховцы,Brest,"",Baranovitchi,"","","",53.0479,25.9668
BY,225353,Утес,Brest,"",Baranovitchi,"","","",52.9674,25.9325
BY,225354,Миловиды,Brest,"",Baranovitchi,"","","",52.8962,25.8506
BY,225356,Лесная,Brest,"",Baranovitchi,"","","",52.985,25.7661
BY,225357,Подгорная,Brest,"",Baranovitchi,"","","",52.987,25.5695
BY,225358,Павлиново,Brest,"",Baranovitchi,"","","",53.0317,25.8323
BY,225360,Лавриновичи,Brest,"",Baranovitchi,"","","",53.1546,26.1343
BY,225361,Подлесейки,Brest,"",Baranovitchi,"","","",53.2758,26.2296
BY,225362,Крошин,Brest,"",Baranovitchi,"","","",53.1978,26.1529
BY,225363,Голынка,Brest,"",Baranovitchi,"","","",53.2485,26.3031
BY,225364,Савичи,Brest,"",Baranovitchi,"","","",53.2822,26.2837
BY,225365,Петкевичи,Brest,"",Baranovitchi,"","","",53.3162,26.3584
BY,225366,Полонечка,Brest,"",Baranovitchi,"","","",53.3475,26.2609
BY,225367,Вольно,Brest,"",Baranovitchi,"","","",53.2988,26.2288
BY,225368,Скробово,Brest,"",Baranovitchi,"","","",53.2758,26.2296
BY,225369,Карчево,Brest,"",Baranovitchi,"","","",53.3605,26.1145
BY,225370,Ляховичи,Brest,"",Liakhovitchi,"","","",53.0388,26.2656
BY,225373,Урожайная,Brest,"",Liakhovitchi,"","","",53.095,26.2291
BY,225374,Новоселки,Brest,"",Liakhovitchi,"","","",53.1216,26.2803
BY,225375,Своятичи,Brest,"",Liakhovitchi,"","","",53.1464,26.3519
BY,225376,Подлесье,Brest,"",Liakhovitchi,"","","",53.0798,26.3626
BY,225377,Задворье,Brest,"",Liakhovitchi,"","","",53.0096,26.2072
BY,225378,Дарево,Brest,"",Liakhovitchi,"","","",53.1072,26.1702
BY,225379,Коньки,Brest,"",Liakhovitchi,"","","",53.0557,26.1889
BY,225380,Зуберевичи,Brest,"",Liakhovitchi,"","","",52.8926,26.0239
BY,225381,Ольховцы,Brest,"",Liakhovitchi,"","","",52.8926,26.0239
BY,225382,Малое Городище,Brest,"",Liakhovitchi,"","","",52.9562,26.0667
BY,225383,Гута,Brest,"",Liakhovitchi,"","","",52.9766,25.821
BY,225384,Остров,Brest,"",Liakhovitchi,"","","",52.8889,25.9795
BY,225385,Туховичи,Brest,"",Liakhovitchi,"","","",52.8146,25.9668
BY,225386,Святица,Brest,"",Liakhovitchi,"","","",52.8926,26.0239
BY,225387,Липск,Brest,"",Liakhovitchi,"","","",52.8345,26.0935
BY,225388,Кривошин,Brest,"",Liakhovitchi,"","","",52.8714,26.1329
BY,225389,Головнинцы,Brest,"",Liakhovitchi,"","","",52.9057,26.1068
BY,225390,Жеребковичи,Brest,"",Liakhovitchi,"","","",53.0705,26.4449
BY,225391,Нача,Brest,"",Liakhovitchi,"","","",53.0347,26.424
BY,225392,Совейки,Brest,"",Liakhovitchi,"","","",52.92,26.4044
BY,225393,Куршиновичи,Brest,"",Liakhovitchi,"","","",52.8851,26.3237
BY,225394,Гончары,Brest,"",Liakhovitchi,"","","",52.9613,26.3053
BY,225395,Миничи,Brest,"",Liakhovitchi,"","","",52.9436,26.2423
BY,225396,Русиновичи,Brest,"",Liakhovitchi,"","","",52.9816,26.3116
BY,225397,Тальминовичи,Brest,"",Liakhovitchi,"","","",52.9455,26.3592
BY,225430,Люсино,Brest,"",Gantsevitchi,"","","",52.628,26.5131
BY,225438,Задубье,Brest,"",Gantsevitchi,"","","",52.5293,26.451
BY,225439,Мальковичи,Brest,"",Gantsevitchi,"","","",52.5322,26.5986
BY,225440,Ганцевичи,Brest,"",Gantsevitchi,"","","",52.758,26.43
BY,225441,Хотыничи,Brest,"",Gantsevitchi,"","","",52.6274,26.3084
BY,225442,Локтыши,Brest,"",Gantsevitchi,"","","",52.8306,26.7222
BY,225443,Борки,Brest,"",Gantsevitchi,"","","",52.7332,26.3422
BY,225444,Раздяловичи,Brest,"",Gantsevitchi,"","","",52.631,26.1473
BY,225445,Липск,Brest,"",Gantsevitchi,"","","",52.8345,26.0935
BY,225446,Мельники,Brest,"",Gantsevitchi,"","","",52.7932,26.6937
BY,225447,Ганцевичи - Село,Brest,"",Gantsevitchi,"","","",52.744,26.391
BY,225450,Огаревичи,Brest,"",Gantsevitchi,"","","",52.7709,26.5237
BY,225451,Остров,Brest,"",Gantsevitchi,"","","",52.8552,26.6079
BY,225452,Большие Круговичи,Brest,"",Gantsevitchi,"","","",52.7836,26.6936
BY,225453,Начь,Brest,"",Gantsevitchi,"","","",52.8424,26.6745
BY,225454,Денисковичи,Brest,"",Gantsevitchi,"","","",52.7162,26.6799
BY,225455,Будча,Brest,"",Gantsevitchi,"","","",52.7594,26.8438
BY,225456,Чудин,Brest,"",Gantsevitchi,"","","",52.7276,26.9739
BY,225457,Куково,Brest,"",Gantsevitchi,"","","",52.8138,26.5512
BY,225458,Любашево,Brest,"",Gantsevitchi,"","","",52.7836,26.6936
BY,225502,Речица,Brest,"",Stolin,"","","",51.9891,26.987
BY,225510,Столин,Brest,"",Stolin,"","","",51.8911,26.846
BY,225511,Струга,Brest,"",Stolin,"","","",51.8519,26.8929
BY,225512,Рухча 2,Brest,"",Stolin,"","","",51.9792,26.7167
BY,225513,Плотница,Brest,"",Stolin,"","","",52.0192,26.6146
BY,225514,Хорск,Brest,"",Stolin,"","","",52.0746,27.1991
BY,225515,Стахово,Brest,"",Stolin,"","","",52.0812,26.7163
BY,225516,Осовцы,Brest,"",Stolin,"","","",52.087,25.2309
BY,225517,Ольпень,Brest,"",Stolin,"","","",52.0191,27.1692
BY,225519,Ольманы,Brest,"",Stolin,"","","",51.8096,27.065
BY,225521,Ворони,Brest,"",Stolin,"","","",51.8282,26.826
BY,225522,Городная,Brest,"",Stolin,"","","",51.9075,26.5758
BY,225523,Колодное,Brest,"",Stolin,"","","",51.9075,26.5758
BY,225524,Федоры,Brest,"",Stolin,"","","",51.9486,26.3989
BY,225525,Радчицк,Brest,"",Stolin,"","","",51.9075,26.5758
BY,225526,Глинка,Brest,"",Stolin,"","","",51.9248,26.6744
BY,225527,Нечатово,Brest,"",Stolin,"","","",51.9285,26.4041
BY,225528,Верхний Теребежов,Brest,"",Stolin,"","","",51.9075,26.5758
BY,225530,Маньковичи,Brest,"",Stolin,"","","",51.9035,26.8733
BY,225531,Белоуша,Brest,"",Stolin,"","","",51.938,26.9075
BY,225532,Бережное,Brest,"",Stolin,"","","",51.965,26.9392
BY,225533,Рубель,Brest,"",Stolin,"","","",51.9756,27.067
BY,225534,Хотомель,Brest,"",Stolin,"","","",51.9532,27.0507
BY,225535,Дубой,Brest,"",Stolin,"","","",52.03,26.8651
BY,225536,Видибор,Brest,"",Stolin,"","","",51.9848,26.7663
BY,225537,Отвержичи,Brest,"",Stolin,"","","",51.9126,26.9257
BY,225538,Уголец,Brest,"",Stolin,"","","",52.0219,27.0577
BY,225539,Деревная,Brest,"",Stolin,"","","",51.965,26.9392
BY,225540,Давид - Городок,Brest,"",Stolin,"","","",52.0566,27.2161
BY,225541,Туры,Brest,"",Stolin,"","","",52.0628,27.1677
BY,225542,Лядец,Brest,"",Stolin,"","","",52.0087,27.0645
BY,225543,Большие Орлы,Brest,"",Stolin,"","","",52.0538,27.0529
BY,225544,Хоромск,Brest,"",Stolin,"","","",52.0242,27.11
BY,225545,Дубенец,Brest,"",Stolin,"","","",52.0379,26.9819
BY,225546,Бор Дубенецкий,Brest,"",Stolin,"","","",52.0018,26.9187
BY,225547,Бухличи,Brest,"",Stolin,"","","",51.798,26.7755
BY,225548,Турское,Brest,"",Stolin,"","","",52.0345,27.2933
BY,225550,Велемичи,Brest,"",Stolin,"","","",52.0188,27.2349
BY,225551,Ремель,Brest,"",Stolin,"","","",52.0407,27.3396
BY,225552,Теребличи,Brest,"",Stolin,"","","",52.0144,27.44
BY,225553,Оздамичи,Brest,"",Stolin,"","","",52.0469,27.4824
BY,225554,Коротичи,Brest,"",Stolin,"","","",52.0129,27.5449
BY,225555,Большое Малешево,Brest,"",Stolin,"","","",52.0412,27.4061
BY,225556,Семигостичи,Brest,"",Stolin,"","","",52.0949,27.4235
BY,225557,Ольшаны,Brest,"",Stolin,"","","",52.0777,27.3504
BY,225558,Ольгомель,Brest,"",Stolin,"","","",52.0469,27.4824
BY,225559,Мочуль,Brest,"",Stolin,"","","",52.0175,27.3566
BY,225560,Юнище,Brest,"",Stolin,"","","",51.9628,26.7827
BY,225617,Кублик,Brest,"",Droghitchin,"","","",52.0544,25.1409
BY,225618,Ялочь,Brest,"",Droghitchin,"","","",52.162,25.2259
BY,225619,Кремно,Brest,"",Droghitchin,"","","",52.2696,25.3108
BY,225620,Хомск,Brest,"",Droghitchin,"","","",52.3346,25.2302
BY,225640,Лахва,Brest,"",Louninets,"","","",52.2126,27.0999
BY,225650,Лунинец,Brest,"",Louninets,"","","",52.2472,26.8047
BY,225651,Язвинки,Brest,"",Louninets,"","","",52.3284,26.7909
BY,225652,Дворец,Brest,"",Louninets,"","","",52.2722,26.9577
BY,225653,Дятловичи,Brest,"",Louninets,"","","",52.3395,26.8477
BY,225654,Бостынь,Brest,"",Louninets,"","","",52.3916,26.7565
BY,225655,Велута,Brest,"",Louninets,"","","",52.4597,26.789
BY,225656,Большие Чучевичи,Brest,"",Louninets,"","","",52.3284,26.7909
BY,225658,Богдановка,Brest,"",Louninets,"","","",52.3667,26.4525
BY,225659,Ракитно,Brest,"",Louninets,"","","",52.2216,26.9283
BY,225660,Кожан - Городок,Brest,"",Louninets,"","","",52.2073,27.0094
BY,225661,Дребск,Brest,"",Louninets,"","","",52.2266,27.0218
BY,225662,Любачин,Brest,"",Louninets,"","","",52.2596,27.0653
BY,225663,Любонь,Brest,"",Louninets,"","","",52.2769,27.047
BY,225664,Редигерово,Brest,"",Louninets,"","","",52.2883,27.188
BY,225665,Красная Воля,Brest,"",Louninets,"","","",52.3743,27.0611
BY,225666,Вулька Вторая,Brest,"",Louninets,"","","",52.2769,27.047
BY,225667,Перуново,Brest,"",Louninets,"","","",52.2769,27.047
BY,225668,Бродница,Brest,"",Louninets,"","","",52.2982,26.9623
BY,225669,Озерница,Brest,"",Louninets,"","","",52.2839,27.021
BY,225670,Лунин,Brest,"",Louninets,"","","",52.3042,26.6403
BY,225671,Полесский,Brest,"",Louninets,"","","",53.1497,26.0569
BY,225672,Вулька Первая,Brest,"",Louninets,"","","",52.4868,26.7065
BY,225673,Лобча,Brest,"",Louninets,"","","",52.2987,26.5292
BY,225674,Боровцы,Brest,"",Louninets,"","","",52.3021,26.8876
BY,225676,Малые Чучевичи,Brest,"",Louninets,"","","",52.5933,26.8925
BY,225677,Цна,Brest,"",Louninets,"","","",52.2445,26.9964
BY,225678,Боровики,Brest,"",Louninets,"","","",52.515,26.9425
BY,225679,Станция Дятловичи,Brest,"",Louninets,"","","",52.4868,26.7065
BY,225680,Гранитная,Brest,"",Louninets,"","","",52.2011,27.3916
BY,225681,Межлесье,Brest,"",Louninets,"","","",52.2011,27.3916
BY,225682,Запросье,Brest,"",Louninets,"","","",52.1766,27.47
BY,225683,Люща,Brest,"",Louninets,"","","",52.2011,27.3916
BY,225685,Ситница,Brest,"",Louninets,"","","",52.1993,27.3622
BY,225686,Синкевичи,Brest,"",Louninets,"","","",52.2112,27.2581
BY,225687,Микашевичи,Brest,"",Louninets,"","","",52.2173,27.476
BY,225710,Пинск,Brest,"",Pinsk,"","","",52.1229,26.0951
BY,225719,Малая Плотница,Brest,"",Pinsk,"","","",52.4665,26.4067
BY,225720,Заборовцы,Brest,"",Pinsk,"","","",52.3952,26.1099
BY,225721,Ковнятин,Brest,"",Pinsk,"","","",52.3324,26.041
BY,225722,Лосичи,Brest,"",Pinsk,"","","",52.0168,26.2214
BY,225723,Жидче,Brest,"",Pinsk,"","","",52.1874,26.2401
BY,225724,Стошаны,Brest,"",Pinsk,"","","",52.3209,26.1449
BY,225724,Стошаны,Brest,"",Pinsk,"","","",52.3209,26.1449
BY,225725,Лемешевичи,Brest,"",Pinsk,"","","",52.0888,26.3228
BY,225726,Боричевичи,Brest,"",Pinsk,"","","",52.0587,26.4761
BY,225727,Каллауровичи,Brest,"",Pinsk,"","","",52.0829,26.5027
BY,225728,Плещицы,Brest,"",Pinsk,"","","",52.0699,26.1971
BY,225729,Березцы,Brest,"",Pinsk,"","","",52.1874,26.2401
BY,225730,Пинковичи,Brest,"",Pinsk,"","","",52.1388,26.1716
BY,225731,Городище,Brest,"",Pinsk,"","","",52.1624,26.2721
BY,225732,Парохонск,Brest,"",Pinsk,"","","",52.2273,26.4474
BY,225733,Дубновичи,Brest,"",Pinsk,"","","",52.283,26.4319
BY,225734,Погост - Загородский,Brest,"",Pinsk,"","","",52.2511,26.2993
BY,225735,Чухово,Brest,"",Pinsk,"","","",52.3285,26.2569
BY,225736,Плоскинь,Brest,"",Pinsk,"","","",52.4568,26.2679
BY,225737,Купятичи,Brest,"",Pinsk,"","","",52.1724,26.1981
BY,225738,Новый Двор,Brest,"",Pinsk,"","","",52.2511,26.2993
BY,225739,Сошно,Brest,"",Pinsk,"","","",52.2398,26.3488
BY,225740,Логишин,Brest,"",Pinsk,"","","",52.339,25.9867
BY,225741,Лыще,Brest,"",Pinsk,"","","",52.2072,26.4778
BY,225742,Доброславка,Brest,"",Pinsk,"","","",52.4063,26.2483
BY,225743,Бобрик,Brest,"",Pinsk,"","","",52.4677,26.3079
BY,225744,Ладорож,Brest,"",Pinsk,"","","",51.8926,26.184
BY,225746,Хойно,Brest,"",Pinsk,"","","",52.2072,26.4778
BY,225747,Лопатин,Brest,"",Pinsk,"","","",52.0189,26.331
BY,225748,Кочановичи,Brest,"",Pinsk,"","","",52.1091,26.4304
BY,225749,Житковичи,Brest,"",Pinsk,"","","",52.2168,27.8561
BY,225750,Галево,Brest,"",Pinsk,"","","",52.1557,26.1074
BY,225751,Оснежицы,Brest,"",Pinsk,"","","",52.1891,26.1299
BY,225752,Ставок,Brest,"",Pinsk,"","","",52.1939,26.0687
BY,225753,Ласицк,Brest,"",Pinsk,"","","",51.9291,26.2892
BY,225754,Мерчицы,Brest,"",Pinsk,"","","",52.2638,25.9417
BY,225755,Поперечье,Brest,"",Pinsk,"","","",52.2041,26.0197
BY,225756,Валище,Brest,"",Pinsk,"","","",52.2041,26.0197
BY,225757,Озаричи,Brest,"",Pinsk,"","","",52.4092,25.8466
BY,225758,Табулки,Brest,"",Pinsk,"","","",52.288,25.7543
BY,225759,Клетная,Brest,"",Pinsk,"","","",52.2041,26.0197
BY,225760,Молотковичи,Brest,"",Pinsk,"","","",52.1211,25.9229
BY,225761,Кончицы,Brest,"",Pinsk,"","","",52.0675,25.8209
BY,225762,Дубой,Brest,"",Pinsk,"","","",52.03,26.8651
BY,225763,Березовичи,Brest,"",Pinsk,"","","",52.1582,25.8683
BY,225764,Охово,Brest,"",Pinsk,"","","",52.1897,25.9218
BY,225765,Кошевичи,Brest,"",Pinsk,"","","",52.1725,25.9767
BY,225766,Жабчицы,Brest,"",Pinsk,"","","",52.1315,25.9727
BY,225767,Домашицы,Brest,"",Pinsk,"","","",52.1264,26.1052
BY,225768,Молодельчицы,Brest,"",Pinsk,"","","",52.1405,26.4929
BY,225790,Залядынье,Brest,"",Ivanovo,"","","",52.2423,25.6025
BY,225794,Санаторий Алеся,Brest,"",Ivanovo,"","","",52.2423,25.6025
BY,225796,Рудск,Brest,"",Ivanovo,"","","",52.0815,25.5627
BY,225797,Тышковичи,Brest,"",Ivanovo,"","","",52.3505,25.6115
BY,225798,Осовница,Brest,"",Ivanovo,"","","",52.2949,25.6332
BY,225800,Иваново,Brest,"",Ivanovo,"","","",52.1451,25.5365
BY,225801,Бродница,Brest,"",Ivanovo,"","","",52.128,25.6891
BY,225802,Яечковичи,Brest,"",Ivanovo,"","","",52.1376,25.5284
BY,225805,Молодово,Brest,"",Ivanovo,"","","",52.2738,25.6832
BY,225806,Достоево,Brest,"",Ivanovo,"","","",52.232,25.6811
BY,225807,Ляховичи,Brest,"",Ivanovo,"","","",52.0595,25.1268
BY,225808,Вороцевичи,Brest,"",Ivanovo,"","","",52.109,25.3853
BY,225809,Хомичево,Brest,"",Ivanovo,"","","",52.0158,25.5967
BY,225812,Мохро,Brest,"",Ivanovo,"","","",51.9762,25.5637
BY,225813,Одрижин,Brest,"",Ivanovo,"","","",51.9701,25.4597
BY,225815,Гневчицы,Brest,"",Ivanovo,"","","",51.9997,25.5021
BY,225816,Крытышин,Brest,"",Ivanovo,"","","",52.0798,25.4801
BY,225819,Баландичи,Brest,"",Ivanovo,"","","",51.9726,25.5048
BY,225820,Лясковичи,Brest,"",Ivanovo,"","","",52.2163,25.4685
BY,225821,Дружиловичи,Brest,"",Ivanovo,"","","",52.2384,25.5597
BY,225822,Мотоль,Brest,"",Ivanovo,"","","",52.3138,25.6072
BY,225823,Ополь,Brest,"",Ivanovo,"","","",52.3245,25.4408
BY,225824,Псыщево,Brest,"",Ivanovo,"","","",52.2163,25.4685
BY,225825,Сочивки,Brest,"",Ivanovo,"","","",52.2314,25.4448
BY,225826,Снитово,Brest,"",Ivanovo,"","","",52.129,25.4473
BY,225827,Горбаха,Brest,"",Ivanovo,"","","",52.096,25.3598
BY,225829,Стрельна,Brest,"",Ivanovo,"","","",52.1812,25.4196
BY,225830,Дрогичин,Brest,"",Droghitchin,"","","",52.1874,25.1597
BY,225831,Нагорье,Brest,"",Droghitchin,"","","",52.1804,25.0565
BY,225832,Закозел,Brest,"",Droghitchin,"","","",52.1293,25.0047
BY,225833,Брашевичи,Brest,"",Droghitchin,"","","",52.2239,25.0125
BY,225834,Алексеевичи,Brest,"",Droghitchin,"","","",52.2852,25.0008
BY,225835,Немержа,Brest,"",Droghitchin,"","","",52.2945,25.0704
BY,225837,Вулька,Brest,"",Droghitchin,"","","",52.25,25.1333
BY,225838,Гошево,Brest,"",Droghitchin,"","","",52.2933,25.2288
BY,225839,Марковичи,Brest,"",Droghitchin,"","","",52.3564,25.1096
BY,225840,Новая Попина,Brest,"",Droghitchin,"","","",52.1363,25.1127
BY,225841,Осовцы,Brest,"",Droghitchin,"","","",52.087,25.2309
BY,225842,Белин,Brest,"",Droghitchin,"","","",52.0521,25.213
BY,225843,Заречка,Brest,"",Droghitchin,"","","",52.05,25.1201
BY,225844,Радостово,Brest,"",Droghitchin,"","","",51.969,24.9374
BY,225845,Липники,Brest,"",Droghitchin,"","","",52.1792,25.2311
BY,225846,Гутово,Brest,"",Droghitchin,"","","",52.188,25.3384
BY,225847,Завершье,Brest,"",Droghitchin,"","","",52.3636,24.1499
BY,225848,Бездеж,Brest,"",Droghitchin,"","","",52.3186,25.3076
BY,225849,Ровины,Brest,"",Droghitchin,"","","",52.2288,25.2161
BY,225850,Антополь,Brest,"",Droghitchin,"","","",52.2038,24.7863
BY,225851,Детковичи,Brest,"",Droghitchin,"","","",52.3154,24.815
BY,225852,Деревная,Brest,"",Droghitchin,"","","",52.2958,24.9006
BY,225853,Именин,Brest,"",Droghitchin,"","","",52.2377,24.9106
BY,225854,Толково,Brest,"",Droghitchin,"","","",52.1942,24.9179
BY,225855,Осиповичи,Brest,"",Droghitchin,"","","",52.1368,24.816
BY,225856,Головчицы,Brest,"",Droghitchin,"","","",52.1467,24.868
BY,225857,Вулька Радовецкая,Brest,"",Droghitchin,"","","",52.1449,25.0451
BY,225858,Сваринь,Brest,"",Droghitchin,"","","",51.9715,25.0603
BY,225859,Суличево,Brest,"",Droghitchin,"","","",52.0981,25.04
BY,225860,Кобрин,Brest,"",Kobrin,"","","",52.2138,24.3564
BY,225861,Пески,Brest,"",Kobrin,"","","",52.1897,24.2413
BY,225862,Петьки,Brest,"",Kobrin,"","","",52.1587,24.3094
BY,225863,Верхолесье,Brest,"",Kobrin,"","","",52.0817,24.3014
BY,225864,Новоселки,Brest,"",Kobrin,"","","",52.1129,24.8334
BY,225865,Бельск,Brest,"",Kobrin,"","","",52.0145,24.4097
BY,225866,Корчицы,Brest,"",Kobrin,"","","",52.105,24.3811
BY,225867,Киселевцы,Brest,"",Kobrin,"","","",52.1291,24.4138
BY,225868,Болота,Brest,"",Kobrin,"","","",52.1361,24.522
BY,225869,Хидры,Brest,"",Kobrin,"","","",52.1496,24.3692
BY,225870,Именин,Brest,"",Kobrin,"","","",52.2635,24.3514
BY,225871,Стригово,Brest,"",Kobrin,"","","",52.2994,24.2762
BY,225872,Козище,Brest,"",Kobrin,"","","",52.3455,24.3429
BY,225873,Минянка,Brest,"",Kobrin,"","","",52.3031,24.4511
BY,225874,Батчи,Brest,"",Kobrin,"","","",52.2438,24.2306
BY,225875,Хабовичи,Brest,"",Kobrin,"","","",52.061,24.4776
BY,225876,Дивин,Brest,"",Kobrin,"","","",51.9605,24.5898
BY,225877,Оса,Brest,"",Kobrin,"","","",51.9208,24.4922
BY,225878,Леликово,Brest,"",Kobrin,"","","",51.9241,24.6946
BY,225879,Повитье,Brest,"",Kobrin,"","","",52.1469,24.434
BY,225880,Залесье,Brest,"",Kobrin,"","","",52.3044,24.7956
BY,225881,Камень,Brest,"",Kobrin,"","","",52.2138,24.5582
BY,225882,Октябрь,Brest,"",Kobrin,"","","",52.2362,24.6081
BY,225883,Городец,Brest,"",Kobrin,"","","",52.203,24.6641
BY,225884,Онисковичи,Brest,"",Kobrin,"","","",52.1255,24.7145
BY,225885,Грушево,Brest,"",Kobrin,"","","",52.2415,24.7318
BY,225886,Демидовщина,Brest,"",Kobrin,"","","",52.241,24.6494
BY,225887,Шеметовка,Brest,"",Kobrin,"","","",52.3271,24.6541
BY,225889,Остромичи,Brest,"",Kobrin,"","","",52.2764,24.469
BY,225890,Буховичи,Brest,"",Kobrin,"","","",52.2599,24.4421
BY,225891,Закросница,Brest,"",Kobrin,"","","",52.2415,24.5083
BY,225892,Лука,Brest,"",Kobrin,"","","",52.3731,24.6884
BY,225893,Глинянка,Brest,"",Kobrin,"","","",52.2775,24.4557
BY,225895,Девятки,Brest,"",Kobrin,"","","",52.2233,24.4423
BY,225896,Патрики,Brest,"",Kobrin,"","","",52.1827,24.3121
BY,225897,Ореховский,Brest,"",Kobrin,"","","",52.2775,24.4557
BY,225898,Тевли,Brest,"",Kobrin,"","","",52.3372,24.2496
BY,225899,Плянта,Brest,"",Kobrin,"","","",52.3248,24.547
BY,225910,Малорита,Brest,"",Malorita,"","","",51.7905,24.074
BY,225911,Замшаны,Brest,"",Malorita,"","","",51.8386,24.0901
BY,225912,Великорита,Brest,"",Malorita,"","","",51.9426,24.0448
BY,225913,Масевичи,Brest,"",Malorita,"","","",51.941,23.9518
BY,225914,Черняны,Brest,"",Malorita,"","","",51.8868,24.1314
BY,225915,Доропеевичи,Brest,"",Malorita,"","","",51.9565,24.3366
BY,225916,Луково,Brest,"",Malorita,"","","",51.8879,24.2394
BY,225917,Мокраны,Brest,"",Malorita,"","","",51.833,24.2618
BY,225918,Ляховцы,Brest,"",Malorita,"","","",51.8868,24.1314
BY,225919,Дубично,Brest,"",Malorita,"","","",51.9043,24.0527
BY,225920,Хотислав,Brest,"",Malorita,"","","",51.7121,24.0969
BY,225921,Олтуш,Brest,"",Malorita,"","","",51.6902,23.9722
BY,225922,Орехово,Brest,"",Malorita,"","","",51.6392,23.9544
BY,225923,Ланская,Brest,"",Malorita,"","","",51.6932,23.9476
BY,225924,Радеж,Brest,"",Malorita,"","","",51.7092,23.8183
BY,225925,Збураж,Brest,"",Malorita,"","","",51.7724,23.9749
BY,225926,Гвозница,Brest,"",Malorita,"","","",51.8202,23.9085
BY,225927,Мельники,Brest,"",Malorita,"","","",51.7374,24.1312
BY,230000,Гродно,Grodno,"",Grodno,"","","",53.6884,23.8258
BY,231000,Сморгонь,Grodno,"",Smorgon,"","","",54.4798,26.3957
BY,231001,Залесье,Grodno,"",Smorgon,"","","",54.4192,26.548
BY,231002,Мицкевичи,Grodno,"",Smorgon,"","","",54.4923,26.5938
BY,231003,Войстом,Grodno,"",Smorgon,"","","",54.5752,26.6215
BY,231004,Лещеняты,Grodno,"",Smorgon,"","","",54.6219,26.5486
BY,231005,Вишнево,Grodno,"",Smorgon,"","","",54.7102,26.5228
BY,231006,Малиновая,Grodno,"",Smorgon,"","","",54.5498,26.5384
BY,231010,Шутовичи,Grodno,"",Smorgon,"","","",54.4289,26.428
BY,231011,Синьки,Grodno,"",Smorgon,"","","",54.3607,26.4587
BY,231012,Сосновка,Grodno,"",Smorgon,"","","",54.5254,26.4329
BY,231013,Жодишки,Grodno,"",Smorgon,"","","",54.6258,26.4419
BY,231014,Сыроватки,Grodno,"",Smorgon,"","","",54.6863,26.4032
BY,231015,Лылойти,Grodno,"",Smorgon,"","","",54.5254,26.4329
BY,231020,Сутьково,Grodno,"",Smorgon,"","","",54.395,26.3885
BY,231022,Крево,Grodno,"",Smorgon,"","","",54.3118,26.2916
BY,231024,Ордаши,Grodno,"",Smorgon,"","","",54.2473,26.2355
BY,231025,Милейково,Grodno,"",Smorgon,"","","",54.2401,26.3221
BY,231026,Раковцы,Grodno,"",Smorgon,"","","",54.2986,26.3094
BY,231032,Кушляны,Grodno,"",Smorgon,"","","",54.4466,26.2067
BY,231033,Солы,Grodno,"",Smorgon,"","","",54.513,26.1938
BY,231034,Снигяны,Grodno,"",Smorgon,"","","",54.5719,26.2032
BY,231035,Белковщина,Grodno,"",Smorgon,"","","",53.4036,26.7787
BY,231036,Стрипуны,Grodno,"",Smorgon,"","","",54.3983,26.1821
BY,231037,Валейковичи,Grodno,"",Smorgon,"","","",54.2667,26.3129
BY,231100,Ошмяны,Grodno,"",Ochmiany,"","","",54.421,25.936
BY,231101,Ошмяны Станция,Grodno,"",Ochmiany,"","","",54.4156,25.9528
BY,231102,Жупраны,Grodno,"",Ochmiany,"","","",54.4704,26.0891
BY,231104,Поляны,Grodno,"",Ochmiany,"","","",54.4836,25.9405
BY,231105,Каменный Лог,Grodno,"",Ochmiany,"","","",54.4156,25.9528
BY,231106,Муровано - Ошмяны,Grodno,"",Ochmiany,"","","",54.4156,25.9528
BY,231107,Буденовка,Grodno,"",Ochmiany,"","","",54.4233,25.9045
BY,231108,Каменка,Grodno,"",Ochmiany,"","","",54.3077,25.98
BY,231109,Кольчуны,Grodno,"",Ochmiany,"","","",54.3876,25.8668
BY,231111,Граужишки,Grodno,"",Ochmiany,"","","",54.328,25.8399
BY,231112,Щепановичи,Grodno,"",Ochmiany,"","","",54.3741,25.816
BY,231113,Клевица,Grodno,"",Ochmiany,"","","",54.2916,25.742
BY,231114,Онжадово,Grodno,"",Ochmiany,"","","",54.3467,25.6011
BY,231115,Крейванцы,Grodno,"",Ochmiany,"","","",54.3741,25.816
BY,231116,Моствилишки,Grodno,"",Ochmiany,"","","",54.3805,26.0135
BY,231118,Гроди,Grodno,"",Ochmiany,"","","",54.5236,25.8834
BY,231120,Гольшаны,Grodno,"",Ochmiany,"","","",54.2585,26.0144
BY,231121,Доргишки,Grodno,"",Ochmiany,"","","",54.2191,25.9573
BY,231122,Горецковщина,Grodno,"",Ochmiany,"","","",54.2174,26.1328
BY,231123,Боруны,Grodno,"",Ochmiany,"","","",54.3171,26.1376
BY,231124,Гиневцы,Grodno,"",Ochmiany,"","","",54.3571,26.072
BY,231125,Новоселки,Grodno,"",Ochmiany,"","","",54.2578,26.2813
BY,231200,Гудогай,Grodno,"",Ostrovets,"","","",54.5508,25.8977
BY,231210,Островец,Grodno,"",Ostrovets,"","","",54.6138,25.9554
BY,231213,Гервяты,Grodno,"",Ostrovets,"","","",54.6916,26.1409
BY,231214,Рымдюны,Grodno,"",Ostrovets,"","","",54.6708,26.2152
BY,231217,Трокеники,Grodno,"",Ostrovets,"","","",54.7608,25.8711
BY,231219,Дайлидки,Grodno,"",Ostrovets,"","","",54.569,26.1072
BY,231220,Ворняны,Grodno,"",Ostrovets,"","","",54.7276,26.0088
BY,231221,Ворона,Grodno,"",Ostrovets,"","","",54.7567,25.9609
BY,231223,Ольховка,Grodno,"",Ostrovets,"","","",54.8077,26.2354
BY,231224,Спонды,Grodno,"",Ostrovets,"","","",54.9084,26.2404
BY,231225,Мостяны,Grodno,"",Ostrovets,"","","",54.955,26.2225
BY,231230,Михалишки,Grodno,"",Ostrovets,"","","",54.8122,26.1609
BY,231232,Подольцы,Grodno,"",Ostrovets,"","","",54.7904,26.002
BY,231233,Рытань,Grodno,"",Ostrovets,"","","",54.8441,25.9659
BY,231234,Кемелишки,Grodno,"",Ostrovets,"","","",54.8596,25.8896
BY,231235,Мали,Grodno,"",Ostrovets,"","","",54.6456,25.9916
BY,231290,Паперня,Grodno,"",Lida,"","","",54.0373,27.5717
BY,231300,Лида,Grodno,"",Lida,"","","",53.8833,25.2997
BY,231301,Первомацйский,Grodno,"",Lida,"","","",53.9031,25.6098
BY,231302,Бердовка,Grodno,"",Lida,"","","",53.7836,25.7471
BY,231303,Докудово,Grodno,"",Lida,"","","",53.7971,25.5056
BY,231304,Гончары,Grodno,"",Lida,"","","",54.2257,25.8557
BY,231305,Неман,Grodno,"",Lida,"","","",53.6729,25.4409
BY,231306,Березовка,Grodno,"",Lida,"","","",53.7214,25.4993
BY,231307,Дворище,Grodno,"",Lida,"","","",54.2374,25.9204
BY,231308,Далекие,Grodno,"",Lida,"","","",53.9031,25.6098
BY,231309,Дубровня,Grodno,"",Lida,"","","",53.9031,25.6098
BY,231310,Едки,Grodno,"",Lida,"","","",53.7104,25.1876
BY,231311,Минойты,Grodno,"",Lida,"","","",53.7987,25.3647
BY,231312,Большие Конюшаны,Grodno,"",Lida,"","","",53.7504,25.3314
BY,231314,Белица,Grodno,"",Lida,"","","",53.6502,25.3158
BY,231315,Поперечье,Grodno,"",Lida,"","","",53.7104,25.1876
BY,231316,Ходоровцы,Grodno,"",Lida,"","","",53.6366,25.0648
BY,231317,Ванги,Grodno,"",Lida,"","","",53.5894,25.1516
BY,231318,Песковцы,Grodno,"",Lida,"","","",53.837,24.897
BY,231320,Крупово,Grodno,"",Lida,"","","",53.9262,25.1967
BY,231322,Дитва,Grodno,"",Lida,"","","",53.8549,25.1509
BY,231323,Мыто,Grodno,"",Lida,"","","",53.8305,25.1161
BY,231324,Ваверка,Grodno,"",Lida,"","","",53.8363,24.9679
BY,231325,Малое Можейково,Grodno,"",Lida,"","","",53.8437,25.1329
BY,231327,Голдово,Grodno,"",Lida,"","","",53.6983,25.1073
BY,231328,Тарново,Grodno,"",Lida,"","","",53.7936,25.1472
BY,231329,Гуды,Grodno,"",Lida,"","","",53.9663,25.2441
BY,231330,Ивье,Grodno,"",Ivie,"","","",53.9299,25.7727
BY,231331,Морино,Grodno,"",Ivie,"","","",53.8712,25.6957
BY,231335,Липнишки,Grodno,"",Ivie,"","","",54.0074,25.6082
BY,231336,Дайлиды,Grodno,"",Ivie,"","","",53.9599,25.8186
BY,231340,Каменчане,Grodno,"",Ivie,"","","",54.0257,25.68
BY,231341,Субботники,Grodno,"",Ivie,"","","",54.0945,25.7489
BY,231343,Жемыславль,Grodno,"",Ivie,"","","",54.128,25.7632
BY,231345,Геранены,Grodno,"",Ivie,"","","",54.1159,25.5773
BY,231350,Юратишки,Grodno,"",Ivie,"","","",54.0315,25.9325
BY,231351,Юратишки Станция,Grodno,"",Ivie,"","","",54.0951,25.92
BY,231352,Трабы,Grodno,"",Ivie,"","","",54.1587,25.9075
BY,231362,Бакшты,Grodno,"",Ivie,"","","",53.9357,26.1868
BY,231363,Эйгерды,Grodno,"",Ivie,"","","",54.0638,26.0627
BY,231365,Лелюки,Grodno,"",Ivie,"","","",53.8805,25.9261
BY,231369,Лаздуны,Grodno,"",Ivie,"","","",53.9657,25.972
BY,231370,Вороново,Grodno,"",Voronovo,"","","",54.1492,25.3112
BY,231371,Бастуны,Grodno,"",Voronovo,"","","",54.0775,25.2875
BY,231372,Трокели,Grodno,"",Voronovo,"","","",54.0361,25.4082
BY,231373,Жирмуны,Grodno,"",Voronovo,"","","",54.0245,25.2235
BY,231374,Погородно,Grodno,"",Voronovo,"","","",54.0973,25.1439
BY,231377,Полецкишки,Grodno,"",Voronovo,"","","",54.1889,25.1863
BY,231381,Бенякони,Grodno,"",Voronovo,"","","",54.2495,25.3563
BY,231383,Конвелишки,Grodno,"",Voronovo,"","","",54.2287,25.4681
BY,231384,Винцуки,Grodno,"",Voronovo,"","","",54.155,25.5028
BY,231385,Переганцы,Grodno,"",Voronovo,"","","",54.093,25.2411
BY,231386,Германишки,Grodno,"",Voronovo,"","","",54.1268,25.3613
BY,231388,Курчевцы,Grodno,"",Voronovo,"","","",53.9206,24.8663
BY,231389,Мисевичи,Grodno,"",Voronovo,"","","",53.8775,24.8918
BY,231390,Радунь,Grodno,"",Voronovo,"","","",54.0517,24.9976
BY,231392,Нача,Grodno,"",Voronovo,"","","",54.0732,24.8404
BY,231393,Дотишки,Grodno,"",Voronovo,"","","",54.1163,24.9974
BY,231395,Гирки,Grodno,"",Voronovo,"","","",54.0043,24.8965
BY,231396,Заболоть,Grodno,"",Voronovo,"","","",53.9258,24.7965
BY,231398,Смильгини,Grodno,"",Voronovo,"","","",53.9098,24.9596
BY,231399,Больтишки,Grodno,"",Voronovo,"","","",53.9379,25.042
BY,231400,Новогрудок,Grodno,"",Novogroudok,"","","",53.5942,25.8191
BY,231401,Кошелево,Grodno,"",Novogroudok,"","","",53.5348,25.7225
BY,231402,Ятра,Grodno,"",Novogroudok,"","","",53.4219,25.7942
BY,231403,Валевка,Grodno,"",Novogroudok,"","","",53.4626,25.8877
BY,231404,Брольники,Grodno,"",Novogroudok,"","","",53.6267,25.9803
BY,231405,Волковичи,Grodno,"",Novogroudok,"","","",53.5847,25.9564
BY,231407,Большие Воробьевичи,Grodno,"",Novogroudok,"","","",53.5397,25.8355
BY,231409,Каменка,Grodno,"",Novogroudok,"","","",53.5528,25.6885
BY,231411,Ладеники,Grodno,"",Novogroudok,"","","",53.6356,25.764
BY,231412,Петревичи,Grodno,"",Novogroudok,"","","",53.643,25.6725
BY,231413,Налибоки,Grodno,"",Novogroudok,"","","",53.6967,25.6937
BY,231414,Вселюб,Grodno,"",Novogroudok,"","","",53.7187,25.7985
BY,231415,Зеневичи,Grodno,"",Novogroudok,"","","",53.7868,25.825
BY,231416,Отминово,Grodno,"",Novogroudok,"","","",53.7918,25.7059
BY,231417,Мостище,Grodno,"",Novogroudok,"","","",53.7121,25.7433
BY,231422,Няньково,Grodno,"",Novogroudok,"","","",53.7118,26.0124
BY,231423,Вересково,Grodno,"",Novogroudok,"","","",53.7603,25.9092
BY,231425,Любча,Grodno,"",Novogroudok,"","","",53.7522,26.0603
BY,231427,Лаврышево,Grodno,"",Novogroudok,"","","",53.6908,26.1539
BY,231428,Щорсы,Grodno,"",Novogroudok,"","","",53.6344,26.1855
BY,231429,Негневичи,Grodno,"",Novogroudok,"","","",53.6586,26.0781
BY,231430,Кореличи,Grodno,"",Korelitchi,"","","",53.5648,26.1406
BY,231431,Красное,Grodno,"",Korelitchi,"","","",53.3929,26.1572
BY,231433,Горная Рута,Grodno,"",Korelitchi,"","","",53.5862,26.0369
BY,231435,Барановичи,Grodno,"",Korelitchi,"","","",53.512,25.9857
BY,231436,Кайшовка,Grodno,"",Korelitchi,"","","",53.4598,26.1272
BY,231441,Турец,Grodno,"",Korelitchi,"","","",53.5263,26.3125
BY,231442,Еремичи,Grodno,"",Korelitchi,"","","",53.4597,26.3754
BY,231443,Уша,Grodno,"",Korelitchi,"","","",53.4804,26.3618
BY,231444,Мир,Grodno,"",Korelitchi,"","","",53.4544,26.467
BY,231447,Большие Жуковичи,Grodno,"",Korelitchi,"","","",53.4597,26.3754
BY,231448,Большая Медвядка,Grodno,"",Korelitchi,"","","",53.3779,26.3603
BY,231449,Оюцевичи,Grodno,"",Korelitchi,"","","",53.4597,26.3754
BY,231450,Полужье,Grodno,"",Korelitchi,"","","",53.4584,26.1021
BY,231451,Малюшичи,Grodno,"",Korelitchi,"","","",53.4895,26.0715
BY,231452,Миратичи,Grodno,"",Korelitchi,"","","",53.4517,25.9453
BY,231453,Райца,Grodno,"",Korelitchi,"","","",53.4663,26.0244
BY,231454,Воронча,Grodno,"",Korelitchi,"","","",53.4195,26.0555
BY,231455,Цирин,Grodno,"",Korelitchi,"","","",53.4077,26.1575
BY,231456,Луки,Grodno,"",Korelitchi,"","","",53.4759,26.2369
BY,231457,Некрашевичи,Grodno,"",Korelitchi,"","","",53.4983,26.2238
BY,231460,Дятлово,Grodno,"",Diatlovo,"","","",53.4631,25.4068
BY,231461,Охоново,Grodno,"",Diatlovo,"","","",53.5595,25.5328
BY,231463,Гезгалы,Grodno,"",Diatlovo,"","","",53.5999,25.3725
BY,231464,Жуковщина,Grodno,"",Diatlovo,"","","",53.4773,25.4582
BY,231465,Хвиневичи,Grodno,"",Diatlovo,"","","",53.4882,25.2577
BY,231466,Демьяновцы,Grodno,"",Diatlovo,"","","",53.4773,25.4582
BY,231467,Горка,Grodno,"",Diatlovo,"","","",53.2829,25.5016
BY,231468,Крутиловичи,Grodno,"",Diatlovo,"","","",53.4619,25.6628
BY,231469,Раклевичи,Grodno,"",Diatlovo,"","","",53.4856,25.4729
BY,231470,Новоельня,Grodno,"",Grodno,"","","",53.4636,25.5846
BY,231472,Торкачи,Grodno,"",Diatlovo,"","","",53.5049,25.6225
BY,231473,Лопушно,Grodno,"",Diatlovo,"","","",53.4861,25.7167
BY,231474,Дворец,Grodno,"",Diatlovo,"","","",53.4058,25.5708
BY,231475,Белогурна,Grodno,"",Diatlovo,"","","",53.3091,25.5953
BY,231476,Роготна,Grodno,"",Diatlovo,"","","",53.35,25.4833
BY,231480,Мировщина,Grodno,"",Diatlovo,"","","",53.3527,25.1655
BY,231481,Леоновичи,Grodno,"",Diatlovo,"","","",53.3665,25.2537
BY,231482,Козловщина,Grodno,"",Diatlovo,"","","",53.3176,25.2848
BY,231483,Войневичи,Grodno,"",Diatlovo,"","","",53.1829,24.6664
BY,231484,Подвеликое,Grodno,"",Diatlovo,"","","",53.3005,25.1601
BY,231485,Сочевляны,Grodno,"",Diatlovo,"","","",53.3527,25.1655
BY,231486,Руда Яворская,Grodno,"",Diatlovo,"","","",53.4015,25.1112
BY,231488,Вензовец,Grodno,"",Diatlovo,"","","",53.4178,25.3322
BY,231489,Апалино-Басино,Grodno,"",Diatlovo,"","","",53.4819,25.3498
BY,231500,Рожанка - Станция,Grodno,"",Chtchoutchin,"","","",53.539,24.9782
BY,231501,Сороки,Grodno,"",Chtchoutchin,"","","",53.4917,24.8986
BY,231502,Большое Можейково,Grodno,"",Chtchoutchin,"","","",53.539,24.9782
BY,231503,Скрибовцы,Grodno,"",Chtchoutchin,"","","",53.539,24.9782
BY,231506,Желудок,Grodno,"",Chtchoutchin,"","","",53.5974,24.9828
BY,231507,Дуброво,Grodno,"",Chtchoutchin,"","","",53.5576,25.0497
BY,231508,Орля,Grodno,"",Chtchoutchin,"","","",53.5094,24.9817
BY,231509,Липично,Grodno,"",Chtchoutchin,"","","",53.539,24.9782
BY,231510,Щучин,Grodno,"",Chtchoutchin,"","","",53.6014,24.7465
BY,231521,Гурнофиль,Grodno,"",Chtchoutchin,"","","",53.9729,25.3601
BY,231522,Василишки,Grodno,"",Chtchoutchin,"","","",53.7807,24.8489
BY,231524,Головичполье,Grodno,"",Chtchoutchin,"","","",53.9729,25.3601
BY,231525,Лычковцы,Grodno,"",Chtchoutchin,"","","",54.165,25.8714
BY,231530,Лещанка,Grodno,"",Chtchoutchin,"","","",53.7649,25.7702
BY,231531,Лядск,Grodno,"",Chtchoutchin,"","","",53.6372,24.6135
BY,231535,Нароши,Grodno,"",Chtchoutchin,"","","",53.8005,24.4917
BY,231536,Острына,Grodno,"",Chtchoutchin,"","","",53.7322,24.5305
BY,231540,Новый Двор,Grodno,"",Chtchoutchin,"","","",53.8074,24.9005
BY,231542,Прудяны,Grodno,"",Chtchoutchin,"","","",53.834,24.6375
BY,231543,Ходилони,Grodno,"",Chtchoutchin,"","","",53.8729,24.7204
BY,231544,Первомайская,Grodno,"",Chtchoutchin,"","","",53.5496,26.3287
BY,231545,Бакшты,Grodno,"",Chtchoutchin,"","","",53.7967,24.6828
BY,231546,Мотыли,Grodno,"",Chtchoutchin,"","","",53.9335,24.6389
BY,231547,Бершты,Grodno,"",Chtchoutchin,"","","",53.8576,24.3944
BY,231550,Раковичи,Grodno,"",Chtchoutchin,"","","",53.5134,24.8372
BY,231551,Баличи,Grodno,"",Chtchoutchin,"","","",53.5097,24.7691
BY,231552,Рожанка,Grodno,"",Chtchoutchin,"","","",53.536,24.7365
BY,231553,Руткевичи,Grodno,"",Chtchoutchin,"","","",53.5726,24.7329
BY,231555,Каменка,Grodno,"",Chtchoutchin,"","","",53.5539,24.503
BY,231557,Демброво,Grodno,"",Chtchoutchin,"","","",53.6356,24.4728
BY,231600,Мосты,Grodno,"",Mosty,"","","",53.4122,24.5387
BY,231602,Дубно,Grodno,"",Mosty,"","","",53.4402,24.3789
BY,231603,Сухиничи,Grodno,"",Mosty,"","","",53.1792,24.6202
BY,231604,Русиновцы,Grodno,"",Mosty,"","","",53.5281,24.3225
BY,231605,Хартица,Grodno,"",Mosty,"","","",53.4114,24.3847
BY,231606,Лунна,Grodno,"",Mosty,"","","",53.4537,24.2614
BY,231607,Глядовичи,Grodno,"",Mosty,"","","",53.4114,24.3847
BY,231608,Стрельцы,Grodno,"",Mosty,"","","",53.4548,24.1866
BY,231610,Моньковичи,Grodno,"",Mosty,"","","",53.3246,24.8725
BY,231611,Микелевщина,Grodno,"",Mosty,"","","",53.4913,24.6681
BY,231612,Мальковичи,Grodno,"",Mosty,"","","",53.3983,24.8024
BY,231613,Голубы,Grodno,"",Mosty,"","","",53.4685,24.9343
BY,231614,Куриловичи,Grodno,"",Mosty,"","","",53.3577,24.8777
BY,231615,Милевичи,Grodno,"",Mosty,"","","",53.283,24.8807
BY,231616,Большие Озерки,Grodno,"",Mosty,"","","",53.3935,24.81
BY,231619,Правые Мосты,Grodno,"",Mosty,"","","",53.4308,24.6344
BY,231621,Пески,Grodno,"",Mosty,"","","",53.3534,24.6272
BY,231622,Пацевичи,Grodno,"",Mosty,"","","",53.3237,24.6845
BY,231623,Большая Рогозница,Grodno,"",Mosty,"","","",53.3617,24.3976
BY,231624,Зарудавье,Grodno,"",Mosty,"","","",53.3355,24.5114
BY,231625,Пилки,Grodno,"",Mosty,"","","",53.3911,24.2599
BY,231626,Гудевичи,Grodno,"",Mosty,"","","",53.3728,24.1699
BY,231627,Радевичи,Grodno,"",Mosty,"","","",53.3937,24.1326
BY,231630,Струбница,Grodno,"",Mosty,"","","",53.3129,24.5918
BY,231702,Жукевичи,Grodno,"",Grodno,"","","",53.5925,23.9598
BY,231704,Свислочь,Grodno,"",Grodno,"","","",53.4973,24.0709
BY,231705,Квасовка,Grodno,"",Grodno,"","","",53.4833,24.0167
BY,231707,Новоселки,Grodno,"",Grodno,"","","",53.5235,23.8629
BY,231710,Коптевка,Grodno,"",Grodno,"","","",53.5688,23.8708
BY,231712,Индура,Grodno,"",Grodno,"","","",53.4605,23.8823
BY,231713,Одельск,Grodno,"",Grodno,"","","",53.406,23.761
BY,231715,Подлипки,Grodno,"",Grodno,"","","",53.4929,23.7017
BY,231716,Луцковляны,Grodno,"",Grodno,"","","",53.4821,23.804
BY,231721,Коробчицы,Grodno,"",Grodno,"","","",53.6899,23.6206
BY,231723,Беляны,Grodno,"",Grodno,"","","",53.6238,23.636
BY,231724,Гиновичи,Grodno,"",Grodno,"","","",53.756,23.6052
BY,231730,Подлабенье,Grodno,"",Grodno,"","","",53.8144,24.1346
BY,231733,Сопоцкин,Grodno,"",Grodno,"","","",53.8329,23.6598
BY,231734,Соничи,Grodno,"",Grodno,"","","",53.8737,23.6771
BY,231735,Василевичи,Grodno,"",Grodno,"","","",53.7796,25.5537
BY,231737,Лоцки,Grodno,"",Grodno,"","","",53.8144,24.1346
BY,231738,Ратичи,Grodno,"",Grodno,"","","",53.7714,23.6478
BY,231741,Гожа,Grodno,"",Grodno,"","","",53.817,23.8635
BY,231742,Поперечье,Grodno,"",Grodno,"","","",53.8332,23.8471
BY,231744,Польница,Grodno,"",Grodno,"","","",53.8493,23.8307
BY,231750,Путришки,Grodno,"",Grodno,"","","",53.7007,23.9412
BY,231751,Вертелишки,Grodno,"",Grodno,"","","",53.7021,24.0094
BY,231753,Озеры,Grodno,"",Grodno,"","","",53.7216,24.1836
BY,231754,Головачи,Grodno,"",Grodno,"","","",53.6359,24.2649
BY,231757,Новая Руда,Grodno,"",Grodno,"","","",53.8228,24.251
BY,231760,Котра,Grodno,"",Grodno,"","","",53.5865,24.1895
BY,231761,Скидель,Grodno,"",Grodno,"","","",53.5904,24.2478
BY,231762,Береговой,Grodno,"",Grodno,"","","",53.6456,23.9879
BY,231764,Мильковщина,Grodno,"",Grodno,"","","",53.569,24.3561
BY,231766,Обухово,Grodno,"",Grodno,"","","",53.6051,24.0814
BY,231767,Житомля,Grodno,"",Grodno,"","","",53.6328,24.1026
BY,231769,Глиняны,Grodno,"",Grodno,"","","",53.6048,24.2913
BY,231770,Берестовица,Grodno,"",Berestovitsa,"","","",53.1187,23.9733
BY,231771,Пархимовцы,Grodno,"",Berestovitsa,"","","",53.2375,24.0885
BY,231772,Поплавцы,Grodno,"",Berestovitsa,"","","",53.2375,24.0885
BY,231773,Пограничный,Grodno,"",Berestovitsa,"","","",53.1187,23.9733
BY,231774,Грицевичи,Grodno,"",Berestovitsa,"","","",53.0898,23.993
BY,231775,Кваторы,Grodno,"",Berestovitsa,"","","",53.1278,24.0864
BY,231776,Старый Дворец,Grodno,"",Berestovitsa,"","","",53.2375,24.0885
BY,231777,Красное,Grodno,"",Berestovitsa,"","","",53.8512,24.5316
BY,231778,Берестовица,"","",Rodno,"","","",53.1187,23.9733
BY,231780,Малая Берестовица,Grodno,"",Berestovitsa,"","","",53.2875,23.9377
BY,231781,Макаровцы,Grodno,"",Berestovitsa,"","","",53.3976,24.0031
BY,231782,Конюхи,Grodno,"",Berestovitsa,"","","",53.6506,24.2778
BY,231783,Большие Иодковичи,Grodno,"",Berestovitsa,"","","",53.4134,24.0067
BY,231784,Олекшицы,Grodno,"",Berestovitsa,"","","",53.3405,23.956
BY,231785,Большие Эйсмонты,Grodno,"",Berestovitsa,"","","",53.3976,24.0031
BY,231787,Лишки,Grodno,"",Berestovitsa,"","","",53.2959,23.8374
BY,231788,Массоляны,Grodno,"",Berestovitsa,"","","",53.3976,24.0031
BY,231800,Слоним,Grodno,"",Slonim,"","","",53.0869,25.3163
BY,231802,Костени,Grodno,"",Slonim,"","","",53.0683,25.2055
BY,231803,Мелькановичи,Grodno,"",Slonim,"","","",53.1384,25.2482
BY,231804,Мижевичи,Grodno,"",Slonim,"","","",52.9753,25.0858
BY,231805,Острово,Grodno,"",Slonim,"","","",53.2639,25.0386
BY,231806,Селявичи,Grodno,"",Slonim,"","","",53.2976,25.942
BY,231807,Озерница,Grodno,"",Slonim,"","","",53.074,25.0044
BY,231808,Сеньковщина,Grodno,"",Slonim,"","","",53.1384,25.2482
BY,231809,Костровичи,Grodno,"",Slonim,"","","",53.2026,25.1446
BY,231811,Павлово,Grodno,"",Slonim,"","","",53.2616,25.2868
BY,231813,Деревная,Grodno,"",Slonim,"","","",53.1981,25.4751
BY,231814,Высоцк,Grodno,"",Slonim,"","","",53.2277,25.5619
BY,231815,Поперечье,Grodno,"",Slonim,"","","",53.1531,25.3568
BY,231817,Суринка,Grodno,"",Slonim,"","","",52.9812,25.1994
BY,231818,Чемеры,Grodno,"",Slonim,"","","",53.0968,25.261
BY,231821,Шиловичи,Grodno,"",Slonim,"","","",53.0354,25.3606
BY,231822,Жировичи,Grodno,"",Slonim,"","","",53.0131,25.3443
BY,231823,Деревянчицы,Grodno,"",Slonim,"","","",52.9593,25.2701
BY,231824,Партизановка,Grodno,"",Slonim,"","","",52.9049,25.2814
BY,231825,Новодевятковичи,Grodno,"",Slonim,"","","",52.9593,25.2701
BY,231826,Сосновка,Grodno,"",Slonim,"","","",52.8838,25.0942
BY,231900,Волковысск,Grodno,"",Volkovyssk,"","","",53.1986,24.2787
BY,231901,Гнезно,Grodno,"",Volkovyssk,"","","",53.1243,24.3421
BY,231902,Мстибово,Grodno,"",Volkovyssk,"","","",53.1121,24.2577
BY,231904,Шиловичи,Grodno,"",Volkovyssk,"","","",53.1703,24.2428
BY,231905,Верейки,Grodno,"",Volkovyssk,"","","",53.265,24.22
BY,231906,Красный Груд,Grodno,"",Volkovyssk,"","","",53.2439,24.2493
BY,231907,Субочи,Grodno,"",Volkovyssk,"","","",53.171,24.3507
BY,231908,Волпа,Grodno,"",Volkovyssk,"","","",53.3669,24.3647
BY,231909,Родники,Grodno,"",Volkovyssk,"","","",53.1356,24.2026
BY,231910,Теолин,Grodno,"",Volkovyssk,"","","",53.2201,24.4306
BY,231911,Красносельский,Grodno,"",Volkovyssk,"","","",53.2645,24.4301
BY,231912,Россь,Grodno,"",Volkovyssk,"","","",53.2858,24.4128
BY,231913,Дубовцы,Grodno,"",Volkovyssk,"","","",53.253,24.4019
BY,231915,Репля,Grodno,"",Volkovyssk,"","","",53.253,24.4019
BY,231916,Вехотница,Grodno,"",Volkovyssk,"","","",53.2415,24.3341
BY,231917,Мачулино,Grodno,"",Volkovyssk,"","","",53.253,24.4019
BY,231920,Моисеевичи,Grodno,"",Volkovyssk,"","","",53.2721,24.5889
BY,231921,Войтковичи,Grodno,"",Volkovyssk,"","","",53.1611,24.5902
BY,231922,Изабелин,Grodno,"",Volkovyssk,"","","",53.0922,24.5547
BY,231923,Подороск,Grodno,"",Volkovyssk,"","","",52.9798,24.6223
BY,231924,Мотвеевцы,Grodno,"",Volkovyssk,"","","",53.1825,24.5168
BY,231926,Лапеница,Grodno,"",Volkovyssk,"","","",53.0267,24.4928
BY,231927,Рупейки,Grodno,"",Volkovyssk,"","","",53.0949,24.4908
BY,231928,Конюхи,Grodno,"",Volkovyssk,"","","",53.6506,24.2778
BY,231931,Каролин,Grodno,"",Zelva,"","","",53.0822,24.8845
BY,231932,Межиречи,Grodno,"",Zelva,"","","",53.066,24.7706
BY,231933,Словатичи,Grodno,"",Zelva,"","","",52.9876,24.8584
BY,231934,Теглевичи,Grodno,"",Zelva,"","","",53.0085,24.7811
BY,231935,Тулово,Grodno,"",Zelva,"","","",53.0921,24.7302
BY,231936,Мадейки,Grodno,"",Zelva,"","","",53.1507,24.6307
BY,231937,Монтяки,Grodno,"",Zelva,"","","",52.9721,24.7649
BY,231940,Зельва,Grodno,"",Zelva,"","","",53.1504,24.8153
BY,231942,Князево,Grodno,"",Zelva,"","","",53.2185,24.7461
BY,231943,Кремяница,Grodno,"",Zelva,"","","",53.3614,25.5943
BY,231944,Ялуцевичи,Grodno,"",Zelva,"","","",53.3323,25.8958
BY,231946,Козловичи,Grodno,"",Zelva,"","","",53.1406,25.1419
BY,231947,Старое Село,Grodno,"",Zelva,"","","",53.1805,24.9307
BY,231949,Бородичи,Grodno,"",Zelva,"","","",53.1621,24.7809
BY,231950,Кривичи,Grodno,"",Zelva,"","","",53.2176,24.8325
BY,231952,Деречин,Grodno,"",Zelva,"","","",53.2472,24.9182
BY,231954,Голынка,Grodno,"",Zelva,"","","",53.2133,25.0407
BY,231955,Снежная,Grodno,"",Zelva,"","","",53.1821,24.9793
BY,231960,Свислочь,Grodno,"",Svislotch,"","","",53.0368,24.0957
BY,231962,Гронки,Grodno,"",Svislotch,"","","",52.9605,24.0313
BY,231963,Доброволя,Grodno,"",Svislotch,"","","",52.9051,24.0339
BY,231964,Тиховоля,Grodno,"",Svislotch,"","","",52.8456,23.9958
BY,231965,Незбодичи,Grodno,"",Svislotch,"","","",52.9629,23.9742
BY,231967,Пацуи,Grodno,"",Svislotch,"","","",53.052,24.0569
BY,231970,Островский,Grodno,"",Svislotch,"","","",53.0619,24.2294
BY,231971,Великое Село,Grodno,"",Svislotch,"","","",52.993,24.6032
BY,231972,Вердомичи,Grodno,"",Svislotch,"","","",53.0279,24.2764
BY,231973,Горностаевичи,Grodno,"",Svislotch,"","","",52.9832,24.3943
BY,231975,Студеники,Grodno,"",Svislotch,"","","",52.9017,24.2856
BY,231980,Сокольники,Grodno,"",Svislotch,"","","",52.96,24.2511
BY,231982,Порозово,Grodno,"",Svislotch,"","","",52.9367,24.3656
BY,231983,Новый Двор,Grodno,"",Svislotch,"","","",52.9142,24.3984
BY,231985,Хоневичи,Grodno,"",Svislotch,"","","",52.8791,24.5525
BY,231986,Дашковичи,Grodno,"",Svislotch,"","","",52.9488,24.5363
BY,231987,Михалки,Grodno,"",Svislotch,"","","",52.9607,24.194
BY,231988,Корнадь,Grodno,"",Svislotch,"","","",52.8002,24.4911
BY,246000,Гомель,Gomel,"",Gomel,"","","",52.4345,30.9754
BY,247001,Ченки,Gomel,"",Gomel,"","","",52.3507,30.9775
BY,247002,Ченки 2,Gomel,"",Gomel,"","","",52.2956,31.0406
BY,247003,Терюха,Gomel,"",Gomel,"","","",52.2006,31.0056
BY,247004,Фестивальный,Gomel,"",Gomel,"","","",52.2956,31.0406
BY,247005,Терешковичи,Gomel,"",Gomel,"","","",52.2556,30.9483
BY,247006,Романовичи,Gomel,"",Gomel,"","","",52.4269,31.1237
BY,247007,Улуковье,Gomel,"",Gomel,"","","",52.2956,31.0406
BY,247008,Песочная Буда,Gomel,"",Gomel,"","","",52.2441,31.148
BY,247012,Поколюбичи,Gomel,"",Gomel,"","","",52.5035,31.0375
BY,247013,Лопатино,Gomel,"",Gomel,"","","",52.5439,30.985
BY,247014,Большевик,Gomel,"",Gomel,"","","",52.5629,30.8794
BY,247016,Еремино,Gomel,"",Gomel,"","","",52.5146,30.935
BY,247017,Черетянка,Gomel,"",Gomel,"","","",52.5648,30.9141
BY,247018,Роги,Gomel,"",Gomel,"","","",52.5441,30.7883
BY,247019,Новая Гута,Gomel,"",Gomel,"","","",52.72,30.8593
BY,247020,Мичуринское,Gomel,"",Gomel,"","","",52.5536,30.7349
BY,247021,Красное,Gomel,"",Gomel,"","","",52.7635,30.7853
BY,247022,Зябровка 2,Gomel,"",Gomel,"","","",52.5536,30.7349
BY,247023,Урицкое,Gomel,"",Gomel,"","","",52.4654,30.7976
BY,247024,Старая Белица,Gomel,"",Gomel,"","","",52.5064,30.7658
BY,247025,Азделино,Gomel,"",Gomel,"","","",52.5384,30.7443
BY,247026,Тереничи,Gomel,"",Gomel,"","","",52.5252,30.6734
BY,247027,Маковье,Gomel,"",Gomel,"","","",52.6182,30.8604
BY,247028,Телеши,Gomel,"",Gomel,"","","",52.493,30.6322
BY,247029,Житовля,Gomel,"",Gomel,"","","",52.5185,30.6199
BY,247030,Приборово,Gomel,"",Gomel,"","","",52.1656,30.6115
BY,247031,Долголесье,Gomel,"",Gomel,"","","",52.1656,30.6115
BY,247032,Михальки,Gomel,"",Gomel,"","","",52.2494,30.7844
BY,247033,Рудня - Маримонова,Gomel,"",Gomel,"","","",52.161,30.7108
BY,247034,Кореневка,Gomel,"",Gomel,"","","",51.9592,29.7129
BY,247035,Бобовичи,Gomel,"",Gomel,"","","",52.3389,30.9182
BY,247036,Старые Дятловичи,Gomel,"",Gomel,"","","",52.1656,30.6115
BY,247037,Шарпиловка,Gomel,"",Gomel,"","","",52.1195,30.9313
BY,247040,Климовка,Gomel,"",Gomel,"","","",52.291,31.0888
BY,247042,Зябровка 1,Gomel,"",Gomel,"","","",52.2879,31.0795
BY,247043,Грабовка,Gomel,"",Gomel,"","","",52.184,31.1413
BY,247044,Марковичи,Gomel,"",Gomel,"","","",52.1138,31.2024
BY,247045,Костюковка,Gomel,"",Gomel,"","","",52.5387,30.9173
BY,247046,Глубоцкое,Gomel,"",Gomel,"","","",52.2879,31.0795
BY,247047,Печищи,Gomel,"",Svetloghorsk,"","","",52.2879,31.0795
BY,247049,Цагельня,Gomel,"",Gomel,"","","",52.3121,31.0476
BY,247050,Добруш,Gomel,"",Dobrouch,"","","",52.4089,31.3237
BY,247051,Дубовый Лог,Gomel,"",Dobrouch,"","","",52.2978,31.4097
BY,247055,Красная Буда,Gomel,"",Dobrouch,"","","",52.1867,31.4957
BY,247060,Рассвет,Gomel,"",Dobrouch,"","","",52.3861,31.3076
BY,247061,Жгунская Буда,Gomel,"",Dobrouch,"","","",52.345,31.4426
BY,247062,Жгунь,Gomel,"",Dobrouch,"","","",52.3371,31.3199
BY,247063,Крупец,Gomel,"",Dobrouch,"","","",52.345,31.4426
BY,247064,Перерост,Gomel,"",Dobrouch,"","","",52.3031,31.4716
BY,247065,Огородная,Gomel,"",Dobrouch,"","","",52.345,31.4426
BY,247066,Хорошевка,Gomel,"",Dobrouch,"","","",52.3551,31.5979
BY,247067,Корма,Gomel,"",Dobrouch,"","","",52.3436,31.5159
BY,247068,Игновка,Gomel,"",Dobrouch,"","","",52.345,31.4426
BY,247070,Тереховка,Gomel,"",Dobrouch,"","","",52.2147,31.4426
BY,247071,Гордуны,Gomel,"",Dobrouch,"","","",52.2319,31.3241
BY,247072,Иваки,Gomel,"",Dobrouch,"","","",52.2661,31.3464
BY,247073,Носовичи,Gomel,"",Dobrouch,"","","",52.2792,31.2675
BY,247074,Нивки,Gomel,"",Dobrouch,"","","",52.1582,31.4099
BY,247075,Уть,Gomel,"",Dobrouch,"","","",52.2263,31.3823
BY,247078,Красный Партизан,Gomel,"",Dobrouch,"","","",52.2438,31.6749
BY,247080,Васильевка,Gomel,"",Dobrouch,"","","",52.2465,31.5088
BY,247081,Кузминичи,Gomel,"",Dobrouch,"","","",52.1886,31.574
BY,247083,Ленино,Gomel,"",Dobrouch,"","","",52.1827,31.6798
BY,247085,Круговец - Калинино,Gomel,"",Dobrouch,"","","",52.1886,31.574
BY,247086,Усохская Буда,Gomel,"",Dobrouch,"","","",52.1365,31.5333
BY,247087,Борщевка,Gomel,"",Dobrouch,"","","",52.1886,31.574
BY,247100,Лоев,Gomel,"",Loev,"","","",51.9458,30.7953
BY,247101,Переделка,Gomel,"",Oev,"","","",52.0412,30.7214
BY,247102,Страдубка,Gomel,"",Loev,"","","",52.1158,30.6875
BY,247103,Карповка,Gomel,"",Loev,"","","",52.031,30.4779
BY,247104,Малиновка,Gomel,"",Loev,"","","",52.0233,30.4572
BY,247105,Рудня - Бурицкая,Gomel,"",Loev,"","","",52.045,30.3506
BY,247106,Мохов,Gomel,"",Loev,"","","",51.9954,30.7438
BY,247107,Димамерки,Gomel,"",Loev,"","","",51.8501,30.4789
BY,247109,Колпень,Gomel,"",Loev,"","","",51.9423,30.6723
BY,247111,Крупейки,Gomel,"",Loev,"","","",51.9144,30.7255
BY,247112,Бывальки,Gomel,"",Loev,"","","",51.8462,30.6437
BY,247113,Деражичи,Gomel,"",Loev,"","","",51.7828,30.6243
BY,247114,Ручаевка,Gomel,"",Loev,"","","",51.8794,30.509
BY,247115,Борщевка,Gomel,"",Loev,"","","",51.9197,30.5975
BY,247116,Победитель,Gomel,"",Loev,"","","",52.0243,30.6737
BY,247117,Уборок,Gomel,"",Loev,"","","",52.0542,30.4998
BY,247118,Липняки,Gomel,"",Loev,"","","",52.0719,30.5586
BY,247119,Севки,Gomel,"",Loev,"","","",51.7843,30.545
BY,247121,Хальч - Совхоз,Gomel,"",Vetka,"","","",52.6044,31.0454
BY,247122,Радуга,Gomel,"",Vetka,"","","",52.5842,31.0895
BY,247123,Шерстин,Gomel,"",Vetka,"","","",52.6558,31.0606
BY,247124,Присино,Gomel,"",Vetka,"","","",52.6044,31.0454
BY,247125,Даниловичи,Gomel,"",Vetka,"","","",52.6379,30.9627
BY,247126,Пыхань,Gomel,"",Vetka,"","","",52.607,30.9305
BY,247127,Старое Село,Gomel,"",Vetka,"","","",52.526,31.1385
BY,247128,Новоселки,Gomel,"",Vetka,"","","",52.6152,31.0907
BY,247131,Ветка 1,Gomel,"",Vetka,"","","",52.9928,31.0724
BY,247133,Неглюбка,Gomel,"",Vetka,"","","",52.7638,31.5213
BY,247134,Яново,Gomel,"",Vetka,"","","",53.4193,30.2876
BY,247135,Малые Немки,Gomel,"",Vetka,"","","",52.9928,31.0724
BY,247136,Столбун,Gomel,"",Vetka,"","","",52.7953,31.4084
BY,247140,Светиловичи,Gomel,"",Vetka,"","","",52.7936,31.3209
BY,247142,Великие Немки,Gomel,"",Vetka,"","","",52.7936,31.3209
BY,247150,Чечерск,Gomel,"",Tchetchersk,"","","",52.9164,30.9179
BY,247151,Вознесенский,Gomel,"",Tchetchersk,"","","",52.9239,30.7719
BY,247154,Ровковичи,Gomel,"",Tchetchersk,"","","",52.8466,30.7736
BY,247155,Ботвиново,Gomel,"",Tchetchersk,"","","",52.949,30.6547
BY,247157,Мотневичи,Gomel,"",Tchetchersk,"","","",52.8945,30.7667
BY,247158,Меркуловичи,Gomel,"",Tchetchersk,"","","",52.9747,30.6051
BY,247159,Отор,Gomel,"",Tchetchersk,"","","",52.9623,30.9135
BY,247160,Залесье,Gomel,"",Tchetchersk,"","","",52.8935,30.988
BY,247162,Бабичи,Gomel,"",Tchetchersk,"","","",52.8842,31.1778
BY,247163,Нисимковичи,Gomel,"",Tchetchersk,"","","",52.9471,31.1675
BY,247164,Волосовичи,Gomel,"",Tchetchersk,"","","",52.9954,31.177
BY,247166,Полесье,Gomel,"",Tchetchersk,"","","",53.0764,31.2793
BY,247168,Сидоровичи,Gomel,"",Tchetchersk,"","","",53.0399,31.1472
BY,247169,Беляевка,Gomel,"",Tchetchersk,"","","",52.9624,31.018
BY,247170,Корма,Gomel,"",Korma,"","","",53.1301,30.8016
BY,247171,Каменка,Gomel,"",Korma,"","","",53.1851,30.6713
BY,247172,Литвиновичи,Gomel,"",Korma,"","","",53.1895,30.8677
BY,247174,Октябрево,Gomel,"",Korma,"","","",53.1682,30.7802
BY,247176,Волынцы,Gomel,"",Korma,"","","",53.1682,30.7802
BY,247179,Вощанка,Gomel,"",Korma,"","","",53.1682,30.7802
BY,247180,Барсуки,Gomel,"",Korma,"","","",53.1365,30.7086
BY,247181,Староград,Gomel,"",Korma,"","","",53.1194,30.6048
BY,247182,Хизов,Gomel,"",Korma,"","","",53.1006,30.6103
BY,247183,Боровая Буда,Gomel,"",Korma,"","","",53.0352,30.6287
BY,247184,Струкачев,Gomel,"",Korma,"","","",53.0308,30.7133
BY,247185,Дубовица,Gomel,"",Korma,"","","",52.993,30.7378
BY,247186,Лужок,Gomel,"",Korma,"","","",53.0179,30.799
BY,247187,Ворновка,Gomel,"",Korma,"","","",53.0256,30.8632
BY,247188,Коротьки,Gomel,"",Korma,"","","",53.09,30.776
BY,247189,Высокое,Gomel,"",Korma,"","","",52.9802,30.2724
BY,247201,Ректа,Gomel,"",Jlobin,"","","",52.9838,29.932
BY,247202,Белица,Gomel,"",Jlobin,"","","",52.9336,29.9641
BY,247203,Нивы,Gomel,"",Jlobin,"","","",52.807,29.9495
BY,247204,Проскурни,Gomel,"",Jlobin,"","","",52.8095,30.0863
BY,247210,Жлобин,Gomel,"",Jlobin,"","","",52.8926,30.024
BY,247211,Лебедевка,Gomel,"",Jlobin,"","","",52.9217,30.018
BY,247212,Совхоз Лукский,Gomel,"",Jlobin,"","","",52.8185,29.8885
BY,247213,Лукский,Gomel,"",Jlobin,"","","",52.8185,29.8885
BY,247214,Папоротное,Gomel,"",Jlobin,"","","",52.8185,29.8885
BY,247215,Доброгоща,Gomel,"",Jlobin,"","","",52.6965,29.8588
BY,247216,Мормаль,Gomel,"",Jlobin,"","","",52.7663,29.8909
BY,247217,Коротковичи,Gomel,"",Jlobin,"","","",52.7981,29.7912
BY,247219,Плесовичская Слободка,Gomel,"",Jlobin,"","","",52.8355,29.748
BY,247220,Солоное,Gomel,"",Jlobin,"","","",52.844,30.0136
BY,247221,Октябрь,Gomel,"",Jlobin,"","","",52.4991,29.9813
BY,247223,Стрешин,Gomel,"",Jlobin,"","","",52.7284,30.1046
BY,247224,Шихов,Gomel,"",Jlobin,"","","",52.6845,30.1656
BY,247225,Верхняя Олба,Gomel,"",Jlobin,"","","",52.6457,30.2029
BY,247226,Новые Марковичи,Gomel,"",Jlobin,"","","",52.6714,30.0664
BY,247227,Прибудок,Gomel,"",Jlobin,"","","",52.6226,30.0756
BY,247228,Кабановка,Gomel,"",Jlobin,"","","",52.6382,29.9868
BY,247229,Косаковка,Gomel,"",Jlobin,"","","",52.7089,30.0005
BY,247230,Малевичи,Gomel,"",Jlobin,"","","",52.9108,29.9151
BY,247232,Красный Берег 1,Gomel,"",Jlobin,"","","",52.8906,29.664
BY,247233,Радуша,Gomel,"",Jlobin,"","","",52.9316,29.6955
BY,247234,Степы,Gomel,"",Jlobin,"","","",52.9265,29.6256
BY,247235,Щедрин,Gomel,"",Jlobin,"","","",52.8894,29.5558
BY,247236,Красный Берег 2,Gomel,"",Jlobin,"","","",52.8906,29.664
BY,247237,Дворище,Gomel,"",Jlobin,"","","",52.8292,29.5521
BY,247238,Китин,Gomel,"",Jlobin,"","","",52.856,29.64
BY,247240,Хальч,Gomel,"",Jlobin,"","","",52.8533,30.1976
BY,247241,Скепня,Gomel,"",Jlobin,"","","",52.7555,30.2269
BY,247242,Пиревичи,Gomel,"",Jlobin,"","","",52.7882,30.3323
BY,247243,Солтановка,Gomel,"",Jlobin,"","","",52.8184,30.3363
BY,247244,Старая Рудня,Gomel,"",Jlobin,"","","",52.8372,30.2752
BY,247245,Кирово,Gomel,"",Jlobin,"","","",52.9104,30.3246
BY,247246,Бобовка,Gomel,"",Jlobin,"","","",52.9023,30.2141
BY,247247,Майское,Gomel,"",Jlobin,"","","",52.9668,30.1991
BY,247248,Антоновка,Gomel,"",Jlobin,"","","",52.9817,30.1476
BY,247249,Четверня,Gomel,"",Jlobin,"","","",52.8173,30.1674
BY,247250,Рогачев,Gomel,"",Roghatchev,"","","",53.0934,30.0495
BY,247251,Старое Село,Gomel,"",Roghatchev,"","","",52.526,31.1385
BY,247253,Кистени,Gomel,"",Roghatchev,"","","",53.1718,30.2531
BY,247254,Станьков,Gomel,"",Roghatchev,"","","",53.225,30.0639
BY,247256,Столпня,Gomel,"",Roghatchev,"","","",53.0338,30.3806
BY,247257,Юдичи,Gomel,"",Roghatchev,"","","",53.1526,30.398
BY,247260,Гадиловичи,Gomel,"",Roghatchev,"","","",53.0773,30.2731
BY,247261,Довск,Gomel,"",Roghatchev,"","","",53.1571,30.4601
BY,247262,Звонец,Gomel,"",Roghatchev,"","","",53.2321,30.4304
BY,247263,Шапчицы,Gomel,"",Roghatchev,"","","",53.2283,30.3542
BY,247264,Ильич,Gomel,"",Roghatchev,"","","",53.2614,30.4208
BY,247265,Хатовня,Gomel,"",Roghatchev,"","","",53.2843,30.532
BY,247266,Журавичи,Gomel,"",Roghatchev,"","","",53.2483,30.5432
BY,247268,Драгунск,Gomel,"",Roghatchev,"","","",53.2814,30.6207
BY,247269,Старая Алешня,Gomel,"",Roghatchev,"","","",53.2213,30.4543
BY,247270,Зборов,Gomel,"",Roghatchev,"","","",53.1027,30.1446
BY,247271,Серебрянка,Gomel,"",Roghatchev,"","","",53.0931,30.3953
BY,247272,Курганье,Gomel,"",Roghatchev,"","","",52.9217,30.6662
BY,247273,Новый Кривск,Gomel,"",Roghatchev,"","","",53.0768,30.5247
BY,247274,Красница,Gomel,"",Roghatchev,"","","",53.047,30.3739
BY,247275,Большие Стрелки,Gomel,"",Roghatchev,"","","",52.984,30.3794
BY,247276,Городец,Gomel,"",Roghatchev,"","","",52.973,30.3456
BY,247277,Белицк,Gomel,"",Roghatchev,"","","",52.9395,30.4122
BY,247278,Высокое,Gomel,"",Roghatchev,"","","",52.9802,30.2724
BY,247279,Турск,Gomel,"",Roghatchev,"","","",53.039,30.2164
BY,247280,Лучин,Gomel,"",Roghatchev,"","","",53.0133,30.0167
BY,247281,Заболотье,Gomel,"",Roghatchev,"","","",53.0426,29.9222
BY,247283,Поболово,Gomel,"",Roghatchev,"","","",53.0123,29.7802
BY,247284,Дворец,Gomel,"",Roghatchev,"","","",52.1754,30.6055
BY,247285,Кошара,Gomel,"",Roghatchev,"","","",53.0879,29.8359
BY,247286,Тихиничи,Gomel,"",Roghatchev,"","","",53.1508,29.8577
BY,247287,Крушиновка,Gomel,"",Roghatchev,"","","",53.2383,29.8266
BY,247288,Озераны,Gomel,"",Roghatchev,"","","",53.2412,29.9275
BY,247289,Заполье,Gomel,"",Roghatchev,"","","",53.1187,29.9589
BY,247290,Болотня,Gomel,"",Roghatchev,"","","",53.0459,30.0644
BY,247292,Остров,Gomel,"",Roghatchev,"","","",53.0139,29.7655
BY,247294,Рысков,Gomel,"",Roghatchev,"","","",53.0522,30.4805
BY,247295,Стреньки,Gomel,"",Roghatchev,"","","",53.0715,29.9472
BY,247300,Октябрьский,Gomel,"",Oktiabrski,"","","",52.644,28.8801
BY,247301,Гать,Gomel,"",Oktiabrski,"","","",52.6031,28.9644
BY,247302,Ломовичи,Gomel,"",Oktiabrski,"","","",52.5514,28.9536
BY,247303,Дербин,Gomel,"",Oktiabrski,"","","",52.5339,29.1575
BY,247304,Волосовичи,Gomel,"",Oktiabrski,"","","",52.5338,29.1192
BY,247305,Любань,Gomel,"",Oktiabrski,"","","",52.5991,29.1353
BY,247306,Гороховичи,Gomel,"",Oktiabrski,"","","",52.5814,29.0602
BY,247307,Новая Дуброва,Gomel,"",Oktiabrski,"","","",52.6748,28.886
BY,247308,Поперечье,Gomel,"",Oktiabrski,"","","",52.5814,29.0602
BY,247309,Заболотье,Gomel,"",Oktiabrski,"","","",52.5111,29.3851
BY,247310,Протасы,Gomel,"",Oktiabrski,"","","",52.7793,29.0813
BY,247311,Рассвет,Gomel,"",Oktiabrski,"","","",52.7793,29.174
BY,247312,Моисеевка,Gomel,"",Oktiabrski,"","","",52.6944,29.1303
BY,247313,Буда,Gomel,"",Oktiabrski,"","","",52.565,28.679
BY,247314,Хороицы,Gomel,"",Oktiabrski,"","","",52.5733,28.9122
BY,247315,Лясковичи,Gomel,"",Oktiabrski,"","","",52.1176,28.1551
BY,247316,Углы,Gomel,"",Oktiabrski,"","","",52.3818,29.1622
BY,247317,Шкава,Gomel,"",Oktiabrski,"","","",52.696,29.0032
BY,247320,Ратмировичи,Gomel,"",Oktiabrski,"","","",52.7951,28.9921
BY,247321,Червонная Слобода,Gomel,"",Oktiabrski,"","","",52.5494,28.5717
BY,247350,Буда - Кошелево,Gomel,"",Bouda-Kochelevo,"","","",52.7179,30.5701
BY,247352,Потаповка,Gomel,"",Bouda-Kochelevo,"","","",52.7434,30.4907
BY,247354,Буда - Люшевская,Gomel,"",Bouda-Kochelevo,"","","",52.7619,30.5367
BY,247356,Шарибовка,Gomel,"",Bouda-Kochelevo,"","","",52.7769,30.5358
BY,247357,Липиничи,Gomel,"",Bouda-Kochelevo,"","","",52.8096,30.5503
BY,247360,Рогинь,Gomel,"",Bouda-Kochelevo,"","","",52.8844,30.6275
BY,247361,Совхозное,Gomel,"",Bouda-Kochelevo,"","","",52.7902,30.4992
BY,247362,Николаевка,Gomel,"",Bouda-Kochelevo,"","","",52.7047,30.2445
BY,247366,Старая Буда,Gomel,"",Bouda-Kochelevo,"","","",52.6107,30.4381
BY,247367,Неговка,Gomel,"",Bouda-Kochelevo,"","","",52.8589,30.5133
BY,247368,Дербичи,Gomel,"",Bouda-Kochelevo,"","","",52.8924,30.6725
BY,247370,Кошелево,Gomel,"",Bouda-Kochelevo,"","","",52.7408,30.605
BY,247371,Бушевка,Gomel,"",Bouda-Kochelevo,"","","",52.6749,30.6213
BY,247372,Радеево,Gomel,"",Bouda-Kochelevo,"","","",52.6501,30.7282
BY,247373,Пенчин,Gomel,"",Bouda-Kochelevo,"","","",52.6422,30.6504
BY,247374,Уваровичи,Gomel,"",Bouda-Kochelevo,"","","",52.5972,30.7263
BY,247375,Гусевица,Gomel,"",Bouda-Kochelevo,"","","",52.5883,30.6751
BY,247376,Бацунь,Gomel,"",Bouda-Kochelevo,"","","",52.5831,30.5752
BY,247380,Калинино,Gomel,"",Bouda-Kochelevo,"","","",52.6359,30.5986
BY,247381,Уза,Gomel,"",Bouda-Kochelevo,"","","",52.6003,30.8205
BY,247382,Коммуран - Совхоз,Gomel,"",Bouda-Kochelevo,"","","",52.6847,30.6845
BY,247383,Октябрь,Gomel,"",Bouda-Kochelevo,"","","",52.6735,30.8184
BY,247384,Широкий,Gomel,"",Bouda-Kochelevo,"","","",53.0294,29.8925
BY,247386,Дуравичи,Gomel,"",Bouda-Kochelevo,"","","",52.7021,30.7144
BY,247388,Красное Знамя,Gomel,"",Bouda-Kochelevo,"","","",52.498,31.5477
BY,247389,Недойка,Gomel,"",Bouda-Kochelevo,"","","",52.6536,30.3996
BY,247390,Морозовичи,Gomel,"",Bouda-Kochelevo,"","","",52.6707,30.542
BY,247392,Кривск,Gomel,"",Bouda-Kochelevo,"","","",52.5867,30.5133
BY,247393,Ивольск,Gomel,"",Bouda-Kochelevo,"","","",52.5449,30.541
BY,247394,Чеботовичи,Gomel,"",Bouda-Kochelevo,"","","",52.5652,30.4397
BY,247396,Смычек,Gomel,"",Bouda-Kochelevo,"","","",52.5825,30.3148
BY,247398,Губичи,Gomel,"",Bouda-Kochelevo,"","","",52.6886,30.3063
BY,247399,Глазовка,Gomel,"",Bouda-Kochelevo,"","","",52.6351,30.5251
BY,247400,Светлогорск,Gomel,"",Svetloghorsk,"","","",52.6329,29.7389
BY,247401,Боровики,Gomel,"",Svetloghorsk,"","","",52.5486,29.8521
BY,247402,Хутор,Gomel,"",Svetloghorsk,"","","",52.4989,29.7455
BY,247403,Осташковичи,Gomel,"",Svetloghorsk,"","","",52.443,29.6077
BY,247405,Сосновый Бор,Gomel,"",Svetloghorsk,"","","",52.5194,29.5988
BY,247406,Давыдовка,Gomel,"",Svetloghorsk,"","","",52.5378,29.5307
BY,247408,Якимова Слобода,Gomel,"",Svetloghorsk,"","","",52.5198,29.6435
BY,247409,Корени,Gomel,"",Svetloghorsk,"","","",52.4582,29.431
BY,247410,Чирковичи,Gomel,"",Svetloghorsk,"","","",52.66,29.644
BY,247412,Прудок,Gomel,"",Svetloghorsk,"","","",52.7362,29.4935
BY,247413,Паричи,Gomel,"",Svetloghorsk,"","","",52.8042,29.4176
BY,247414,Здудичи,Gomel,"",Svetloghorsk,"","","",52.7314,29.5839
BY,247415,Дуброва,Gomel,"",Svetloghorsk,"","","",52.6302,29.3842
BY,247416,Полесье,Gomel,"",Svetloghorsk,"","","",52.5746,29.3666
BY,247417,Михайловка,Gomel,"",Svetloghorsk,"","","",52.8568,29.3552
BY,247418,Чкалово,Gomel,"",Svetloghorsk,"","","",52.4281,29.8173
BY,247420,Козловка,Gomel,"",Svetloghorsk,"","","",52.7913,29.4083
BY,247421,Николаевка,Gomel,"",Svetloghorsk,"","","",52.7047,30.2445
BY,247422,Вежны,Gomel,"",Svetloghorsk,"","","",52.7917,29.4626
BY,247423,Моисеевка,Gomel,"",Svetloghorsk,"","","",52.6944,29.1303
BY,247424,Ковчицы,Gomel,"",Svetloghorsk,"","","",52.8659,29.1977
BY,247425,Василевка,Gomel,"",Svetloghorsk,"","","",52.9021,29.3322
BY,247500,Речица,Gomel,"",Retchitsa,"","","",52.3617,30.3916
BY,247501,Заспа,Gomel,"",Retchitsa,"","","",52.2591,30.4982
BY,247502,Свиридовичи,Gomel,"",Retchitsa,"","","",52.2127,30.4706
BY,247503,Артуки,Gomel,"",Retchitsa,"","","",52.1501,30.5312
BY,247504,Прокисель,Gomel,"",Retchitsa,"","","",52.1219,30.5602
BY,247505,Холмечь,Gomel,"",Retchitsa,"","","",52.1519,30.6262
BY,247506,Александровка,Gomel,"",Retchitsa,"","","",52.3157,30.5843
BY,247507,Заходы,Gomel,"",Retchitsa,"","","",52.4418,29.9031
BY,247509,Леваши,Gomel,"",Retchitsa,"","","",52.2174,30.5493
BY,247510,Жмуровка,Gomel,"",Retchitsa,"","","",52.3348,30.4579
BY,247511,Борщевка,Gomel,"",Retchitsa,"","","",52.319,30.4993
BY,247512,Якимовка,Gomel,"",Retchitsa,"","","",52.3855,30.6247
BY,247514,Белое Болото,Gomel,"",Retchitsa,"","","",52.319,30.4993
BY,247515,Копань,Gomel,"",Retchitsa,"","","",52.365,30.5154
BY,247516,Бронное,Gomel,"",Retchitsa,"","","",52.3176,30.4797
BY,247517,Яновка,Gomel,"",Retchitsa,"","","",52.1921,30.419
BY,247519,Озерница 1,Gomel,"",Retchitsa,"","","",52.319,30.4993
BY,247520,Озерница,Gomel,"",Retchitsa,"","","",52.5228,29.7433
BY,247521,Черное,Gomel,"",Retchitsa,"","","",52.5228,29.7433
BY,247522,Глыбов,Gomel,"",Retchitsa,"","","",52.4898,30.2734
BY,247524,Комсомольск,Gomel,"",Retchitsa,"","","",52.5183,30.0931
BY,247525,Сведское,Gomel,"",Retchitsa,"","","",52.543,30.0228
BY,247526,Заречье,Gomel,"",Retchitsa,"","","",52.5399,28.5838
BY,247530,Солтаново,Gomel,"",Retchitsa,"","","",52.3524,30.2367
BY,247533,Лиски,Gomel,"",Retchitsa,"","","",52.3112,30.1011
BY,247534,Бабичи - Пункт Почтовой Связи,Gomel,"",Retchitsa,"","","",52.2895,30.002
BY,247534,Бабичи,Gomel,"",Retchitsa,"","","",52.2895,30.002
BY,247535,Красная Дуброва,Gomel,"",Retchitsa,"","","",52.2762,30.0826
BY,247537,Васильков,Gomel,"",Retchitsa,"","","",52.3073,30.1056
BY,247540,Пересвятое,Gomel,"",Retchitsa,"","","",52.232,30.1094
BY,247542,Короватичи,Gomel,"",Retchitsa,"","","",52.232,30.1094
BY,247550,Василевичи,Gomel,"",Retchitsa,"","","",52.2512,29.8288
BY,247551,Ведрич,Gomel,"",Retchitsa,"","","",52.2833,29.8663
BY,247552,Защебье,Gomel,"",Retchitsa,"","","",52.2672,29.8475
BY,247561,Ровенская Слобода,Gomel,"",Retchitsa,"","","",52.2278,30.3147
BY,247562,Переволока,Gomel,"",Retchitsa,"","","",52.2085,30.2103
BY,247564,Новый Барсук,Gomel,"",Retchitsa,"","","",52.1788,30.3058
BY,247565,Вышемир,Gomel,"",Retchitsa,"","","",52.1,30.3925
BY,247600,Хойники,Gomel,"",Khoiniki,"","","",51.8911,29.9552
BY,247601,Хойники - Вокзал,Gomel,"",Khoiniki,"","","",52.0619,29.8678
BY,247602,Великий Бор,Gomel,"",Khoiniki,"","","",52.6212,29.4577
BY,247605,Козелужье,Gomel,"",Khoiniki,"","","",52.0619,29.8678
BY,247606,Велетин,Gomel,"",Khoiniki,"","","",51.876,30.0951
BY,247607,Глинище,Gomel,"",Khoiniki,"","","",52.0619,29.8678
BY,247608,Храпков,Gomel,"",Khoiniki,"","","",51.8733,29.846
BY,247609,Партизанская,Gomel,"",Khoiniki,"","","",52.0477,29.9849
BY,247610,Судково,Gomel,"",Khoiniki,"","","",51.8807,29.9036
BY,247611,Борисовщина,Gomel,"",Khoiniki,"","","",51.8725,29.9366
BY,247612,Слабожанка,Gomel,"",Khoiniki,"","","",51.8725,29.9366
BY,247614,Загалье,Gomel,"",Khoiniki,"","","",51.9073,29.8084
BY,247616,Поселичи,Gomel,"",Khoiniki,"","","",51.8679,30.0576
BY,247617,Стреличево,Gomel,"",Khoiniki,"","","",51.8342,29.9769
BY,247623,Хойники 1,Gomel,"",Khoiniki,"","","",51.7929,30.2099
BY,247624,Хойники 2,Gomel,"",Khoiniki,"","","",51.7929,30.2099
BY,247628,Малишев,Gomel,"",Khoiniki,"","","",51.7929,30.2099
BY,247630,Брагин,Gomel,"",Braghin,"","","",51.787,30.2677
BY,247633,Бурки,Gomel,"",Braghin,"","","",51.8107,30.1834
BY,247635,Микуличи,Gomel,"",Braghin,"","","",51.8494,30.1685
BY,247637,Углы,Gomel,"",Braghin,"","","",51.8643,30.3004
BY,247638,Рудня - Журавлева,Gomel,"",Braghin,"","","",51.9219,30.3206
BY,247639,Дублин,Gomel,"",Braghin,"","","",51.735,30.328
BY,247640,Малейки,Gomel,"",Braghin,"","","",51.8008,30.324
BY,247641,Кривча,Gomel,"",Braghin,"","","",51.7405,30.4308
BY,247642,Моложин,Gomel,"",Braghin,"","","",51.7428,30.5095
BY,247643,Чемерисы,Gomel,"",Braghin,"","","",51.7037,30.4509
BY,247644,Храковичи,Gomel,"",Braghin,"","","",51.6667,30.4333
BY,247647,Грушное,Gomel,"",Braghin,"","","",51.6199,30.3753
BY,247650,Комарин,Gomel,"",Braghin,"","","",51.4387,30.569
BY,247651,Кирово,Gomel,"",Braghin,"","","",51.3942,30.5863
BY,247652,Верхние Жары,Gomel,"",Braghin,"","","",51.3892,30.5316
BY,247653,Гдень,Gomel,"",Braghin,"","","",51.3346,30.4395
BY,247660,Новая Иолча,Gomel,"",Braghin,"","","",51.4913,30.5315
BY,247661,Красное,Gomel,"",Braghin,"","","",51.5009,30.5013
BY,247662,Асаревичи,Gomel,"",Braghin,"","","",51.6113,30.4946
BY,247699,Мироненки,Gomel,"",Kalinkovitchi,"","","",52.3885,29.5771
BY,247700,Хомичи 2,Gomel,"",Kalinkovitchi,"","","",52.2444,29.4283
BY,247701,Дудичи,Gomel,"",Kalinkovitchi,"","","",52.1844,29.3525
BY,247702,Буда,Gomel,"",Kalinkovitchi,"","","",52.181,29.4174
BY,247703,Бобровичи,Gomel,"",Kalinkovitchi,"","","",52.2935,29.3684
BY,247705,Горочичи,Gomel,"",Kalinkovitchi,"","","",52.2596,29.4329
BY,247706,Носовичи,Gomel,"",Kalinkovitchi,"","","",52.2836,29.5797
BY,247707,Зеленочи,Gomel,"",Kalinkovitchi,"","","",52.2856,29.486
BY,247708,Шалыпы,Gomel,"",Kalinkovitchi,"","","",52.2233,29.3611
BY,247710,Калинковичи,Gomel,"",Kalinkovitchi,"","","",52.1323,29.3257
BY,247711,Воротын,Moghilev,"",Bobrouisk,"","","",52.2488,29.6384
BY,247712,Нахов,Gomel,"",Kalinkovitchi,"","","",52.2333,29.7167
BY,247713,Замостье,Gomel,"",Kalinkovitchi,"","","",52.2522,29.625
BY,247714,Новинки,Gomel,"",Kalinkovitchi,"","","",52.2896,29.7734
BY,247715,Золотуха,Gomel,"",Kalinkovitchi,"","","",52.3254,29.7749
BY,247716,Луки,Gomel,"",Kalinkovitchi,"","","",52.3569,29.7502
BY,247718,Александровка,Gomel,"",Kalinkovitchi,"","","",52.1521,29.5031
BY,247719,Малые Автюки,Gomel,"",Kalinkovitchi,"","","",52.2488,29.6384
BY,247720,Гулевичи,Gomel,"",Kalinkovitchi,"","","",52.0816,29.3796
BY,247721,Прудок,Gomel,"",Kalinkovitchi,"","","",52.0565,29.1123
BY,247722,Юровичи,Gomel,"",Kalinkovitchi,"","","",52.0393,29.4123
BY,247723,Березовка,Gomel,"",Kalinkovitchi,"","","",51.9512,29.1627
BY,247724,Огородники,Gomel,"",Kalinkovitchi,"","","",51.9576,29.6303
BY,247725,Хобное,Gomel,"",Kalinkovitchi,"","","",52.0807,29.7533
BY,247726,Великие Автюки,Gomel,"",Kalinkovitchi,"","","",52.0393,29.4123
BY,247727,Сирод,Gomel,"",Kalinkovitchi,"","","",52.1083,29.4353
BY,247730,Антоновка,Gomel,"",Kalinkovitchi,"","","",52.1644,29.2838
BY,247731,Шиичи,Gomel,"",Kalinkovitchi,"","","",52.2584,29.2275
BY,247732,Капличи,Gomel,"",Kalinkovitchi,"","","",52.3313,29.141
BY,247733,Березняки,Gomel,"",Kalinkovitchi,"","","",52.1872,28.3805
BY,247734,Савичи,Gomel,"",Kalinkovitchi,"","","",52.4202,29.0503
BY,247735,Якимовичи,Gomel,"",Kalinkovitchi,"","","",52.25,29.0858
BY,247736,Михновичи,Gomel,"",Kalinkovitchi,"","","",52.1616,29.0244
BY,247737,Рудня - Горбочивская,Gomel,"",Kalinkovitchi,"","","",52.2612,29.0854
BY,247738,Козловичи,Gomel,"",Kalinkovitchi,"","","",52.3811,29.348
BY,247739,Горбовичи,Gomel,"",Kalinkovitchi,"","","",52.1967,29.2274
BY,247740,Новоселки,Gomel,"",Kalinkovitchi,"","","",52.3609,29.2372
BY,247741,Крюковичи,Gomel,"",Kalinkovitchi,"","","",52.3837,29.3832
BY,247742,Озаричи,Gomel,"",Kalinkovitchi,"","","",52.4648,29.2643
BY,247743,Лесец,Gomel,"",Kalinkovitchi,"","","",52.3837,29.3832
BY,247744,Хомичи 1,Gomel,"",Kalinkovitchi,"","","",52.3837,29.3832
BY,247745,Казанск,Gomel,"",Kalinkovitchi,"","","",52.4063,29.3753
BY,247746,Кощичи,Gomel,"",Kalinkovitchi,"","","",52.3837,29.3832
BY,247747,Домановичи,Gomel,"",Kalinkovitchi,"","","",52.3461,29.4016
BY,247748,Холодники,Gomel,"",Kalinkovitchi,"","","",52.3655,29.4533
BY,247749,Липов,Gomel,"",Kalinkovitchi,"","","",52.3586,29.5675
BY,247750,Бобренята,Gomel,"",Mozyr,"","","",52.0373,28.6997
BY,247752,Моисеевка,Gomel,"",Mozyr,"","","",52.0711,29.0068
BY,247753,Барбаров,Gomel,"",Mozyr,"","","",51.9037,29.4774
BY,247754,Мельшковичи,Gomel,"",Mozyr,"","","",52.0373,28.6997
BY,247755,Рудня,Gomel,"",Mozyr,"","","",52.1821,27.9503
BY,247756,Творичевка,Gomel,"",Mozyr,"","","",52.0373,28.6997
BY,247757,Сосновый,Gomel,"",Mozyr,"","","",52.195,27.8491
BY,247758,Каменка,Gomel,"",Mozyr,"","","",51.9907,29.1139
BY,247759,Махновичи,Gomel,"",Mozyr,"","","",51.8809,28.8004
BY,247760,Мозырь,Gomel,"",Mozyr,"","","",52.0495,29.2456
BY,247761,Скрыгалов,Gomel,"",Mozyr,"","","",52.1014,28.8213
BY,247762,Слобода,Gomel,"",Mozyr,"","","",52.0429,28.9855
BY,247763,Белая,Gomel,"",Mozyr,"","","",52.073,28.907
BY,247764,Осовец,Gomel,"",Mozyr,"","","",52.0508,28.6964
BY,247765,Глиница,Gomel,"",Mozyr,"","","",52.0536,28.9581
BY,247766,Романовка,Gomel,"",Mozyr,"","","",52.0009,28.9385
BY,247767,Козенки 1,Gomel,"",Mozyr,"","","",52.0536,28.9581
BY,247768,Прудок,Gomel,"",Mozyr,"","","",52.0565,29.1123
BY,247769,Большие Зимовичи,Gomel,"",Mozyr,"","","",52.0536,28.9581
BY,247781,Криничный,Gomel,"",Mozyr,"","","",52.1863,29.2274
BY,247800,Наровля,Gomel,"",Narovlia,"","","",51.8537,28.951
BY,247804,Александровка,Gomel,"",Narovlia,"","","",51.8537,28.951
BY,247810,Вербовичи,Gomel,"",Narovlia,"","","",51.7159,29.5094
BY,247812,Киров,Gomel,"",Narovlia,"","","",51.503,29.4267
BY,247813,Красновка,Gomel,"",Narovlia,"","","",51.454,29.3534
BY,247814,Дзержинск,Gomel,"",Narovlia,"","","",51.4979,29.3456
BY,247815,Завойть,Gomel,"",Narovlia,"","","",51.7109,29.2733
BY,247816,Головчицы,Gomel,"",Narovlia,"","","",52.4755,28.5836
BY,247817,Буда - Головчицкая,Gomel,"",Narovlia,"","","",51.7109,29.2733
BY,247818,Демидов,Gomel,"",Narovlia,"","","",51.6571,29.2693
BY,247819,Грушевка,Gomel,"",Narovlia,"","","",51.6729,29.4248
BY,247820,Ельск,Gomel,"",Elsk,"","","",51.8477,29.1406
BY,247821,Добринь,Gomel,"",Elsk,"","","",51.7669,29.2034
BY,247822,Роза Люксенбург,Gomel,"",Elsk,"","","",51.7294,28.9806
BY,247823,Словечно,Gomel,"",Elsk,"","","",51.6329,29.0659
BY,247824,Скородное,Gomel,"",Elsk,"","","",51.7294,28.9806
BY,247825,Засинцы,Gomel,"",Elsk,"","","",51.5497,28.7383
BY,247826,Валавск,Gomel,"",Elsk,"","","",51.6738,28.7657
BY,247827,Заширье,Gomel,"",Elsk,"","","",51.7294,28.9806
BY,247828,Млынок,Gomel,"",Elsk,"","","",51.9055,28.9698
BY,247830,Санюки,Gomel,"",Elsk,"","","",51.8443,29.251
BY,247831,Красный Пильщик,Gomel,"",Elsk,"","","",52.0495,28.9384
BY,247832,Ремезы,Gomel,"",Elsk,"","","",51.8225,28.9625
BY,247833,Дуброва,Gomel,"",Elsk,"","","",52.4426,28.9971
BY,247834,Старое Высокое,Gomel,"",Elsk,"","","",52.0495,28.9384
BY,247835,Кочище,Gomel,"",Elsk,"","","",52.0495,28.9384
BY,247836,Богутичи,Gomel,"",Elsk,"","","",51.7544,29.1071
BY,247837,Подгалье,Gomel,"",Elsk,"","","",52.5987,28.2736
BY,247838,Движки,Gomel,"",Elsk,"","","",51.8344,29.0394
BY,247840,Лельчицы,Gomel,"",Leltchitsy,"","","",51.6599,28.0871
BY,247842,Стодоличи,Gomel,"",Leltchitsy,"","","",51.7279,28.4943
BY,247843,Гребени,Gomel,"",Leltchitsy,"","","",51.6656,28.4167
BY,247845,Марковское,Gomel,"",Leltchitsy,"","","",51.6599,28.0871
BY,247846,Боровое,Gomel,"",Leltchitsy,"","","",51.6599,28.0871
BY,247847,Милошевичи,Gomel,"",Leltchitsy,"","","",51.6565,27.9349
BY,247848,Приболовичи,Gomel,"",Leltchitsy,"","","",51.6796,27.8154
BY,247849,Глушкевичи,Gomel,"",Leltchitsy,"","","",51.5697,27.7744
BY,247850,Дуброва,Gomel,"",Leltchitsy,"","","",51.7832,28.2152
BY,247853,Симоничи,Gomel,"",Leltchitsy,"","","",51.8801,28.0815
BY,247854,Слобода,Gomel,"",Leltchitsy,"","","",51.8716,27.9404
BY,247855,Тонеж,Gomel,"",Leltchitsy,"","","",51.8265,27.7924
BY,247856,Букча,Gomel,"",Leltchitsy,"","","",51.7543,27.6738
BY,247857,Дзержинск,Gomel,"",Leltchitsy,"","","",51.6712,27.5459
BY,247860,Липляны,Gomel,"",Leltchitsy,"","","",51.8115,28.3757
BY,247862,Буйновичи,Gomel,"",Leltchitsy,"","","",51.9017,28.4656
BY,247863,Синицкое Поле,Gomel,"",Leltchitsy,"","","",51.9017,28.4656
BY,247866,Острожанка,Gomel,"",Leltchitsy,"","","",51.9919,28.5555
BY,247868,Ударное,Gomel,"",Leltchitsy,"","","",51.9017,28.4656
BY,247900,Мышанка,Gomel,"",Petrikov,"","","",52.1846,28.9562
BY,247901,Теребово,Gomel,"",Petrikov,"","","",52.2518,28.9527
BY,247902,Рог,Gomel,"",Petrikov,"","","",52.2372,28.7225
BY,247903,Белановичи,Gomel,"",Petrikov,"","","",52.1405,28.5729
BY,247904,Хустное,Gomel,"",Petrikov,"","","",52.2035,28.8011
BY,247910,Птичь,Gomel,"",Petrikov,"","","",52.1827,28.8125
BY,247919,Колки,Gomel,"",Petrikov,"","","",52.4196,28.9593
BY,247920,Копаткевичи,Gomel,"",Petrikov,"","","",52.3185,28.8217
BY,247922,Челющевичи,Gomel,"",Petrikov,"","","",52.4123,28.6736
BY,247923,Залесье,Gomel,"",Petrikov,"","","",52.3486,28.6656
BY,247924,Новоселки,Gomel,"",Petrikov,"","","",52.4038,28.5537
BY,247926,Комаровичи,Gomel,"",Petrikov,"","","",52.4639,28.4618
BY,247927,Новые Головчицы,Gomel,"",Petrikov,"","","",52.4123,28.6736
BY,247928,Кошевичи,Gomel,"",Petrikov,"","","",52.489,28.7329
BY,247929,Лучицы,Gomel,"",Petrikov,"","","",52.4497,28.8059
BY,247930,Муляровка,Gomel,"",Petrikov,"","","",52.2954,28.5595
BY,247931,Куритичи,Gomel,"",Petrikov,"","","",52.2796,28.6123
BY,247932,Бабуничи,Gomel,"",Petrikov,"","","",52.2756,28.464
BY,247933,Мехедовичи,Gomel,"",Petrikov,"","","",52.3309,28.3791
BY,247934,Гробов,Gomel,"",Petrikov,"","","",52.2954,28.5595
BY,247935,Велавск,Gomel,"",Petrikov,"","","",52.1011,28.6195
BY,247937,Ивашковичи,Gomel,"",Petrikov,"","","",52.2739,28.796
BY,247938,Фастовичи,Gomel,"",Petrikov,"","","",52.5114,28.4861
BY,247940,Петриков,Gomel,"",Petrikov,"","","",52.1289,28.4921
BY,247941,Конковичи,Gomel,"",Petrikov,"","","",52.1603,28.704
BY,247942,Копцевичи 1,Gomel,"",Petrikov,"","","",52.1449,28.3498
BY,247943,Макаричи,Gomel,"",Petrikov,"","","",52.1058,28.4214
BY,247944,Вышелов,Gomel,"",Petrikov,"","","",52.0918,28.327
BY,247945,Снядин,Gomel,"",Petrikov,"","","",52.0668,28.3241
BY,247946,Лясковичи,Gomel,"",Petrikov,"","","",52.1176,28.1551
BY,247947,Бринев,Gomel,"",Petrikov,"","","",52.1888,28.1826
BY,247948,Селютичи,Gomel,"",Petrikov,"","","",52.2994,28.1919
BY,247949,Голубица,Gomel,"",Petrikov,"","","",52.1449,28.3498
BY,247950,Копцевичи,Gomel,"",Petrikov,"","","",52.2454,28.289
BY,247960,Житковичи,Gomel,"",Jitkovitchi,"","","",52.2168,27.8561
BY,247961,Гребеневский,Gomel,"",Jitkovitchi,"","","",52.1821,27.9503
BY,247961,Рудня,Gomel,"",Jitkovitchi,"","","",52.1821,27.9503
BY,247962,Белев,Gomel,"",Jitkovitchi,"","","",52.2972,28.0298
BY,247963,Морохорово,Gomel,"",Jitkovitchi,"","","",52.3115,27.9975
BY,247964,Пуховичи,Gomel,"",Jitkovitchi,"","","",52.373,27.9702
BY,247965,Ветчин,Gomel,"",Jitkovitchi,"","","",52.4465,28.1629
BY,247966,Дяковичи,Gomel,"",Jitkovitchi,"","","",52.449,28.0274
BY,247967,Дуброва,Gomel,"",Jitkovitchi,"","","",52.3474,28.0308
BY,247968,Березняки,Gomel,"",Jitkovitchi,"","","",52.1872,28.3805
BY,247969,Семенча,Gomel,"",Jitkovitchi,"","","",52.3459,27.8768
BY,247970,Люденевичи,Gomel,"",Jitkovitchi,"","","",52.2096,27.6982
BY,247971,Бронислав,Gomel,"",Jitkovitchi,"","","",52.2101,27.5916
BY,247972,Гряда,Gomel,"",Jitkovitchi,"","","",52.3368,27.5406
BY,247973,Юркевичи,Gomel,"",Jitkovitchi,"","","",52.3006,27.6019
BY,247974,Ленино,Gomel,"",Jitkovitchi,"","","",52.3402,27.4878
BY,247976,Милевичи,Gomel,"",Jitkovitchi,"","","",52.4656,27.6018
BY,247977,Залютичи,Gomel,"",Jitkovitchi,"","","",52.4049,27.5372
BY,247978,Гричиновичи,Gomel,"",Jitkovitchi,"","","",52.3881,27.3625
BY,247979,Полостевичи,Gomel,"",Jitkovitchi,"","","",52.375,27.4438
BY,247980,Туров,Gomel,"",Jitkovitchi,"","","",52.0683,27.735
BY,247982,Кольно,Gomel,"",Jitkovitchi,"","","",52.13,27.9066
BY,247983,Запесочье,Gomel,"",Jitkovitchi,"","","",52.1383,27.7018
BY,247984,Вересница,Gomel,"",Jitkovitchi,"","","",52.0852,27.6432
BY,247985,Хильчицы,Gomel,"",Jitkovitchi,"","","",52.1383,27.7018
BY,247986,Рычев,Gomel,"",Jitkovitchi,"","","",52.0132,27.6982
BY,247987,Малый Малышев,Gomel,"",Jitkovitchi,"","","",52.1383,27.7018
BY,247988,Червоное,Gomel,"",Jitkovitchi,"","","",52.1383,27.7018
BY,247989,Иовичи,Gomel,"",Jitkovitchi,"","","",52.3946,27.5261
BY,247990,Семурадцы,Gomel,"",Jitkovitchi,"","","",52.0354,27.7959
BY,247991,Озераны,Gomel,"",Jitkovitchi,"","","",52.037,27.8529
BY,247992,Погост,Gomel,"",Jitkovitchi,"","","",52.0544,27.8635
BY,247993,Хвоенск,Gomel,"",Jitkovitchi,"","","",52.0501,27.931
BY,247994,Переров,Gomel,"",Jitkovitchi,"","","",52.0614,28.0048
BY,247995,Хлупин,Gomel,"",Jitkovitchi,"","","",52.0496,28.1319
