country_code,zipcode,place,state,state_code,province,province_code,community,community_code,latitude,longitude
PH,0400,International Correspondence School,"","","","","","",14.575,121.0609
PH,0401,Asian Development Bank,"","","","","","",14.5876,121.0596
PH,0410,Radio Bible Class,"","","","","","",14.6014,121.0365
PH,0420,Bible School on the Air,"","","","","","",14.6033,121.0448
PH,0550,Febias College of Bible,"","","","","","",14.6879,120.9951
PH,0560,Far East Broadcasting Corporation,"","","","","","",14.6894,120.98
PH,0800,Social Security System,"","","","","","",14.6402,121.0474
PH,0801,Camp Crame,"","","","","","",14.6094,121.0533
PH,0802,Camp Aguinaldo,"","","","","","",14.6058,121.0621
PH,0810,Araneta Center,"","","","","","",14.6193,121.0537
PH,0820,Bureau of Internal Revenue,"","","","","","",14.6427,121.043
PH,0830,National Irrigation Administration,"","","","","","",14.6385,121.0428
PH,0840,V. Luna Hospital,"","","","","","",14.6351,121.0519
PH,0850,Philippine Heart Center,"","","","","","",14.6441,121.0484
PH,0860,Quezon City Hall,"","","","","","",14.6466,121.0509
PH,0870,Veterans Hospital,"","","","","","",14.6567,121.04
PH,0880,Commission on Audit,"","","","","","",14.6897,121.0884
PH,0900,Manila Bulletin,"","","","","","",13.2947,123.7933
PH,0901,Adventist University of the Philippines,"","","","","","",13.2947,123.7933
PH,0902,Far East Broadcasting Corporation,"","","","","","",13.2947,123.7933
PH,0903,Manila Hilton,"","","","","","",13.2947,123.7933
PH,0904,Midland Hotel,"","","","","","",13.2947,123.7933
PH,0905,Bacacay,"","","","","","",13.2947,123.7933
PH,0905,The Philippine Star,"","","","","","",13.2947,123.7933
PH,0906,Manila Medical Center,"","","","","","",13.2947,123.7933
PH,0907,San Miguel Corporation,"","","","","","",13.2947,123.7933
PH,0908,Pan-Filipino Shipping,"","","","","","",13.2947,123.7933
PH,0909,Summer Institute of Linguistics,"","","","","","",13.2947,123.7933
PH,0910,Department of Labor and Employment,"","","","","","",13.2947,123.7933
PH,0911,National Statistics Office,"","","","","","",13.2947,123.7933
PH,0912,Bureau of Plant Industry,"","","","","","",13.2947,123.7933
PH,0913,Manila Hotel,"","","","","","",13.2947,123.7933
PH,0914,Philippine Refining Company,"","","","","","",13.2947,123.7933
PH,0915,International Correspondence Institute,"","","","","","",13.2947,123.7933
PH,0916,Radio Veritas,"","","","","","",13.2947,123.7933
PH,0917,Ateneo de Manila University,"","","","","","",13.2947,123.7933
PH,0918,Fil-Japan Shipping Company,"","","","","","",13.2947,123.7933
PH,0919,Manila Police District,"","","","","","",13.2947,123.7933
PH,0920,Sunbursts Publications,"","","","","","",13.2947,123.7933
PH,0921,Philippine Plaza Hotel,"","","","","","",13.2947,123.7933
PH,0922,De La Salle University,"","","","","","",13.2947,123.7933
PH,0923,Don Stewart Evangelistic Association,"","","","","","",13.2947,123.7933
PH,0924,World Map,"","","","","","",13.2947,123.7933
PH,0925,Chinabank,"","","","","","",13.2947,123.7933
PH,0926,Caltex,"","","","","","",13.2947,123.7933
PH,0927,Philippine Veterans Affairs Office,"","","","","","",13.2947,123.7933
PH,0928,Philippine Campus Crusade,"","","","","","",13.2947,123.7933
PH,0929,Not used,"","","","","","",13.2947,123.7933
PH,0930,United States Embassy,"","","","","","",13.2947,123.7933
PH,0940,Philippine National Bank,"","","","","","",13.2947,123.7933
PH,0950,Manila Midtown Hotel,"","","","","","",13.2947,123.7933
PH,0960,International Rice Research Institute,"","","","","","",13.2947,123.7933
PH,0970,Department of Justice,"","","","","","",13.2947,123.7933
PH,0980,Asian Development Bank,"","","","","","",13.2947,123.7933
PH,0990,Philamlife,"","","","","","",13.2947,123.7933
PH,1000,Manila Central Post Office,"","","","","","",14.2335,121.3623
PH,1001,Quiapo,"","","","","","",12.5667,121.4167
PH,1002,Intramuros,"","","","","","",14.2335,121.3623
PH,1003,Santa Cruz,"","","","","","",14.2786,121.4156
PH,1004,Malate,"","","","","","",14.5667,120.9833
PH,1005,San Miguel,"","","","","","",14.2335,121.3623
PH,1006,Binondo,"","","","","","",14.6,120.9667
PH,1007,Paco,"","","","","","",13.9703,122.64
PH,1008,Sampaloc,"","","","","","",14.5578,121.3461
PH,1009,Santa Ana,"","","","","","",15.0944,120.7678
PH,1010,San Nicolas,"","","","","","",18.1725,120.5958
PH,1011,Pandacan,"","","","","","",10.9531,123.1317
PH,1012,Tondo,"","","","","","",15.1167,120.0667
PH,1013,Tondo,"","","","","","",15.1167,120.0667
PH,1014,Santa Cruz,"","","","","","",14.2786,121.4156
PH,1015,Sampaloc,"","","","","","",14.5578,121.3461
PH,1016,Santa Mesa,"","","","","","",14.5048,121.4211
PH,1017,San Andres,"","","","","","",13.26,123.78
PH,1018,Port Area,"","","","","","",14.5833,120.9667
PH,1035,Santa Mesa P.O. Box,"","","","","","",14.0494,121.5101
PH,1040,Santa Cruz P.O. Box,"","","","","","",10.9,122.7167
PH,1045,Ermita,"","","","","","",10.9,122.7167
PH,1050,Manila CPO-PO Box# 1000 to 1099,"","","","","","",14.0494,121.5101
PH,1051,Manila CPO-PO Box# 1100 to 1199,"","","","","","",14.0494,121.5101
PH,1052,Manila CPO-PO Box# 1200 to 1299,"","","","","","",14.0494,121.5101
PH,1053,Manila CPO-PO Box# 1300 to 1399,"","","","","","",14.0494,121.5101
PH,1054,Manila CPO-PO Box# 1400 to 1499,"","","","","","",14.0494,121.5101
PH,1055,Manila CPO-PO Box# 1500 to 1599,"","","","","","",14.0494,121.5101
PH,1056,Manila CPO-PO Box# 1600 to 1699,"","","","","","",14.0494,121.5101
PH,1057,Manila CPO-PO Box# 1700 to 1799,"","","","","","",14.0494,121.5101
PH,1058,Manila CPO-PO Box# 1800 to 1899,"","","","","","",14.0494,121.5101
PH,1059,Manila CPO-PO Box# 1900 to 1999,"","","","","","",14.0494,121.5101
PH,1060,Manila CPO-PO Box# 2000 to 2099,"","","","","","",14.0494,121.5101
PH,1061,Manila CPO-PO Box# 2100 to 2199,"","","","","","",14.0494,121.5101
PH,1062,Manila CPO-PO Box# 2200 to 2299,"","","","","","",14.0494,121.5101
PH,1063,Manila CPO-PO Box# 2300 to 2399,"","","","","","",14.0494,121.5101
PH,1064,Manila CPO-PO Box# 2400 to 2499,"","","","","","",14.0494,121.5101
PH,1065,Manila CPO-PO Box# 2500 to 2599,"","","","","","",14.0494,121.5101
PH,1066,Manila CPO-PO Box# 2600 to 2699,"","","","","","",14.0494,121.5101
PH,1067,Manila CPO-PO Box# 2700 to 2799,"","","","","","",14.0494,121.5101
PH,1068,Manila CPO-PO Box# 2800 to 2899,"","","","","","",14.0494,121.5101
PH,1069,Manila CPO-PO Box# 2900 to 2999,"","","","","","",14.0494,121.5101
PH,1070,Manila CPO-PO Box# 3000 to 3099,"","","","","","",14.0494,121.5101
PH,1071,Manila CPO-PO Box# 3100 to 3199,"","","","","","",14.0494,121.5101
PH,1072,Manila CPO-PO Box# 3200 to 3299,"","","","","","",14.0494,121.5101
PH,1073,Manila CPO-PO Box# 3300 to 3399,"","","","","","",14.0494,121.5101
PH,1074,Manila CPO-PO Box# 3400 to 3499,"","","","","","",14.0494,121.5101
PH,1075,Manila CPO-PO Box# 3500 to 3599,"","","","","","",14.0494,121.5101
PH,1076,Manila CPO-PO Box# 3600 to 3699,"","","","","","",14.0494,121.5101
PH,1077,Manila CPO-PO Box# 3700 to 3799,"","","","","","",14.0494,121.5101
PH,1078,Manila CPO-PO Box# 3800 to 3899,"","","","","","",14.0494,121.5101
PH,1079,Manila CPO-PO Box# 3900 to 3999,"","","","","","",14.0494,121.5101
PH,1080,Manila CPO-PO Box# 4000 to 4099,"","","","","","",14.0494,121.5101
PH,1081,Manila CPO-PO Box# 4100 to 4199,"","","","","","",14.0494,121.5101
PH,1082,Manila CPO-PO Box# 4200 to 4299,"","","","","","",14.0494,121.5101
PH,1083,Manila CPO-PO Box# 4300 to 4399,"","","","","","",14.0494,121.5101
PH,1084,Manila CPO-PO Box# 4400 to 4499,"","","","","","",14.0494,121.5101
PH,1085,Manila CPO-PO Box# 4500 to 4599,"","","","","","",14.0494,121.5101
PH,1086,Manila CPO-PO Box# 4600 to 4699,"","","","","","",14.0494,121.5101
PH,1087,Manila CPO-PO Box# 4700 to 4799,"","","","","","",14.0494,121.5101
PH,1088,Manila CPO-PO Box# 4800 to 4899,"","","","","","",14.0494,121.5101
PH,1089,Manila CPO-PO Box# 4900 to 4999,"","","","","","",14.0494,121.5101
PH,1090,Manila CPO-PO Box# 5000 to 5099,"","","","","","",12.2667,122.05
PH,1091,Manila CPO-PO Box# 5100 to 5199,"","","","","","",12.2667,122.05
PH,1092,Manila CPO-PO Box# 5200 to 5299,"","","","","","",12.2667,122.05
PH,1093,Manila CPO-PO Box# 5300 to 5399,"","","","","","",12.2667,122.05
PH,1094,Manila CPO-PO Box# 5400 to 5499,"","","","","","",12.2667,122.05
PH,1095,Manila CPO-PO Box# 5500 to 5599,"","","","","","",12.2667,122.05
PH,1096,Manila CPO-PO Box# 5600 to 5699,"","","","","","",12.2667,122.05
PH,1099,Alcantara,"","","","","","",12.2667,122.05
PH,1100,Quezon City CPO,"","","","","","",15.1462,121.0447
PH,1100,Central,"","","","","","",15.1462,121.0447
PH,1100,Project 6,"","","","","","",14.6591,121.0395
PH,1100,Piñahan,"","","","","","",15.6333,121.05
PH,1101,Teachers Village,"","","","","","",14.6411,121.0551
PH,1101,San Vicente,"","","","","","",18.5083,122.1528
PH,1101,University of the Philippines,"","","","","","",15.2681,121.4227
PH,1101,Malaya,"","","","","","",14.3983,121.3397
PH,1101,Sikatuna Village,"","","","","","",15.2681,121.4227
PH,1101,Old Capitol Site,"","","","","","",15.2681,121.4227
PH,1101,University of the Philippines Village,"","","","","","",15.2681,121.4227
PH,1101,Botocan,"","","","","","",14.15,121.5
PH,1101,Krus na Ligas,"","","","","","",14.6428,121.0658
PH,1102,Quirino District (Project 2 &amp; 3),"","","","","","",14.4121,121.2233
PH,1102,Silangan,"","","","","","",13.5636,121.8578
PH,1102,Duyan-Duyan,"","","","","","",14.6228,121.0699
PH,1102,Claro,"","","","","","",14.6255,121.0668
PH,1102,Kamias,"","","","","","",14.4121,121.2233
PH,1102,Amihan,"","","","","","",14.6274,121.0675
PH,1102,E. Rodriguez,"","","","","","",14.6213,121.0543
PH,1103,South Triangle,"","","","","","",14.6359,121.0369
PH,1103,Obrero,"","","","","","",14.6276,121.0315
PH,1103,Sacred Heart,"","","","","","",14.6308,121.0383
PH,1103,Roxas District,"","","","","","",14.6304,121.0328
PH,1103,Laging Handa,"","","","","","",14.6306,121.0294
PH,1103,Kamuning,"","","","","","",14.6274,121.0402
PH,1103,Paligsahan,"","","","","","",14.63,121.0203
PH,1104,Damayan,"","","","","","",11.4839,122.5194
PH,1104,Diliman,"","","","","","",14.6589,121.0736
PH,1104,Talayan,"","","","","","",14.6327,121.0124
PH,1104,Nayon Kaunlaran,"","","","","","",13.7327,121.5584
PH,1104,Paraiso,"","","","","","",10.8833,123.3667
PH,1104,West Triangle,"","","","","","",14.6422,121.0316
PH,1104,Santa Cruz,"","","","","","",14.2786,121.4156
PH,1104,Mariblo,"","","","","","",14.6347,121.016
PH,1104,Phil-Am,"","","","","","",14.6474,121.0318
PH,1105,Santo Cristo,"","","","","","",15.35,120.6
PH,1105,Alicia,"","","","","","",14.5779,121.4317
PH,1105,"San Antonio, Quezon City","","","","","","",14.5779,121.4317
PH,1105,Katipunan,"","","","","","",14.5779,121.4317
PH,1105,Paltok,"","","","","","",14.5779,121.4317
PH,1105,R. Magsaysay,"","","","","","",14.5779,121.4317
PH,1105,Bungad,"","","","","","",13.6667,123.0833
PH,1105,Del Monte,"","","","","","",14.6418,121.0177
PH,1105,Veterans Village,"","","","","","",14.6532,121.0257
PH,1105,Bagong Pag-Asa,"","","","","","",14.5182,121.1988
PH,1105,Project 7,"","","","","","",14.5779,121.4317
PH,1106,Balintawak,"","","","","","",14.65,121
PH,1106,Bahay Toro,"","","","","","",14.6741,121.0345
PH,1106,Balumbato,"","","","","","",14.6682,121.0023
PH,1106,Apolonio Samson,"","","","","","",14.6483,121.0078
PH,1106,Unang Sigaw,"","","","","","",14.6626,121.0112
PH,1106,Baesa,"","","","","","",14.6724,121.0113
PH,1106,Project 8,"","","","","","",14.6626,121.0112
PH,1107,New Era,"","","","","","",14.6624,121.0557
PH,1107,Pasong Tamo,"","","","","","",14.6809,121.0673
PH,1108,Loyola Heights,"","","","","","",14.629,121.0726
PH,1108,Pansol,"","","","","","",13.8867,121.2433
PH,1109,Tagumpay,"","","","","","",14.6224,121.0629
PH,1109,Cubao,"","","","","","",14.6167,121.05
PH,1109,Marilag,"","","","","","",14.6211,121.0703
PH,1109,Masagana,"","","","","","",14.8833,120.4333
PH,1109,San Roque,"","","","","","",14.9028,120.5286
PH,1109,Villa Maria Clara,"","","","","","",14.6089,121.0699
PH,1109,Bayanihan,"","","","","","",14.6073,121.071
PH,1109,Dioquino Zobel,"","","","","","",14.5533,120.9758
PH,1109,Escopa,"","","","","","",14.5533,120.9758
PH,1109,Project 4,"","","","","","",14.5533,120.9758
PH,1109,Socorro,"","","","","","",13.0583,121.4117
PH,1109,Blue Ridge,"","","","","","",14.6115,121.0766
PH,1109,Mangga,"","","","","","",15.2453,120.9083
PH,1109,Bagong Buhay,"","","","","","",14.5182,121.1988
PH,1109,Milagrosa,"","","","","","",14.3089,121.0511
PH,1110,Ugong Norte,"","","","","","",14.5925,121.0712
PH,1110,Talampas,"","","","","","",14.6056,121.0781
PH,1110,Bagong Bayan,"","","","","","",15.8,120.9833
PH,1110,Libis,"","","","","","",14.608,121.0807
PH,1110,St. Ignatius,"","","","","","",14.8405,121.0568
PH,1110,Camp Aguinaldo,"","","","","","",14.8405,121.0568
PH,1110,White Plains,"","","","","","",14.5965,121.0707
PH,1111,Crame,"","","","","","",14.621,121.0459
PH,1111,Bagong Lipunan,"","","","","","",14.8626,121.0457
PH,1111,Pinagkaisahan,"","","","","","",14.623,121.0457
PH,1111,St. Martin de Porres,"","","","","","",14.621,121.0459
PH,1111,Immaculate Concepcion,"","","","","","",14.619,121.0461
PH,1111,Kaunlaran,"","","","","","",14.621,121.0459
PH,1112,Mariana,"","","","","","",14.6172,121.0361
PH,1112,Kalusugan,"","","","","","",14.6227,121.0253
PH,1112,Valencia,"","","","","","",14.6184,121.0351
PH,1112,Kristong Hari,"","","","","","",14.6243,121.0336
PH,1112,Horseshoe,"","","","","","",14.6095,121.0454
PH,1112,Damayan Lagi,"","","","","","",14.6184,121.0351
PH,1113,Tatalon,"","","","","","",14.6236,121.0135
PH,1113,Doña Aurora,"","","","","","",14.6156,121.0096
PH,1113,Don Manuel,"","","","","","",14.6146,121.0034
PH,1113,Santol,"","","","","","",15.1622,120.5675
PH,1113,Doña Imelda,"","","","","","",14.6162,121.0192
PH,1113,Doña Josefa,"","","","","","",14.6193,121.0065
PH,1113,San Isidro,"","","","","","",15.05,120.75
PH,1113,Santo Niño,"","","","","","",17.8883,121.5714
PH,1114,Lourdes,"","","","","","",14.9667,120.6833
PH,1114,Santa Teresita,"","","","","","",18.25,121.8833
PH,1114,Salvacion,"","","","","","",15.8417,120.9181
PH,1114,Sienna,"","","","","","",14.6331,121.0055
PH,1114,La Loma,"","","","","","",14.6228,121.0039
PH,1114,Matalahib,"","","","","","",14.8626,121.0457
PH,1114,Maharlika,"","","","","","",14.5038,121.0546
PH,1114,Gintong Silahis,"","","","","","",15.5503,120.9554
PH,1114,Paang Bundok,"","","","","","",15.5503,120.9554
PH,1114,St. Peter,"","","","","","",15.5503,120.9554
PH,1114,San Isidro Labrador,"","","","","","",16.0339,120.1392
PH,1115,Pag-Ibig sa Nayon,"","","","","","",13.4873,121.6424
PH,1115,Damar,"","","","","","",13.4873,121.6424
PH,1115,Balingasa,"","","","","","",13.4873,121.6424
PH,1115,San Jose,"","","","","","",11.1808,122.9125
PH,1115,Masambong,"","","","","","",14.6409,121.0107
PH,1115,Manresa,"","","","","","",14.6402,121.0039
PH,1116,Sangandaan,"","","","","","",14.6736,121.0229
PH,1116,Sauyo,"","","","","","",14.6853,121.0362
PH,1116,Tandang Sora,"","","","","","",14.6785,121.0424
PH,1116,San Bartolome,"","","","","","",14.9833,120.7
PH,1116,Bagbag,"","","","","","",16.4667,120.35
PH,1116,Talipapa,"","","","","","",14.6857,121.0269
PH,1117,Santa Lucia,"","","","","","",15.5,120.7833
PH,1117,Santa Monica,"","","","","","",14.4617,121.0831
PH,1117,San Agustin,"","","","","","",13.2786,121.3031
PH,1117,Gulod,"","","","","","",14.3492,121.2172
PH,1117,Capri,"","","","","","",14.719,121.0288
PH,1118,Pasong Putik,"","","","","","",14.738,121.0691
PH,1118,Fairview,"","","","","","",14.7036,121.069
PH,1119,Matandang Balara,"","","","","","",14.6655,121.0863
PH,1119,Payatas,"","","","","","",14.7007,121.0974
PH,1119,Bagong Silangan,"","","","","","",14.7064,121.104
PH,1120,BF Homes,"","","","","","",14.6881,121.0786
PH,1120,Violago Homes,"","","","","","",14.6881,121.0786
PH,1121,Fairview [North],"","","","","","",14.7004,121.081
PH,1121,Commonwealth,"","","","","","",14.7004,121.081
PH,1122,Fairview [South],"","","","","","",14.697,121.057
PH,1123,Novaliches Proper,"","","","","","",14.7178,121.0367
PH,1123,Damong Maliit,"","","","","","",14.7178,121.0367
PH,1124,Kaligayahan,"","","","","","",14.7335,121.0444
PH,1125,Nagkaisang Nayon,"","","","","","",14.7258,121.0275
PH,1125,Doña Faustina Subdivision,"","","","","","",14.7258,121.0275
PH,1126,Batasan Hills,"","","","","","",14.6819,121.0944
PH,1126,Capitol Hills/Park,"","","","","","",14.6819,121.0944
PH,1127,Holy Spirit,"","","","","","",14.697,121.057
PH,1128,Vasra,"","","","","","",14.659,121.0443
PH,1128,Culiat,"","","","","","",14.6697,121.0494
PH,1135,Araneta Center P.O. Boxes,"","","","","","",14.6811,121.1216
PH,1138,Murphy District P.O. Boxes,"","","","","","",14.6811,121.1216
PH,1141,Broadway Center P.O. Boxes,"","","","","","",14.6811,121.1216
PH,1144,University of the Philippines P.O. Boxes,"","","","","","",14.6811,121.1216
PH,1147,Novaliches P.O. Boxes,"","","","","","",14.6811,121.1216
PH,1150,Quezon City CPO - P.O. Box Nos. 1000 to 1099,"","","","","","",14.6811,121.1216
PH,1151,Quezon City CPO - P.O. Box Nos. 1100 to 1199,"","","","","","",14.6811,121.1216
PH,1152,Quezon City CPO - P.O. Box Nos. 1200 to 1299,"","","","","","",14.6811,121.1216
PH,1153,Quezon City CPO - P.O. Box Nos. 1300 to 1399,"","","","","","",14.6811,121.1216
PH,1154,Quezon City CPO - P.O. Box Nos. 1400 to 1499,"","","","","","",14.6811,121.1216
PH,1155,Quezon City CPO - P.O. Box Nos. 1500 to 1599,"","","","","","",14.6811,121.1216
PH,1156,Quezon City CPO - P.O. Box Nos. 1600 to 1699,"","","","","","",14.6811,121.1216
PH,1157,Quezon City CPO - P.O. Box Nos. 1700 to 1799,"","","","","","",14.6811,121.1216
PH,1158,Quezon City CPO - P.O. Box Nos. 1800 to 1899,"","","","","","",14.6811,121.1216
PH,1159,Quezon City CPO - P.O. Box Nos. 1900 to 1999,"","","","","","",14.6811,121.1216
PH,1160,Quezon City CPO - P.O. Box Nos. 2000 to 2099,"","","","","","",14.6811,121.1216
PH,1161,Quezon City CPO - P.O. Box Nos. 2100 to 2199,"","","","","","",14.6811,121.1216
PH,1162,Quezon City CPO - P.O. Box Nos. 2200 to 2299,"","","","","","",14.6811,121.1216
PH,1163,Quezon City CPO - P.O. Box Nos. 2300 to 2399,"","","","","","",14.6811,121.1216
PH,1164,Quezon City CPO - P.O. Box Nos. 2400 to 2499,"","","","","","",14.6811,121.1216
PH,1165,Quezon City CPO - P.O. Box Nos. 2500 to 2599,"","","","","","",14.6811,121.1216
PH,1166,Quezon City CPO - P.O. Box Nos. 2600 to 2699,"","","","","","",14.6811,121.1216
PH,1167,Quezon City CPO - P.O. Box Nos. 2700 to 2799,"","","","","","",14.6811,121.1216
PH,1168,Quezon City CPO - P.O. Box Nos. 2800 to 2899,"","","","","","",14.6811,121.1216
PH,1169,Quezon City CPO - P.O. Box Nos. 2900 to 2999,"","","","","","",14.6811,121.1216
PH,1170,Quezon City CPO - P.O. Box Nos. 3000 to 3099,"","","","","","",14.6811,121.1216
PH,1171,Quezon City CPO - P.O. Box Nos. 3100 to 3199,"","","","","","",14.6811,121.1216
PH,1172,Quezon City CPO - P.O. Box Nos. 3200 to 3299,"","","","","","",14.6811,121.1216
PH,1173,Quezon City CPO - P.O. Box Nos. 3300 to 3399,"","","","","","",14.6811,121.1216
PH,1174,Quezon City CPO - P.O. Box Nos. 3400 to 3499,"","","","","","",14.6811,121.1216
PH,1175,Quezon City CPO - P.O. Box Nos. 3500 to 3599,"","","","","","",14.6811,121.1216
PH,1176,Quezon City CPO - P.O. Box Nos. 3600 to 3699,"","","","","","",14.6811,121.1216
PH,1177,Quezon City CPO - P.O. Box Nos. 3700 to 3799,"","","","","","",14.6811,121.1216
PH,1200,Makati Central Post Office,"","","","","","",14.4595,121.1575
PH,1201,Fort Bonifacio,"","","","","","",14.5272,121.0422
PH,1202,Fort Bonifacio Naval Station,"","","","","","",14.4595,121.1575
PH,1203,San Antonio Village,"","","","","","",14.4595,121.1575
PH,1204,"La Paz, Singkamas, and Tejeros","","","","","","",14.4595,121.1575
PH,1205,Santa Cruz,"","","","","","",14.2786,121.4156
PH,1206,Kasilawan,"","","","","","",14.5728,121.0147
PH,1207,Carmona and Olympia,"","","","","","",14.4595,121.1575
PH,1208,"Valenzuela (includes Rizal, San Miguel, and Santiago Villages)","","","","","","",14.4595,121.1575
PH,1209,Bel-Air,"","","","","","",14.4595,121.1575
PH,1210,Poblacion,"","","","","","",14.5432,121.0691
PH,1211,Guadalupe Viejo (includes Palm Village),"","","","","","",14.5504,121.0602
PH,1212,Guadalupe Nuevo (includes Visayan Village),"","","","","","",14.5504,121.0602
PH,1213,Pinagkaisahan - Pitogo,"","","","","","",14.5504,121.0602
PH,1214,Cembo,"","","","","","",14.5646,121.0488
PH,1215,West Rembo,"","","","","","",14.558,121.0613
PH,1216,East Rembo and Malapad na Bato,"","","","","","",14.5504,121.0602
PH,1217,Comembo,"","","","","","",14.5477,121.0613
PH,1218,Pembo,"","","","","","",14.5384,121.0606
PH,1219,Forbes Park North,"","","","","","",14.5504,121.0602
PH,1220,Forbes Park South,"","","","","","",14.253,121.6374
PH,1221,Dasmariñas Village North,"","","","","","",14.253,121.6374
PH,1222,Dasmariñas Village South,"","","","","","",14.253,121.6374
PH,1223,San Lorenzo Village,"","","","","","",14.253,121.6374
PH,1224,Makati Commercial Center,"","","","","","",14.253,121.6374
PH,1225,Urdaneta Village,"","","","","","",14.253,121.6374
PH,1226,Ayala Avenue-Paseo de Roxas,"","","","","","",14.253,121.6374
PH,1227,Salcedo Village,"","","","","","",14.253,121.6374
PH,1228,Greenbelt,"","","","","","",14.253,121.6374
PH,1229,Legaspi Village,"","","","","","",14.253,121.6374
PH,1230,Pio del Pilar,"","","","","","",12.5333,125.1167
PH,1231,Pasong Tamo and Ecology Village,"","","","","","",13.8317,122.5026
PH,1232,Magallanes Village,"","","","","","",14.5329,121.0166
PH,1233,Bangkal,"","","","","","",9.9833,123.2
PH,1234,San Isidro,"","","","","","",15.05,120.75
PH,1235,Palanan,"","","","","","",17.0589,122.4297
PH,1250,Makati CPO-PO Box# 1000 to 1099,"","","","","","",14.253,121.6374
PH,1251,Makati CPO-PO Box# 1100 to 1199,"","","","","","",14.253,121.6374
PH,1252,Makati CPO-PO Box# 1200 to 1299,"","","","","","",14.253,121.6374
PH,1253,Makati CPO-PO Box# 1300 to 1399,"","","","","","",14.253,121.6374
PH,1254,Makati CPO-PO Box# 1400 to 1499,"","","","","","",14.253,121.6374
PH,1255,Makati CPO-PO Box# 1500 to 1599,"","","","","","",14.253,121.6374
PH,1256,Makati CPO-PO Box# 1600 to 1699,"","","","","","",14.253,121.6374
PH,1257,Makati CPO-PO Box# 1700 to 1799,"","","","","","",14.253,121.6374
PH,1258,Makati CPO-PO Box# 1800 to 1899,"","","","","","",14.253,121.6374
PH,1259,Makati CPO-PO Box# 1900 to 1999,"","","","","","",14.253,121.6374
PH,1260,Makati CPO-PO Box# 2000 to 2099,"","","","","","",14.253,121.6374
PH,1261,Makati CPO-PO Box# 2100 to 2199,"","","","","","",14.253,121.6374
PH,1262,Makati CPO-PO Box# 2200 to 2299,"","","","","","",14.253,121.6374
PH,1263,Makati CPO-PO Box# 2300 to 2399,"","","","","","",14.253,121.6374
PH,1264,Makati CPO-PO Box# 2400 to 2499,"","","","","","",14.253,121.6374
PH,1265,Makati CPO-PO Box# 2500 to 2599,"","","","","","",14.253,121.6374
PH,1266,Makati CPO-PO Box# 2600 to 2699,"","","","","","",14.253,121.6374
PH,1267,Makati CPO-PO Box# 2700 to 2799,"","","","","","",14.253,121.6374
PH,1268,Makati CPO-PO Box# 2800 to 2899,"","","","","","",14.253,121.6374
PH,1269,Makati CPO-PO Box# 2900 to 2999,"","","","","","",14.253,121.6374
PH,1270,Makati CPO-PO Box# 3000 to 3099,"","","","","","",14.253,121.6374
PH,1271,Makati CPO-PO Box# 3100 to 3199,"","","","","","",14.253,121.6374
PH,1272,Makati CPO-PO Box# 3200 to 3299,"","","","","","",14.253,121.6374
PH,1273,Makati CPO-PO Box# 3300 to 3399,"","","","","","",14.253,121.6374
PH,1274,Makati CPO-PO Box# 3400 to 3499,"","","","","","",14.253,121.6374
PH,1275,Makati CPO-PO Box# 3500 to 3599,"","","","","","",14.253,121.6374
PH,1276,Makati CPO-PO Box# 3600 to 3699,"","","","","","",14.253,121.6374
PH,1277,Makati CPO-PO Box# 3700 to 3799,"","","","","","",14.253,121.6374
PH,1278,Makati CPO-PO Box# 3800 to 3899,"","","","","","",14.253,121.6374
PH,1279,Makati CPO-PO Box# 3900 to 3999,"","","","","","",14.253,121.6374
PH,1280,Makati CPO-PO Box# 4000 to 4099,"","","","","","",14.253,121.6374
PH,1281,Makati CPO-PO Box# 4100 to 4199,"","","","","","",14.253,121.6374
PH,1282,Makati CPO-PO Box# 4200 to 4299,"","","","","","",14.253,121.6374
PH,1283,Makati CPO-PO Box# 4300 to 4399,"","","","","","",14.253,121.6374
PH,1284,Makati CPO-PO Box# 4400 to 4499,"","","","","","",14.253,121.6374
PH,1285,Makati CPO-PO Box# 4500 to 4599,"","","","","","",14.253,121.6374
PH,1286,Makati CPO-PO Box# 4600 to 4699,"","","","","","",14.253,121.6374
PH,1287,Makati CPO-PO Box# 4700 to 4799,"","","","","","",14.253,121.6374
PH,1288,Makati CPO-PO Box# 4800 to 4899,"","","","","","",14.253,121.6374
PH,1289,Makati CPO-PO Box# 4900 to 4999,"","","","","","",14.253,121.6374
PH,1290,Makati CPO-PO Box# 5000 to 5099,"","","","","","",14.253,121.6374
PH,1291,Makati CPO-PO Box# 5100 to 5199,"","","","","","",14.253,121.6374
PH,1292,Makati CPO-PO Box# 5200 to 5299,"","","","","","",14.253,121.6374
PH,1293,Makati CPO-PO Box# 5300 to 5399,"","","","","","",14.253,121.6374
PH,1294,Makati CPO-PO Box# 5400 to 5499,"","","","","","",14.253,121.6374
PH,1295,Makati CPO-PO Box# 5500 to 5599,"","","","","","",14.253,121.6374
PH,1296,Makati CPO-PO Box# 5600 to 5699,"","","","","","",14.253,121.6374
PH,1297,Makati CPO-PO Box# 5700 to 5799,"","","","","","",14.253,121.6374
PH,1298,Makati CPO-PO Box# 5800 to 5899,"","","","","","",14.253,121.6374
PH,1299,Makati CPO-PO Box# 5900 to 5999,"","","","","","",14.253,121.6374
PH,1300,Pasay City Central Post Office,"","","","","","",13.9508,121.1579
PH,1301,Domestic Airport P.O.,"","","","","","",13.9508,121.1579
PH,1302,San Rafael,"","","","","","",14.8669,120.5381
PH,1303,San Roque,"","","","","","",14.9028,120.5286
PH,1304,Santa Clara,"","","","","","",13.7536,121.0606
PH,1305,San Jose,"","","","","","",11.1808,122.9125
PH,1306,San Isidro,"","","","","","",15.05,120.75
PH,1307,Philippine International Convention Center,"","","","","","",13.9508,121.1579
PH,1308,Bay City,"","","","","","",13.9508,121.1579
PH,1309,Villamor Airbase,"","","","","","",13.9508,121.1579
PH,1350,Pasay City CPO - P.O. Box Nos. 1000 to 1099,"","","","","","",13.9508,121.1579
PH,1351,Pasay City CPO - P.O. Box Nos. 1100 to 1199,"","","","","","",13.9508,121.1579
PH,1352,Pasay City CPO - P.O. Box Nos. 1200 to 1299,"","","","","","",13.9508,121.1579
PH,1353,Pasay City CPO - P.O. Box Nos. 1300 to 1399,"","","","","","",13.9508,121.1579
PH,1354,Pasay City CPO - P.O. Box Nos. 1400 to 1499,"","","","","","",13.9508,121.1579
PH,1375,Domestic Airport P.O. - P.O. Box Nos. 1000 to 1099,"","","","","","",13.9508,121.1579
PH,1376,Domestic Airport P.O. - P.O. Box Nos. 1100 to 1199,"","","","","","",13.9508,121.1579
PH,1377,Domestic Airport P.O. - P.O. Box Nos. 1200 to 1299,"","","","","","",13.9508,121.1579
PH,1378,Domestic Airport P.O. - P.O. Box Nos. 1300 to 1399,"","","","","","",13.9508,121.1579
PH,1379,Domestic Airport P.O. - P.O. Box Nos. 1400 to 1499,"","","","","","",13.9508,121.1579
PH,1380,Domestic Airport P.O. - P.O. Box Nos. 1500 to 1599,"","","","","","",13.9508,121.1579
PH,1381,Domestic Airport P.O. - P.O. Box Nos. 1600 to 1699,"","","","","","",13.9508,121.1579
PH,1400,Caloocan City Central Post Office,"","","","","","",13.8025,121.4867
PH,1401,Baesa,"","","","","","",14.6724,121.0113
PH,1402,Santa Quiteria,"","","","","","",14.6833,121
PH,1403,Grace Park East,"","","","","","",13.8025,121.4867
PH,1404,San Jose,"","","","","","",11.1808,122.9125
PH,1405,First Avenue to Seventh Avenue West,"","","","","","",13.8025,121.4867
PH,1406,Grace Park West,"","","","","","",13.8025,121.4867
PH,1407,University Hills,"","","","","","",13.8025,121.4867
PH,1408,Sangandaan,"","","","","","",14.6736,121.0229
PH,1409,Kaunlaran Village,"","","","","","",13.8025,121.4867
PH,1409,Kaunlaran Village (shared with Malabon City and Navotas),"","","","","","",13.8025,121.4867
PH,1409,Kaunlaran Village (shared with Caloocan City and Navotas),"","","","","","",13.8025,121.4867
PH,1410,Maypajo,"","","","","","",14.6333,120.9667
PH,1411,Fish Market (shared with Navotas),"","","","","","",14.6333,120.9667
PH,1411,Fish Market,"","","","","","",14.6333,120.9667
PH,1412,Isla de Cocomo,"","","","","","",14.6333,120.9667
PH,1413,Kapitbahayan [East],"","","","","","",14.6333,120.9667
PH,1413,Kapitbayahan,"","","","","","",14.6333,120.9667
PH,1420,Kaybiga/Deparo,"","","","","","",14.5945,121.0667
PH,1421,Bagumbong/Pag-asa,"","","","","","",14.5945,121.0667
PH,1422,Novaliches North,"","","","","","",14.5945,121.0667
PH,1423,Lilles Ville Subdivision,"","","","","","",14.5945,121.0667
PH,1424,Captol Parkland Subdivision,"","","","","","",14.5945,121.0667
PH,1425,Amparo Subdivision,"","","","","","",14.5945,121.0667
PH,1426,Bankers Village,"","","","","","",14.5945,121.0667
PH,1427,Tala Leprosarium and Victory Heights,"","","","","","",14.5945,121.0667
PH,1427,Cefels Park Subdivision,"","","","","","",14.5945,121.0667
PH,1428,Bagong Silang,"","","","","","",14.5945,121.0667
PH,1440,Valenzuela Central Post Office - Malinta,"","","","","","",14.3637,121.2414
PH,1441,Karuhatan,"","","","","","",14.6914,120.9686
PH,1442,General T. de Leon,"","","","","","",14.7078,120.9861
PH,1442,Fortune Village,"","","","","","",14.7078,120.9861
PH,1442,Paso de Blas,"","","","","","",14.7078,120.9861
PH,1443,Dalandanan - West Canumay,"","","","","","",14.3637,121.2414
PH,1444,Polo,"","","","","","",13.5036,122.0903
PH,1444,Arkong Bato,"","","","","","",13.9871,121.5135
PH,1444,Mabolo,"","","","","","",12.3908,122.4806
PH,1444,Malanday,"","","","","","",14.6464,121.0947
PH,1444,Rincon,"","","","","","",14.7,120.95
PH,1444,Pasolo,"","","","","","",14.6944,120.9519
PH,1445,Balangkas - Caloong,"","","","","","",14.7,120.95
PH,1446,Lingunan,"","","","","","",14.7192,120.975
PH,1447,East Canumay - Lawang Bato Punturin,"","","","","","",14.3637,121.2414
PH,1448,Mapulang Lupa,"","","","","","",14.8833,120.9667
PH,1469,Valenzuela P.O. Boxes,"","","","","","",14.5945,121.0667
PH,1470,Tinajeros,"","","","","","",15.1,120.5667
PH,1470,Malabon,"","","","","","",15.6344,119.9761
PH,1471,Flores,"","","","","","",16.0686,120.6883
PH,1472,Longos,"","","","","","",16.1167,120.3833
PH,1473,Tonsuya,"","","","","","",14.6617,120.9564
PH,1474,Acacia,"","","","","","",14.6753,120.9681
PH,1475,Potrero,"","","","","","",14.6669,120.9814
PH,1476,Araneta Subdivision,"","","","","","",15.1018,120.7597
PH,1477,Maysilo,"","","","","","",14.6778,120.9536
PH,1478,Santolan,"","","","","","",14.6158,121.0882
PH,1479,Muzon,"","","","","","",14.8011,121.0344
PH,1480,Dampalit,"","","","","","",14.6833,120.9447
PH,1485,Navotas,"","","","","","",14.4172,121.2258
PH,1489,Tangos,"","","","","","",14.9667,120.9
PH,1490,Tanza,"","","","","","",14.6753,120.9389
PH,1500,San Juan Central Post Office,"","","","","","",14.5865,121.0371
PH,1502,Greenhills Post Office,"","","","","","",14.5865,121.0371
PH,1503,Greenhills [North],"","","","","","",14.5865,121.0371
PH,1504,Eisenhower - Crame,"","","","","","",14.5865,121.0371
PH,1530,Greenhills P.O. Box Nos. 1000 to 1099,"","","","","","",14.5865,121.0371
PH,1531,Greenhills P.O. Box Nos. 1100 to 1199,"","","","","","",14.5865,121.0371
PH,1532,Greenhills P.O. Box Nos. 1200 to 1299,"","","","","","",14.5865,121.0371
PH,1533,Greenhills P.O. Box Nos. 1300 to 1399,"","","","","","",14.5865,121.0371
PH,1534,Greenhills P.O. Box Nos. 1400 to 1499,"","","","","","",14.5865,121.0371
PH,1535,Greenhills P.O. Box Nos. 1500 to 1599,"","","","","","",14.5865,121.0371
PH,1536,Greenhills P.O. Box Nos. 1600 to 1699,"","","","","","",14.5865,121.0371
PH,1550,Mandaluyong Central Post Office,"","","","","","",14.5865,121.0371
PH,1551,Vergara,"","","","","","",14.576,121.0281
PH,1552,Shaw Boulevard,"","","","","","",14.5865,121.0371
PH,1553,National Center for Mental Health,"","","","","","",14.5865,121.0371
PH,1554,East EDSA,"","","","","","",14.5865,121.0371
PH,1555,Wack Wack,"","","","","","",14.5971,121.0461
PH,1556,Greenhills South,"","","","","","",14.5865,121.0371
PH,1600,Pasig Central Post Office,"","","","","","",14.5732,121.0697
PH,1601,San Joaquin,"","","","","","",15.0944,120.7678
PH,1602,Pinagbuhatan,"","","","","","",14.5592,121.0916
PH,1603,Kapitolyo,"","","","","","",14.5693,121.0602
PH,1604,Ugong,"","","","","","",14.5818,121.076
PH,1605,Ortigas Post Office,"","","","","","",14.5732,121.0697
PH,1606,Caniogan,"","","","","","",17.5,120.4333
PH,1607,Maybunga,"","","","","","",11.1508,122.1253
PH,1608,Santa Lucia,"","","","","","",15.5,120.7833
PH,1609,Rosario,"","","","","","",13.63,121.2197
PH,1610,Santolan,"","","","","","",14.6158,121.0882
PH,1611,Manggahan,"","","","","","",14.2911,120.9131
PH,1612,Green Park,"","","","","","",14.4535,121.0006
PH,1620,Aguho,"","","","","","",14.541,121.065
PH,1621,Santa Ana,"","","","","","",15.0944,120.7678
PH,1630,"Western Bicutan (including Food Terminal, Inc.","","","","","","",14.5916,121.0147
PH,1631,Bicutan,"","","","","","",14.4996,121.0507
PH,1632,ususan,"","","","","","",14.5339,121.0739
PH,1633,Upper Bicutan,"","","","","","",14.4996,121.0507
PH,1634,Nichols - McKinley,"","","","","","",14.5916,121.0147
PH,1636,Bay Breeze Executive Village,"","","","","","",14.5916,121.0147
PH,1637,Tuktukan,"","","","","","",14.8333,120.8833
PH,1638,Ligid,"","","","","","",14.5916,121.0147
PH,1650,Pasig Ortigas CTR-PO Box# 1000 to 1099,"","","","","","",14.5934,121.0281
PH,1651,Pasig Ortigas CTR-PO Box# 1100 to 1199,"","","","","","",14.5934,121.0281
PH,1652,Pasig Ortigas CTR-PO Box# 1200 to 1299,"","","","","","",14.5934,121.0281
PH,1653,Pasig Ortigas CTR-PO Box# 1300 to 1399,"","","","","","",14.5934,121.0281
PH,1654,Pasig Ortigas CTR-PO Box# 1400 to 1499,"","","","","","",14.5934,121.0281
PH,1655,Pasig Ortigas CTR-PO Box# 1500 to 1599,"","","","","","",14.5934,121.0281
PH,1656,Pasig Ortigas CTR-PO Box# 1600 to 1699,"","","","","","",14.5934,121.0281
PH,1657,Pasig Ortigas CTR-PO Box# 1700 to 1799,"","","","","","",14.5934,121.0281
PH,1658,Pasig Ortigas CTR-PO Box# 1800 to 1899,"","","","","","",14.5934,121.0281
PH,1659,Pasig Ortigas CTR-PO Box# 1900 to 1999,"","","","","","",14.5934,121.0281
PH,1660,Pasig Ortigas CTR-PO Box# 2000 to 2099,"","","","","","",14.5934,121.0281
PH,1661,Pasig Ortigas CTR-PO Box# 2100 to 2199,"","","","","","",14.5934,121.0281
PH,1662,Pasig Ortigas CTR-PO Box# 2200 to 2299,"","","","","","",14.5934,121.0281
PH,1663,Pasig Ortigas CTR-PO Box# 2300 to 2399,"","","","","","",14.5934,121.0281
PH,1664,Pasig Ortigas CTR-PO Box# 2400 to 2499,"","","","","","",14.5934,121.0281
PH,1665,Pasig Ortigas CTR-PO Box# 2500 to 2599,"","","","","","",14.5934,121.0281
PH,1666,Pasig Ortigas CTR-PO Box# 2600 to 2699,"","","","","","",14.5934,121.0281
PH,1667,Pasig Ortigas CTR-PO Box# 2700 to 2799,"","","","","","",14.5934,121.0281
PH,1668,Pasig Ortigas CTR-PO Box# 2800 to 2899,"","","","","","",14.5934,121.0281
PH,1669,Pasig Ortigas CTR-PO Box# 2900 to 2999,"","","","","","",14.5934,121.0281
PH,1670,Pasig Ortigas CTR-PO Box# 3000 to 3099,"","","","","","",14.5934,121.0281
PH,1671,Pasig Ortigas CTR-PO Box# 3100 to 3199,"","","","","","",14.5934,121.0281
PH,1672,Pasig Ortigas CTR-PO Box# 3200 to 3299,"","","","","","",14.5934,121.0281
PH,1673,Pasig Ortigas CTR-PO Box# 3300 to 3399,"","","","","","",14.5934,121.0281
PH,1674,Pasig Ortigas CTR-PO Box# 3400 to 3499,"","","","","","",14.5934,121.0281
PH,1675,Pasig Ortigas CTR-PO Box# 3500 to 3599,"","","","","","",14.5934,121.0281
PH,1676,Pasig Ortigas CTR-PO Box# 3600 to 3699,"","","","","","",14.5934,121.0281
PH,1677,Pasig Ortigas CTR-PO Box# 3700 to 3799,"","","","","","",14.5934,121.0281
PH,1678,Pasig Ortigas CTR-PO Box# 3800 to 3899,"","","","","","",14.5934,121.0281
PH,1679,Pasig Ortigas CTR-PO Box# 3900 to 3999,"","","","","","",14.5934,121.0281
PH,1680,Pasig Ortigas CTR-PO Box# 4000 to 4099,"","","","","","",14.5934,121.0281
PH,1681,Pasig Ortigas CTR-PO Box# 4100 to 4199,"","","","","","",14.5934,121.0281
PH,1682,Pasig Ortigas CTR-PO Box# 4200 to 4299,"","","","","","",14.5934,121.0281
PH,1683,Pasig Ortigas CTR-PO Box# 4300 to 4399,"","","","","","",14.5934,121.0281
PH,1684,Pasig Ortigas CTR-PO Box# 4400 to 4499,"","","","","","",14.5934,121.0281
PH,1685,Pasig Ortigas CTR-PO Box# 4500 to 4599,"","","","","","",14.5934,121.0281
PH,1686,Pasig Ortigas CTR-PO Box# 4600 to 4699,"","","","","","",14.5934,121.0281
PH,1687,Pasig Ortigas CTR-PO Box# 4700 to 4799,"","","","","","",14.5934,121.0281
PH,1688,Pasig Ortigas CTR-PO Box# 4800 to 4899,"","","","","","",14.5934,121.0281
PH,1689,Pasig Ortigas CTR-PO Box# 4900 to 4999,"","","","","","",14.5934,121.0281
PH,1690,Pasig Ortigas CTR-PO Box# 5000 to 5099,"","","","","","",14.5934,121.0281
PH,1691,Pasig Ortigas CTR-PO Box# 5100 to 5199,"","","","","","",14.5934,121.0281
PH,1692,Pasig Ortigas CTR-PO Box# 5200 to 5299,"","","","","","",14.5934,121.0281
PH,1693,Pasig Ortigas CTR-PO Box# 5300 to 5399,"","","","","","",14.5934,121.0281
PH,1694,Pasig Ortigas CTR-PO Box# 5400 to 5499,"","","","","","",14.5934,121.0281
PH,1695,Pasig Ortigas CTR-PO Box# 5500 to 5599,"","","","","","",14.5934,121.0281
PH,1696,Pasig Ortigas CTR-PO Box# 5600 to 5699,"","","","","","",14.5934,121.0281
PH,1697,Pasig Ortigas CTR-PO Box# 5700 to 5799,"","","","","","",14.5934,121.0281
PH,1698,Pasig Ortigas CTR-PO Box# 5800 to 5899,"","","","","","",14.5934,121.0281
PH,1699,Pasig Ortigas CTR-PO Box# 5900 to 5999,"","","","","","",14.5934,121.0281
PH,1700,Parañaque CPO,"","","","","","",15.439,122.0266
PH,1701,Tambo,"","","","","","",13.4658,123.495
PH,1702,Baclaran,"","","","","","",15.439,122.0266
PH,1703,Marina Subdivision (Reclamation),"","","","","","",15.439,122.0266
PH,1704,Santo Niño,"","","","","","",17.8883,121.5714
PH,1705,Ninoy Aquino International Airport,"","","","","","",15.439,122.0266
PH,1706,Pulo,"","","","","","",14.9628,121.0133
PH,1707,San Antonio Valley 11 &amp; 12,"","","","","","",15.439,122.0266
PH,1708,Multinational Village,"","","","","","",15.439,122.0266
PH,1709,"South Admiral Village, Merville Park &amp; Moonwalk Subdivision","","","","","","",15.439,122.0266
PH,1710,Executive Heights Subdivision,"","","","","","",14.4998,121.0422
PH,1711,Better Living Subdivision,"","","","","","",14.4998,121.0422
PH,1712,Miramar Subdivision,"","","","","","",14.4998,121.0422
PH,1713,United Parañaque Subdivision,"","","","","","",14.4998,121.0422
PH,1714,Aeropark Subdivision,"","","","","","",14.4998,121.0422
PH,1714,Ireneville Subdivision II,"","","","","","",14.4998,121.0422
PH,1715,San Antonio Valley 1,"","","","","","",14.4998,121.0422
PH,1716,Maywood Village II,"","","","","","",14.4998,121.0422
PH,1717,Manila Memorial Park,"","","","","","",14.4998,121.0422
PH,1718,BF Homes 2,"","","","","","",14.4998,121.0422
PH,1719,Ireneville Subdivision I &amp; III,"","","","","","",14.4998,121.0422
PH,1719,Maywood Village I,"","","","","","",14.4998,121.0422
PH,1720,BF Homes 1,"","","","","","",14.8961,121.4761
PH,1740,Las Piñas Central Post Office,"","","","","","",14.8961,121.4761
PH,1741,Greymarville Subdivision,"","","","","","",14.8961,121.4761
PH,1742,Pulang Lupa and Zapote,"","","","","","",14.8961,121.4761
PH,1743,Cut-cut,"","","","","","",14.8961,121.4761
PH,1744,Manuyo,"","","","","","",14.8961,121.4761
PH,1745,Gatchalian Subdivision,"","","","","","",14.8961,121.4761
PH,1746,Verdant Acres Subdivision,"","","","","","",14.8961,121.4761
PH,1747,Moonwalk Subdivision and Talon,"","","","","","",14.8961,121.4761
PH,1748,Manila Doctors Village,"","","","","","",14.8961,121.4761
PH,1749,Angela Village,"","","","","","",14.8961,121.4761
PH,1750,Almanza,"","","","","","",14.4833,120.9833
PH,1751,T.S. Cruz Subdivision,"","","","","","",14.4833,120.9833
PH,1752,Soldiers Hills Subdivision,"","","","","","",14.4833,120.9833
PH,1770,Muntinlupa Central Post Office,"","","","","","",14.4418,121.051
PH,1771,Buli/Cupang,"","","","","","",14.4418,121.051
PH,1772,Soldiers' Hills,"","","","","","",14.4031,121.0314
PH,1772,Bayanan/Putatan,"","","","","","",14.4031,121.0314
PH,1773,Tunasan,"","","","","","",14.3792,121.0525
PH,1774,Susana Heights,"","","","","","",14.4418,121.051
PH,1775,Pearl Heights,"","","","","","",14.4418,121.051
PH,1776,Poblacion,"","","","","","",14.5432,121.0691
PH,1777,Pleasant Village,"","","","","","",14.4418,121.051
PH,1780,Ayala Alabang Subdivision,"","","","","","",14.8961,121.4761
PH,1799,Ayala Alabang P.O. Boxes,"","","","","","",14.8961,121.4761
PH,1800,Marikina Central Post Office,"","","","","","",12.565,122.0275
PH,1801,San Roque-Calumpang,"","","","","","",12.565,122.0275
PH,1802,Industrial Valley,"","","","","","",14.6269,121.0767
PH,1803,Barangka and Tañong,"","","","","","",12.565,122.0275
PH,1804,J. De La Peña,"","","","","","",12.565,122.0275
PH,1805,Malanday,"","","","","","",14.6464,121.0947
PH,1806,Northern and Western Marikina River,"","","","","","",12.565,122.0275
PH,1807,Concepcion tarlac,"","","","","","",15.3253,120.6569
PH,1808,Nangka,"","","","","","",10.8556,123.0419
PH,1809,Parang,"","","","","","",7.3711,124.2672
PH,1810,Marikina Heights,"","","","","","",14.6533,121.1222
PH,1811,Concepcion 2,"","","","","","",14.6442,121.1212
PH,1812,819: Not used,"","","","","","",14.6487,121.1217
PH,1820,"Bagong Nayon, Cupang, Mambagat, and Mayamot","","","","","","",13.6111,121.5856
PH,1850,San Mateo,"","","","","","",14.6969,121.1219
PH,1860,Rodriguez,"","","","","","",14.7325,121.145
PH,1870,Antipolo City,"","","","","","",13.6111,121.5856
PH,1880,Teresa,"","","","","","",14.5586,121.2083
PH,1900,Jalajala,"","","","","","",14.3525,121.3231
PH,1900,Cainta,"","","","","","",14.58,121.1169
PH,1910,Pililla,"","","","","","",14.4822,121.3056
PH,1920,Taytay,"","","","","","",14.5692,121.1325
PH,1930,Angono,"","","","","","",14.5256,121.1497
PH,1940,Binangonan,"","","","","","",14.4656,121.1919
PH,1950,Cardona,"","","","","","",14.4864,121.2294
PH,1960,Morong,"","","","","","",14.6789,120.2661
PH,1970,Baras,"","","","","","",14.5217,121.2667
PH,1980,Tanay,"","","","","","",14.4972,121.2864
PH,2000,City of San Fernando,"","","","","","",15.0055,120.5964
PH,2001,Bacolor,"","","","","","",15.0014,120.6539
PH,2002,Santa Rita,"","","","","","",15.0008,120.6117
PH,2003,Guagua,"","","","","","",14.9686,120.6356
PH,2004,Sasmuan (Sexmoan),"","","","","","",14.9386,120.6161
PH,2005,Lubao,"","","","","","",14.9353,120.6011
PH,2006,Floridablanca,"","","","","","",14.9767,120.5275
PH,2007,Basa Airbase,"","","","","","",15.0055,120.5964
PH,2008,Porac,"","","","","","",15.0722,120.5422
PH,2009,Angeles City,"","","","","","",15.15,120.5833
PH,2010,Mabalacat,"","","","","","",15.2233,120.5792
PH,2011,Magalang,"","","","","","",15.215,120.6619
PH,2012,Arayat,"","","","","","",15.1508,120.7731
PH,2013,Candaba,"","","","","","",15.0933,120.8283
PH,2014,San Luis,"","","","","","",15.043,120.7227
PH,2015,San Simon,"","","","","","",14.9931,120.7767
PH,2016,Apalit,"","","","","","",14.9533,120.77
PH,2017,Masantol,"","","","","","",14.8936,120.7139
PH,2018,Macabebe,"","","","","","",14.8983,120.7167
PH,2019,Minalin,"","","","","","",14.9664,120.685
PH,2020,Santo Tomas,"","","","","","",14.1092,121.1419
PH,2021,Mexico,"","","","","","",15.0656,120.7217
PH,2022,Santa Ana,"","","","","","",15.0944,120.7678
PH,2100,Balanga City,"","","","","","",14.357,120.6621
PH,2101,Pilar,"","","","","","",14.66,120.5653
PH,2102,Orion,"","","","","","",14.6206,120.5817
PH,2103,Limay,"","","","","","",14.5619,120.5983
PH,2104,Lamao,"","","","","","",12.5472,122.3175
PH,2105,Mariveles,"","","","","","",14.4336,120.4853
PH,2106,Mariveles,"","","","","","",14.4336,120.4853
PH,2107,Bagac,"","","","","","",14.5981,120.3931
PH,2108,Morong,"","","","","","",14.6789,120.2661
PH,2109,Morong,"","","","","","",14.6789,120.2661
PH,2110,Dinalupihan,"","","","","","",14.8761,120.4625
PH,2111,Hermosa,"","","","","","",14.8317,120.5064
PH,2112,Orani,"","","","","","",14.8008,120.5364
PH,2113,Samal,"","","","","","",14.8077,120.5109
PH,2114,Abucay,"","","","","","",14.7222,120.5383
PH,2133,3 Santa Cruz,"","","","","","",14.4957,120.6156
PH,2200,Olongapo City,"","","","","","",14.8292,120.2828
PH,2201,Iba,"","","","","","",15.3236,119.9803
PH,2202,Botolan,"","","","","","",15.2886,120.0244
PH,2203,Cabangan,"","","","","","",15.1594,120.0564
PH,2204,San Felipe,"","","","","","",15.7203,121.0617
PH,2205,San Narciso,"","","","","","",15.0158,120.0789
PH,2206,San Antonio,"","","","","","",12.6958,124.1308
PH,2207,San Marcelino,"","","","","","",14.9739,120.1583
PH,2208,Castillejos,"","","","","","",14.9303,120.2022
PH,2209,Subic,"","","","","","",14.8797,120.2333
PH,2210,Palauig &amp; Scarborough Shoal,"","","","","","",14.5823,120.93
PH,2211,Masinloc,"","","","","","",15.5372,119.9511
PH,2212,Candelaria,"","","","","","",13.9311,121.4233
PH,2213,Santa Cruz,"","","","","","",14.2786,121.4156
PH,2222,Subic Bay Freeport Zone,"","","","","","",14.8126,120.6922
PH,2300,Tarlac City,"","","","","","",15.2069,120.9619
PH,2301,San Jose,"","","","","","",11.1808,122.9125
PH,2302,Gerona,"","","","","","",15.6064,120.6
PH,2303,Santa Ignacia,"","","","","","",15.6178,120.4356
PH,2304,Mayantoc,"","","","","","",15.6194,120.3781
PH,2305,San Clemente,"","","","","","",15.7139,120.3592
PH,2306,Camiling,"","","","","","",15.6878,120.4131
PH,2307,[Paniqui],"","","","","","",15.2069,120.9619
PH,2309,San Manuel,"","","","","","",17.0225,121.6353
PH,2310,Anao,"","","","","","",15.1408,120.6944
PH,2311,Ramos,"","","","","","",15.6647,120.6406
PH,2312,Pura,"","","","","","",15.6247,120.6503
PH,2313,Victoria,"","","","","","",14.2269,121.3275
PH,2314,La Paz,"","","","","","",15.4425,120.7286
PH,2316,Concepcion,"","","","","","",15.3253,120.6569
PH,2317,Bamban,"","","","","","",15.6667,120.3333
PH,2333,Capas,"","","","","","",15.3275,120.5908
PH,2334,Moncada,"","","","","","",15.7367,120.5744
PH,2400,Dagupan City,"","","","","","",16.0475,120.3408
PH,2401,Lingayen,"","","","","","",16.0167,120.2333
PH,2402,Labrador,"","","","","","",16.0339,120.1392
PH,2403,Sual,"","","","","","",16.0694,120.0944
PH,2404,Alaminos,"","","","","","",16.1561,119.9811
PH,2405,Anda,"","","","","","",16.2889,119.9514
PH,2406,Bolinao,"","","","","","",17.8667,120.5667
PH,2407,Bani,"","","","","","",15.6647,120.6406
PH,2408,Agno,"","","","","","",16.1194,119.7992
PH,2409,Mabini,"","","","","","",16.0706,119.935
PH,2410,Burgos,"","","","","","",15.7333,120.5833
PH,2411,Dasol,"","","","","","",15.9811,119.8794
PH,2412,Infanta,"","","","","","",15.8253,119.9069
PH,2413,Mangatarem,"","","","","","",15.7903,120.2925
PH,2414,Urbiztondo,"","","","","","",15.8233,120.3314
PH,2415,Aguilar,"","","","","","",15.8889,120.2386
PH,2416,Bugallon,"","","","","","",15.9736,120.2158
PH,2417,Binmaley,"","","","","","",16.0325,120.2711
PH,2418,Calasiao,"","","","","","",16.0094,120.3633
PH,2419,Santa Barbara,"","","","","","",16.0064,120.4103
PH,2420,San Carlos City,"","","","","","",15.9239,120.6841
PH,2421,Malasiqui,"","","","","","",15.9206,120.415
PH,2422,Basista,"","","","","","",15.855,120.4019
PH,2423,Bayambang,"","","","","","",15.8106,120.4547
PH,2424,Bautista,"","","","","","",15.8119,120.4758
PH,2425,Alcala,"","","","","","",17.9053,121.6544
PH,2426,Santo Tomas,"","","","","","",14.1092,121.1419
PH,2427,Villasis,"","","","","","",15.9017,120.5883
PH,2428,Urdaneta,"","","","","","",15.9761,120.5711
PH,2429,Mapandan,"","","","","","",16.0247,120.4539
PH,2430,Manaoag,"","","","","","",16.0431,120.4908
PH,2431,San Jacinto,"","","","","","",16.0725,120.4411
PH,2432,Mangaldan,"","","","","","",16.0692,120.4064
PH,2433,San Fabian,"","","","","","",15.6,120.9
PH,2434,Sison,"","","","","","",16.1138,120.6903
PH,2435,Pozorrubio,"","","","","","",16.1133,120.5428
PH,2436,Binalonan,"","","","","","",16.0489,120.5953
PH,2437,Laoac,"","","","","","",16.05,120.5333
PH,2438,San Manuel,"","","","","","",17.0225,121.6353
PH,2439,Asingan,"","","","","","",16.005,120.6681
PH,2440,Santa Maria,"","","","","","",16.5933,120.7329
PH,2441,Rosales,"","","","","","",15.8944,120.6328
PH,2442,Balungao,"","","","","","",16.3897,121.0775
PH,2443,Umingan,"","","","","","",15.9278,120.8425
PH,2444,San Quintin,"","","","","","",17.7,120.4333
PH,2445,Tayug,"","","","","","",16.0267,120.7478
PH,2446,Natividad,"","","","","","",16.0417,120.8003
PH,2447,San Nicolas,"","","","","","",18.1725,120.5958
PH,2500,San Fernando City,"","","","","","",15.7185,120.5476
PH,2501,Bauang,"","","","","","",16.5308,120.3331
PH,2502,Caba,"","","","","","",16.4333,120.3472
PH,2503,Aringay,"","","","","","",16.3964,120.3592
PH,2504,Agoo,"","","","","","",16.0833,120.1
PH,2505,Santo Tomas,"","","","","","",14.1092,121.1419
PH,2506,Rosario,"","","","","","",13.63,121.2197
PH,2507,Damortis,"","","","","","",16.2422,120.4089
PH,2508,Pugo,"","","","","","",16.3225,120.4708
PH,2509,Tubao,"","","","","","",15.7185,120.5476
PH,2510,Burgos,"","","","","","",15.7333,120.5833
PH,2511,Naguillan,"","","","","","",16.5929,120.5953
PH,2512,Bagulin,"","","","","","",16.6083,120.4394
PH,2513,San Gabriel,"","","","","","",16.6756,120.4031
PH,2514,San Juan,"","","","","","",17.7422,120.4583
PH,2515,Bacnotan,"","","","","","",16.7222,120.3525
PH,2516,Santol,"","","","","","",15.1622,120.5675
PH,2517,Balaoan,"","","","","","",16.8219,120.4003
PH,2518,Luna,"","","","","","",16.9725,121.7303
PH,2519,Bangar,"","","","","","",16.8981,120.4231
PH,2520,Sudepen,"","","","","","",16.2043,120.5741
PH,2566,Alcoy,"","","","","","",16.2043,120.5741
PH,2600,Baguio City,"","","","","","",16.4164,120.5931
PH,2601,La Trinidad,"","","","","","",16.455,120.5875
PH,2602,Philippine Military Academy,"","","","","","",16.5631,120.7342
PH,2603,"Tuba, including Marcos Highway and Kennon Road","","","","","","",16.5631,120.7342
PH,2604,Itogon,"","","","","","",16.3639,120.6769
PH,2605,Bokod,"","","","","","",16.4956,120.8319
PH,2606,Kabayan,"","","","","","",16.6239,120.8403
PH,2607,Buguias,"","","","","","",16.7225,120.8278
PH,2608,Mankayan,"","","","","","",16.8642,120.7822
PH,2609,"Lepanto, Mankayan","","","","","","",16.5631,120.7342
PH,2610,Bakun,"","","","","","",16.7922,120.6653
PH,2611,Kibungan,"","","","","","",16.6969,120.6594
PH,2612,Atok,"","","","","","",16.5822,120.6986
PH,2613,Kapangan,"","","","","","",16.5864,120.6033
PH,2614,Sablan,"","","","","","",16.4939,120.4953
PH,2615,Tublay,"","","","","","",16.5167,120.6167
PH,2616,Bontoc,"","","","","","",17.0872,120.9756
PH,2617,Sadanga,"","","","","","",17.1742,121.0267
PH,2618,Besao,"","","","","","",17.0975,120.8572
PH,2619,Sagada,"","","","","","",17.0864,120.9067
PH,2620,Tadian,"","","","","","",16.9939,120.8214
PH,2621,Bauko,"","","","","","",16.9892,120.8675
PH,2622,Sabangan,"","","","","","",17.7333,120.4333
PH,2623,Barlig,"","","","","","",17.0411,121.0994
PH,2624,Natonin,"","","","","","",17.1,121.2833
PH,2625,Paracelis,"","","","","","",17.2667,121.4667
PH,2700,Vigan City,"","","","","","",17.2723,120.6089
PH,2701,Santa Catalina,"","","","","","",17.2723,120.6089
PH,2702,Caoayan,"","","","","","",17.5619,120.3975
PH,2703,Santa,"","","","","","",17.4906,120.4372
PH,2704,Narvacan,"","","","","","",17.4217,120.4761
PH,2705,Santa Maria,"","","","","","",17.2723,120.6089
PH,2706,San Esteban,"","","","","","",17.3264,120.4472
PH,2707,Santiago,"","","","","","",16.6881,121.5487
PH,2708,Banayoyo,"","","","","","",17.2333,120.4833
PH,2709,Galimuyod,"","","","","","",17.1844,120.4719
PH,2710,Candon City,"","","","","","",16.3313,120.632
PH,2711,Salcedo,"","","","","","",16.3313,120.632
PH,2712,Santa Lucia,"","","","","","",15.5,120.7833
PH,2713,Santa Cruz,"","","","","","",14.2786,121.4156
PH,2714,Tagudin,"","","","","","",16.0833,119.95
PH,2715,Suyo,"","","","","","",16.9797,120.5267
PH,2716,Alilem,"","","","","","",16.8881,120.5292
PH,2717,Sugpon,"","","","","","",16.8453,120.5169
PH,2718,Cervantes,"","","","","","",16.9917,120.7344
PH,2719,Sigay,"","","","","","",17.0833,120.6
PH,2720,Gregorio del Pilar,"","","","","","",17.1303,120.6119
PH,2721,Quirino,"","","","","","",17.1556,120.67
PH,2722,San Emilio,"","","","","","",17.2261,120.6117
PH,2723,Lidlidda,"","","","","","",17.2719,120.5219
PH,2724,Burgos,"","","","","","",15.7333,120.5833
PH,2725,Nagbukel,"","","","","","",17.445,120.5283
PH,2726,San Vicente,"","","","","","",18.5083,122.1528
PH,2727,Bantay,"","","","","","",17.5847,120.3892
PH,2728,San Ildefonso,"","","","","","",15.0789,120.9419
PH,2729,Santo Domingo,"","","","","","",14.135,122.8692
PH,2730,Magsingal,"","","","","","",17.685,120.4244
PH,2731,San Juan,"","","","","","",17.7422,120.4583
PH,2732,Cabugao,"","","","","","",17.7645,120.447
PH,2733,Sinait,"","","","","","",17.8664,120.4583
PH,2800,Bangued,"","","","","","",17.5978,120.6164
PH,2801,Dolores,"","","","","","",15.0953,120.5289
PH,2802,Lagangilang,"","","","","","",17.6139,120.7403
PH,2803,Tayum,"","","","","","",17.6192,120.6544
PH,2804,Peñarrubia,"","","","","","",17.565,120.6522
PH,2805,Bucay,"","","","","","",17.5381,120.7194
PH,2806,Pidigan,"","","","","","",17.5678,120.5903
PH,2807,Langiden,"","","","","","",17.5833,120.5667
PH,2808,San Quintin,"","","","","","",17.7,120.4333
PH,2809,San Isidro,"","","","","","",15.05,120.75
PH,2810,Manabo,"","","","","","",12.32,122.5794
PH,2811,Villaviciosa,"","","","","","",17.4369,120.6278
PH,2812,Pilar,"","","","","","",14.66,120.5653
PH,2813,Luba,"","","","","","",17.1333,120.4333
PH,2814,Tubo,"","","","","","",17.0339,121.7944
PH,2815,Boliney,"","","","","","",17.4,120.8
PH,2816,Daguioman,"","","","","","",17.4514,120.9156
PH,2817,Bucloc,"","","","","","",17.4431,120.8583
PH,2818,Sallapadan,"","","","","","",16.3598,121.0718
PH,2819,Licuan (Baay),"","","","","","",16.3598,121.0718
PH,2820,Malibcong,"","","","","","",17.5667,120.9833
PH,2821,Lacub,"","","","","","",17.6639,120.945
PH,2822,Tineg,"","","","","","",17.765,120.9289
PH,2823,San Juan,"","","","","","",17.7422,120.4583
PH,2824,Lagayan,"","","","","","",17.7203,120.7078
PH,2825,Danglas,"","","","","","",17.7,120.65
PH,2826,La Paz,"","","","","","",15.4425,120.7286
PH,2900,Laoag City,"","","","","","",18.1989,120.5936
PH,2901,San Nicolas,"","","","","","",18.1725,120.5958
PH,2902,Paoay,"","","","","","",18.0553,120.5161
PH,2903,Currimao,"","","","","","",18.0206,120.4825
PH,2904,Badoc,"","","","","","",17.9278,120.4747
PH,2905,Pinili,"","","","","","",17.9542,120.5272
PH,2906,Batac City,"","","","","","",18.0554,120.5649
PH,2907,Marcos,"","","","","","",18.0533,120.6875
PH,2908,Banna,"","","","","","",17.9819,120.6544
PH,2909,Nueva Era,"","","","","","",17.9181,120.6636
PH,2910,Solsona,"","","","","","",18.0933,120.7697
PH,2911,Carasi,"","","","","","",18.1989,120.8683
PH,2912,Piddig,"","","","","","",18.1589,120.7267
PH,2913,Dingras,"","","","","","",18.1092,120.6928
PH,2914,Sarrat,"","","","","","",18.1622,120.6478
PH,2915,Vintar,"","","","","","",18.2303,120.6425
PH,2916,Bacarra,"","","","","","",18.2533,120.6136
PH,2917,Pasuquin,"","","","","","",18.3331,120.6169
PH,2918,Burgos,"","","","","","",15.7333,120.5833
PH,2919,Pagudpud,"","","","","","",18.5583,120.7847
PH,2920,Bangui,"","","","","","",18.5392,120.7647
PH,2921,Dumalneg,"","","","","","",18.5,120.8167
PH,2922,Adams,"","","","","","",18.4667,120.9
PH,3000,Malolos City,"","","","","","",14.9054,120.8256
PH,3001,Paombong,"","","","","","",14.8311,120.7892
PH,3002,Hagonoy,"","","","","","",14.8325,120.7333
PH,3003,Calumpit,"","","","","","",14.9164,120.7658
PH,3004,Plaridel,"","","","","","",14.8872,120.8572
PH,3005,Pulilan,"","","","","","",14.9017,120.8492
PH,3006,Baliuag,"","","","","","",14.9547,120.8969
PH,3007,Bustos,"","","","","","",14.9581,120.9178
PH,3008,San Rafael,"","","","","","",14.8669,120.5381
PH,3009,Dona Remedios Trinidad,"","","","","","",15,121.0833
PH,3010,San Ildefonso,"","","","","","",15.0789,120.9419
PH,3011,San Miguel,"","","","","","",14.8646,120.9424
PH,3012,Angat,"","","","","","",14.9281,121.0306
PH,3013,Norzagaray,"","","","","","",14.9106,121.0489
PH,3014,Pandi,"","","","","","",14.865,120.9572
PH,3015,Guiguinto,"","","","","","",14.8333,120.8833
PH,3016,Balagtas,"","","","","","",14.8167,120.8667
PH,3017,Bulacan,"","","","","","",14.7928,120.8789
PH,3018,Bocaue,"","","","","","",14.7983,120.9261
PH,3019,Marilao,"","","","","","",14.7578,120.9483
PH,3020,Meycauayan City,"","","","","","",14.7069,120.93
PH,3021,Obando,"","","","","","",14.7069,120.93
PH,3022,Santa Maria,"","","","","","",14.7069,120.93
PH,3023,San Jose del Monte City,"","","","","","",14.7069,120.93
PH,3024,"Sapang Palay, San Jose del Monte City","","","","","","",14.7069,120.93
PH,3100,Cabanatuan City,"","","","","","",15.4869,120.9675
PH,3101,Santa Rosa,"","","","","","",14.3122,121.1114
PH,3102,San Leonardo,"","","","","","",15.3597,120.9614
PH,3103,Peñaranda,"","","","","","",15.3519,121.0033
PH,3104,General Tinio,"","","","","","",15.3492,121.0478
PH,3105,Gapan City,"","","","","","",14.9094,121.3039
PH,3106,San Isidro,"","","","","","",15.05,120.75
PH,3107,Cabiao,"","","","","","",15.2514,120.8572
PH,3108,San Antonio,"","","","","","",12.6958,124.1308
PH,3109,Jaen,"","","","","","",15.3272,120.9058
PH,3110,Zaragoza,"","","","","","",15.1333,120.05
PH,3111,Aliaga,"","","","","","",15.5,120.8444
PH,3112,Licab,"","","","","","",15.5478,120.7642
PH,3113,Quezon,"","","","","","",15.5511,120.8156
PH,3114,Talavera,"","","","","","",15.5844,120.9194
PH,3115,Guimba,"","","","","","",15.6575,120.7686
PH,3116,Nampicuan,"","","","","","",15.7356,120.6417
PH,3117,Cuyapo,"","","","","","",15.7819,120.6647
PH,3118,Talugtog,"","","","","","",14.9417,120.1925
PH,3119,Science City of Muñoz,"","","","","","",15.4926,120.629
PH,3120,Central Luzon State University,"","","","","","",15.7483,121.0795
PH,3121,San Jose City,"","","","","","",15.7483,121.0795
PH,3122,Lupao,"","","","","","",15.8769,120.8992
PH,3123,Carranglan,"","","","","","",15.9606,121.0639
PH,3124,Pantabangan,"","","","","","",15.8114,121.1436
PH,3125,General M. Natividad,"","","","","","",15.7483,121.0795
PH,3126,Llanera,"","","","","","",15.6653,121.0189
PH,3127,Rizal,"","","","","","",15.7086,121.1033
PH,3128,Bongabon,"","","","","","",15.6311,121.1442
PH,3129,Laur,"","","","","","",15.5842,121.1836
PH,3130,Fort Magsaysay,"","","","","","",15.0435,121.7642
PH,3131,Gabaldon,"","","","","","",15.4542,121.3372
PH,3132,Palayan City,"","","","","","",15.5414,121.0861
PH,3133,Santo Domingo,"","","","","","",14.135,122.8692
PH,3200,Baler,"","","","","","",15.7594,121.5608
PH,3201,San Luis,"","","","","","",15.3435,122.0315
PH,3202,Maria Aurora,"","","","","","",15.7956,121.4767
PH,3203,Dipaculao,"","","","","","",15.8467,121.5358
PH,3204,Casiguran,"","","","","","",12.8736,124.0097
PH,3205,Dilasag,"","","","","","",16.3975,122.2131
PH,3206,Dinalungan,"","","","","","",15.3435,122.0315
PH,3207,Dingalan,"","","","","","",15.3881,121.3928
PH,3300,Ilagan,"","","","","","",17.1481,121.8908
PH,3301,Gamu,"","","","","","",17.0508,121.8328
PH,3302,Naguillan,"","","","","","",16.9117,121.7826
PH,3303,Reina Mercedes,"","","","","","",16.9856,121.8256
PH,3304,Luna,"","","","","","",16.9725,121.7303
PH,3305,Cauayan City,"","","","","","",16.9117,121.7826
PH,3306,Alicia,"","","","","","",16.9117,121.7826
PH,3307,Angadanan,"","","","","","",16.7558,121.7506
PH,3308,San Guillermo,"","","","","","",16.7667,121.8
PH,3309,Echague,"","","","","","",16.7025,121.6483
PH,3310,San Isidro,"","","","","","",15.05,120.75
PH,3311,Santiago City,"","","","","","",15.9071,121.2395
PH,3312,Cordon,"","","","","","",16.6661,121.4511
PH,3313,Jones,"","","","","","",16.5578,121.7067
PH,3314,San Agustin,"","","","","","",13.2786,121.3031
PH,3315,Cabatuan,"","","","","","",16.1167,120.0167
PH,3316,Aurora,"","","","","","",16.9919,121.6372
PH,3317,San Manuel (Callang),"","","","","","",17.0225,121.6353
PH,3318,San Mateo,"","","","","","",14.6969,121.1219
PH,3319,Ramon,"","","","","","",16.7833,121.5333
PH,3320,Roxas,"","","","","","",16.1965,121.2853
PH,3321,Quirino,"","","","","","",17.1556,120.67
PH,3322,Burgos,"","","","","","",15.7333,120.5833
PH,3323,Mallig,"","","","","","",17.1411,121.6831
PH,3324,Quezon,"","","","","","",15.5511,120.8156
PH,3325,Tumauini,"","","","","","",17.2744,121.8078
PH,3326,Delfin Albano,"","","","","","",17.3103,121.7775
PH,3327,Santo Tomas,"","","","","","",14.1092,121.1419
PH,3328,Cabagan,"","","","","","",17.4261,121.7625
PH,3329,San Pablo,"","","","","","",14.0669,121.3258
PH,3330,Santa Maria,"","","","","","",17.0251,122.1958
PH,3331,Benito Soliven,"","","","","","",16.9833,121.95
PH,3332,San Mariano,"","","","","","",16.9833,122.0161
PH,3333,Maconacon,"","","","","","",17.4333,122.2333
PH,3334,Palanan,"","","","","","",17.0589,122.4297
PH,3335,Divilacan,"","","","","","",17.0251,122.1958
PH,3336,Dinapigui,"","","","","","",16.6667,122.35
PH,3400,Cabarroguis,"","","","","","",16.5833,121.5
PH,3401,Diffun,"","","","","","",16.6,121.5
PH,3402,Saguday,"","","","","","",16.5189,121.6081
PH,3403,Aglipay,"","","","","","",16.4664,121.6528
PH,3404,Maddela,"","","","","","",16.3472,121.6931
PH,3405,Nagtipunan,"","","","","","",16.2167,121.6
PH,3500,Tuguegarao City,"","","","","","",17.6131,121.7269
PH,3501,Enrile,"","","","","","",17.5583,121.6975
PH,3502,Peñablanca,"","","","","","",17.6278,121.7878
PH,3503,Solana,"","","","","","",17.6553,121.6894
PH,3504,Iguig,"","","","","","",17.7528,121.7383
PH,3505,Amulung,"","","","","","",17.8381,121.7256
PH,3506,Baggao,"","","","","","",18.2667,121.7333
PH,3507,Alcala,"","","","","","",17.9053,121.6544
PH,3508,Gattaran,"","","","","","",18.0631,121.6439
PH,3509,Lal-Lo,"","","","","","",18.1983,121.665
PH,3510,Camalaniugan,"","","","","","",18.2744,121.6736
PH,3511,Buguey,"","","","","","",18.2914,121.8286
PH,3512,Santa Teresita,"","","","","","",18.25,121.8833
PH,3513,Gonzaga,"","","","","","",18.2667,122
PH,3514,Santa Ana,"","","","","","",15.0944,120.7678
PH,3515,Aparri,"","","","","","",18.3561,121.6408
PH,3516,Ballesteros,"","","","","","",18.4064,121.515
PH,3517,Abulug,"","","","","","",18.4453,121.4533
PH,3518,Sanchez-Mira,"","","","","","",18.5658,121.2306
PH,3519,Claveria,"","","","","","",18.6075,121.085
PH,3520,Calayan,"","","","","","",19.2642,121.4797
PH,3521,Santa Praxedes,"","","","","","",18.5667,121
PH,3522,Pamplona,"","","","","","",17.7656,121.384
PH,3523,Allacapan,"","","","","","",18.25,121.5833
PH,3524,Lasam,"","","","","","",18.0669,121.5997
PH,3525,Santo Niño,"","","","","","",17.8883,121.5714
PH,3526,Rizal,"","","","","","",15.7086,121.1033
PH,3527,Piat,"","","","","","",17.7914,121.4764
PH,3528,Tuao,"","","","","","",16.5883,121.2578
PH,3600,Lagawe,"","","","","","",16.8167,121.1
PH,3601,Banaue,"","","","","","",16.9186,121.0592
PH,3602,Mayoyao,"","","","","","",16.9708,121.2225
PH,3603,Hungduan,"","","","","","",16.8342,121.0036
PH,3604,Kiangan,"","","","","","",16.7775,121.0833
PH,3605,Lamut,"","","","","","",16.6497,121.225
PH,3606,Aguinaldo,"","","","","","",16.8126,121.0888
PH,3607,Hingyon,"","","","","","",16.8333,121.1167
PH,3608,Alfonso Lista,"","","","","","",16.8126,121.0888
PH,3609,Tinoc,"","","","","","",16.7,120.9
PH,3610,Asipulo,"","","","","","",16.8126,121.0888
PH,3700,Bayombong,"","","","","","",16.4828,121.1525
PH,3701,Ambaguio,"","","","","","",17.1214,120.8453
PH,3702,Bambang,"","","","","","",14.1333,121.4167
PH,3703,Kasibu,"","","","","","",16.3167,121.2833
PH,3704,Aritao,"","","","","","",16.2983,121.0408
PH,3705,Santa Fe (Imugan),"","","","","","",16.1941,121.1102
PH,3706,Dupax del Norte,"","","","","","",16.2864,121.0942
PH,3707,Dupax del Sur,"","","","","","",16.2833,121.1
PH,3708,Kayapa,"","","","","","",16.3,120.8667
PH,3709,Solano,"","","","","","",16.5244,121.1922
PH,3710,Villa Verde (Ibung),"","","","","","",16.1296,121.1683
PH,3711,Bagabag,"","","","","","",16.5,121.1833
PH,3712,Diadi,"","","","","","",16.6636,121.3681
PH,3714,Quezon,"","","","","","",15.5511,120.8156
PH,3714,Alfonso Castañeda,"","","","","","",15.8036,121.3061
PH,3800,Tabuk City,"","","","","","",17.5351,121.2858
PH,3801,Balbalan,"","","","","","",17.4414,121.2019
PH,3802,Lubuagan,"","","","","","",17.3567,121.1767
PH,3803,Pasil,"","","","","","",17.5351,121.2858
PH,3804,Tinglayan,"","","","","","",17.2761,121.1625
PH,3805,Tanudan,"","","","","","",17.2956,121.2378
PH,3806,Pinukpuk,"","","","","","",17.5722,121.3633
PH,3807,Conner,"","","","","","",17.7964,121.3275
PH,3808,Liwan (Rizal),"","","","","","",17.5206,121.6325
PH,3809,Kabugao,"","","","","","",18.0217,121.1842
PH,3810,Flora,"","","","","","",18.2333,121.4167
PH,3811,Santa Marcela,"","","","","","",18.2833,121.4333
PH,3812,Pudtol,"","","","","","",18.2447,121.3706
PH,3813,Luna,"","","","","","",16.9725,121.7303
PH,3814,Calanasan (Bayag),"","","","","","",18.255,121.0344
PH,3900,Basco,"","","","","","",20.45,121.9697
PH,3901,Mahatao,"","","","","","",20.4172,121.9475
PH,3902,Ivana,"","","","","","",20.3706,121.9144
PH,3903,Uyugan,"","","","","","",20.3517,121.9386
PH,3904,Sabtang,"","","","","","",20.3325,121.8725
PH,3905,Itbayat,"","","","","","",20.7869,121.8419
PH,4000,San Pablo City,"","","","","","",14.0669,121.3258
PH,4001,Alaminos,"","","","","","",16.1561,119.9811
PH,4002,Nagcarlan,"","","","","","",14.1367,121.4161
PH,4003,Rizal,"","","","","","",15.7086,121.1033
PH,4004,Liliw,"","","","","","",14.1319,121.4356
PH,4005,Majayjay,"","","","","","",14.1456,121.4703
PH,4006,"Botocan, Magdalena","","","","","","",14.5662,121.2257
PH,4007,Magdalena,"","","","","","",14.1989,121.4294
PH,4008,Pagsanjan,"","","","","","",14.2728,121.4542
PH,4009,Santa Cruz,"","","","","","",14.2786,121.4156
PH,4010,Pila,"","","","","","",14.2331,121.3639
PH,4011,Victoria,"","","","","","",14.2269,121.3275
PH,4012,Calauan,"","","","","","",14.1456,121.315
PH,4013,Cavinti,"","","","","","",14.2439,121.5097
PH,4014,Lumban,"","","","","","",14.2981,121.4597
PH,4015,Kalayaan,"","","","","","",14.35,121.5667
PH,4016,Paete,"","","","","","",14.3628,121.4836
PH,4017,Pakil,"","","","","","",14.3822,121.4794
PH,4018,Pangil,"","","","","","",14.4031,121.4661
PH,4019,Siniloan,"","","","","","",14.4225,121.4447
PH,4020,Mabitac,"","","","","","",14.4275,121.4267
PH,4021,Famy,"","","","","","",14.4369,121.4478
PH,4022,Santa Maria,"","","","","","",14.3769,121.2637
PH,4023,San Pedro,"","","","","","",14.3647,121.0556
PH,4024,Biñan City,"","","","","","",14.3769,121.2637
PH,4025,Cabuyao,"","","","","","",14.2783,121.1247
PH,4026,Santa Rosa City,"","","","","","",14.3769,121.2637
PH,4027,Calamba City,"","","","","","",14.3769,121.2637
PH,4028,"Canlubang, Calamba City","","","","","","",14.3769,121.2637
PH,4029,Camp Vicente Lim,"","","","","","",14.3769,121.2637
PH,4030,Los Baños,"","","","","","",14.1789,121.2256
PH,4031,"University of the Philippines, Los Baños","","","","","","",14.1818,121.3406
PH,4032,Luisiana,"","","","","","",14.1836,121.5117
PH,4033,Bay,"","","","","","",14.1828,121.2847
PH,4100,Cavite City,"","","","","","",14.4825,120.9169
PH,4101,Sangley Point Naval Base,"","","","","","",14.3675,120.9527
PH,4102,Bacoor,"","","","","","",14.4578,120.9425
PH,4103,Imus,"","","","","","",14.4297,120.9367
PH,4104,Kawit,"","","","","","",14.4456,120.905
PH,4105,Noveleta,"","","","","","",14.4319,120.8803
PH,4106,Rosario,"","","","","","",13.63,121.2197
PH,4107,General Trias,"","","","","","",14.3869,120.8817
PH,4108,Tanza,"","","","","","",14.6753,120.9389
PH,4109,Trece Martires City,"","","","","","",14.3675,120.9527
PH,4110,Naic,"","","","","","",14.3203,120.7675
PH,4111,Ternate,"","","","","","",14.2856,120.7189
PH,4112,Maragondon,"","","","","","",14.2733,120.7383
PH,4113,Magallanes,"","","","","","",12.8292,123.8364
PH,4114,Dasmariñas,"","","","","","",14.3294,120.9367
PH,4115,Dasmarinas Resettlement Area,"","","","","","",14.0939,121.2439
PH,4116,Carmona,"","","","","","",14.3119,121.0544
PH,4117,General Mariano Alvarez,"","","","","","",14.0939,121.2439
PH,4118,Silang,"","","","","","",14.2306,120.975
PH,4119,Amadeo,"","","","","","",14.1706,120.9236
PH,4120,Tagaytay City,"","","","","","",14.1031,120.9328
PH,4121,Mendez,"","","","","","",14.1286,120.9058
PH,4122,Indang,"","","","","","",14.1953,120.8769
PH,4123,Alfonso,"","","","","","",14.1408,120.8539
PH,4124,General Emilio Aguinaldo,"","","","","","",14.1842,120.7958
PH,4125,Corregidor Island,"","","","","","",14.1504,120.8731
PH,4133,Bailen,"","","","","","",14.1842,120.7958
PH,4200,Batangas City,"","","","","","",13.7594,121.06
PH,4201,Bauan,"","","","","","",13.8019,121.0131
PH,4202,Mabini,"","","","","","",16.0706,119.935
PH,4203,Tingloy,"","","","","","",13.6569,120.8717
PH,4204,San Pascual,"","","","","","",16.3403,120.4211
PH,4205,Alitagtag,"","","","","","",13.865,121.0053
PH,4206,Santa Teresita,"","","","","","",18.25,121.8833
PH,4207,San Nicolas,"","","","","","",18.1725,120.5958
PH,4208,Taal,"","","","","","",13.8794,120.9253
PH,4209,Lemery,"","","","","","",11.2267,122.925
PH,4210,San Luis,"","","","","","",8.4894,125.725
PH,4211,Agoncillo,"","","","","","",13.935,120.9367
PH,4212,Calaca,"","","","","","",13.9311,120.8144
PH,4213,Balayan,"","","","","","",13.9403,120.7336
PH,4214,Tuy,"","","","","","",14.0103,120.7272
PH,4215,Calatagan,"","","","","","",13.8306,120.635
PH,4216,Lian,"","","","","","",14.0364,120.6511
PH,4217,Lipa City,"","","","","","",13.9394,121.1739
PH,4218,Fernando Airbase,"","","","","","",13.3479,121.3884
PH,4219,Balete,"","","","","","",14.0186,121.0983
PH,4220,Talisay,"","","","","","",10.2447,123.8494
PH,4221,Laurel,"","","","","","",14.0544,120.9425
PH,4222,Cuenca,"","","","","","",13.8989,121.0461
PH,4223,Mataas na Kahoy,"","","","","","",15.6094,121.0189
PH,4224,Padre Garcia,"","","","","","",13.8783,121.2153
PH,4225,Rosario,"","","","","","",13.63,121.2197
PH,4226,San Juan,"","","","","","",17.7422,120.4583
PH,4227,San Jose,"","","","","","",11.1808,122.9125
PH,4228,Taysan,"","","","","","",13.8658,121.0739
PH,4229,Lobo,"","","","","","",13.6458,121.21
PH,4230,Ibaan,"","","","","","",13.82,121.135
PH,4231,Nasugbu,"","","","","","",14.0739,120.6336
PH,4232,Tanauan City,"","","","","","",14.0119,121.0173
PH,4233,Malvar,"","","","","","",14.0447,121.1586
PH,4234,Santo Tomas,"","","","","","",14.1092,121.1419
PH,4300,"Provincial Capitol, Lucena City","","","","","","",13.5374,122.2309
PH,4301,Lucena City,"","","","","","",13.9314,121.6172
PH,4302,Pagbilao,"","","","","","",13.975,121.6919
PH,4303,Padre Burgos,"","","","","","",13.9203,121.8144
PH,4304,Agdangan,"","","","","","",13.4958,123.3253
PH,4305,Unisan,"","","","","","",13.8392,121.9783
PH,4306,Plaridel,"","","","","","",14.8872,120.8572
PH,4307,Gumaca,"","","","","","",13.9197,122.1003
PH,4308,Pitogo,"","","","","","",10.1208,124.5544
PH,4309,Macalelon,"","","","","","",13.7469,122.1386
PH,4310,General Antonio Luna,"","","","","","",13.4599,121.9595
PH,4311,Catanauan,"","","","","","",13.5919,122.3231
PH,4312,Mulanay,"","","","","","",13.5222,122.4042
PH,4313,San Narciso,"","","","","","",15.0158,120.0789
PH,4314,San Andres,"","","","","","",13.26,123.78
PH,4315,San Francisco (Aurora),"","","","","","",13.3481,122.5206
PH,4316,Lopez,"","","","","","",13.8844,122.2642
PH,4317,Hondagua,"","","","","","",13.9469,122.2431
PH,4318,Calauag,"","","","","","",10.6692,119.5697
PH,4319,Guinayangan,"","","","","","",13.9006,122.4519
PH,4320,Buenavista,"","","","","","",14.5032,121.7588
PH,4321,Tagkawayan,"","","","","","",13.9689,122.5294
PH,4322,Sariaya,"","","","","","",13.9644,121.53
PH,4323,Candelaria,"","","","","","",13.9311,121.4233
PH,4324,San Antonio,"","","","","","",12.6958,124.1308
PH,4325,Tiaong,"","","","","","",13.9536,121.3161
PH,4326,Dolores,"","","","","","",15.0953,120.5289
PH,4327,Tayabas,"","","","","","",14.0289,121.5911
PH,4328,Lucban,"","","","","","",18.3333,121.4333
PH,4329,Sampaloc,"","","","","","",14.5578,121.3461
PH,4330,Mauban,"","","","","","",14.1911,121.7311
PH,4331,Atimonan,"","","","","","",13.9958,121.905
PH,4332,Quezon,"","","","","","",15.5511,120.8156
PH,4333,Alabat,"","","","","","",14.1028,122.0153
PH,4334,Perez,"","","","","","",14.195,121.9231
PH,4335,Real,"","","","","","",15.81,120.3478
PH,4336,Infanta,"","","","","","",15.8253,119.9069
PH,4337,Panukulan,"","","","","","",14.9333,121.8144
PH,4338,General Nakar,"","","","","","",14.7631,121.635
PH,4339,Polilio,"","","","","","",14.8186,121.3438
PH,4340,Burdeos,"","","","","","",14.8436,121.9697
PH,4341,Patnanungan,"","","","","","",14.7833,122.1833
PH,4342,Jomalig,"","","","","","",14.7125,122.3697
PH,4400,Naga City,"","","","","","",13.6192,123.1814
PH,4401,Camaligan,"","","","","","",13.6264,123.1572
PH,4402,Canaman,"","","","","","",13.65,123.1667
PH,4403,Magarao,"","","","","","",13.66,123.1833
PH,4404,Bombon,"","","","","","",13.6822,123.2014
PH,4405,Calabanga,"","","","","","",13.7083,123.2206
PH,4406,Cabusao,"","","","","","",13.7217,123.1069
PH,4407,Libmanan,"","","","","","",13.6961,123.0592
PH,4408,Sipocot,"","","","","","",13.7703,122.9811
PH,4409,Lupi,"","","","","","",13.7911,122.9169
PH,4410,Ragay,"","","","","","",13.82,122.7908
PH,4411,Del Gallego,"","","","","","",13.9217,122.5961
PH,4412,Gainza,"","","","","","",13.6144,123.1425
PH,4413,Milaor,"","","","","","",13.5967,123.1808
PH,4414,Minalabac,"","","","","","",13.5694,123.1869
PH,4415,San Fernando,"","","","","","",15.0303,120.6856
PH,4416,Pamplona,"","","","","","",9.4711,123.115
PH,4417,Pasacao,"","","","","","",13.5144,123.0433
PH,4418,Pili,"","","","","","",11.1139,123.0161
PH,4419,Ocampo,"","","","","","",13.5614,123.3761
PH,4420,Tigaon,"","","","","","",13.6353,123.4947
PH,4421,Sagnay,"","","","","","",13.6042,123.52
PH,4422,Goa,"","","","","","",13.6969,123.4933
PH,4423,San Jose,"","","","","","",11.1808,122.9125
PH,4424,Presentacion,"","","","","","",13.7097,123.7442
PH,4425,Lagonoy,"","","","","","",13.7386,123.5206
PH,4426,Tinambac,"","","","","","",13.8175,123.3253
PH,4427,Siruma,"","","","","","",14,123.25
PH,4428,Garchitorena,"","","","","","",13.8797,123.6967
PH,4429,Caramoan,"","","","","","",13.7731,123.8647
PH,4430,Bula,"","","","","","",13.4717,123.2817
PH,4431,Iriga City,"","","","","","",13.425,123.4178
PH,4432,Baao,"","","","","","",13.4564,123.3642
PH,4433,Buhi,"","","","","","",13.4283,123.52
PH,4434,Nabua,"","","","","","",13.4014,123.3764
PH,4435,Bato,"","","","","","",13.3556,123.3636
PH,4436,Balatan,"","","","","","",13.3211,123.2333
PH,4500,Legazpi City,"","","","","","",13.1372,123.7344
PH,4501,Daraga (Locsin),"","","","","","",13.1625,123.6936
PH,4502,Camalig,"","","","","","",14.7758,120.9958
PH,4503,Guinobatan,"","","","","","",12.4694,123.4031
PH,4504,Ligao City,"","","","","","",13.4417,123.1396
PH,4505,Oas,"","","","","","",13.2589,123.4953
PH,4506,Polangui,"","","","","","",13.2944,123.4872
PH,4507,Libon,"","","","","","",13.3006,123.4383
PH,4508,Santo Domingo,"","","","","","",14.135,122.8692
PH,4510,Malilipot,"","","","","","",13.3211,123.7403
PH,4511,Tabaco City,"","","","","","",13.3604,123.4747
PH,4512,Malinao,"","","","","","",14,121.8333
PH,4513,Tiwi,"","","","","","",13.4589,123.6828
PH,4514,Manito,"","","","","","",13.1239,123.8672
PH,4515,Jovellar,"","","","","","",13.0708,123.5978
PH,4516,Pio Duran (Malacbalac),"","","","","","",13.3604,123.4747
PH,4517,Rapu-Rapu,"","","","","","",13.1875,124.1267
PH,4532,Alegria,"","","","","","",9.4669,125.5772
PH,4600,Daet,"","","","","","",14.1128,122.9558
PH,4601,Mercedes,"","","","","","",14.1106,123.0125
PH,4602,Talisay,"","","","","","",10.2447,123.8494
PH,4603,Vinzons,"","","","","","",14.1781,122.9072
PH,4604,Labo,"","","","","","",14.1608,122.8286
PH,4605,Paracale,"","","","","","",14.2772,122.7847
PH,4606,Jose Panganiban,"","","","","","",14.2967,122.6939
PH,4607,Capalonga,"","","","","","",14.3297,122.4933
PH,4608,Basud,"","","","","","",14.0664,122.9642
PH,4609,San Vicente,"","","","","","",18.5083,122.1528
PH,4610,Imelda / San Lorenzo Ruiz,"","","","","","",14.0919,122.7911
PH,4611,Santa Elena,"","","","","","",14.0919,122.7911
PH,4612,Tulay-na-Lupa,"","","","","","",14.0919,122.7911
PH,4700,Sorsogon,"","","","","","",12.9739,123.9933
PH,4701,Bacon,"","","","","","",13.0378,124.0411
PH,4702,Casiguran,"","","","","","",12.8736,124.0097
PH,4703,Juban,"","","","","","",12.8478,123.9878
PH,4704,Bulusan,"","","","","","",12.7581,124.1353
PH,4705,Magallanes,"","","","","","",12.8292,123.8364
PH,4706,Bulan,"","","","","","",12.6714,123.875
PH,4707,Irosin,"","","","","","",12.7014,124.0386
PH,4708,Matnog,"","","","","","",12.5844,124.0839
PH,4709,Santa Magdalena,"","","","","","",12.6478,124.1058
PH,4710,Gubat,"","","","","","",12.9206,124.1231
PH,4711,Prieto Diaz,"","","","","","",13.0417,124.1939
PH,4712,Barcelona,"","","","","","",13.7731,123.0469
PH,4713,Castilla,"","","","","","",12.9486,123.8822
PH,4714,Pilar,"","","","","","",14.66,120.5653
PH,4715,Donsol,"","","","","","",12.9083,123.5981
PH,4800,Virac,"","","","","","",13.5786,124.2306
PH,4801,Bato,"","","","","","",13.3556,123.3636
PH,4802,San Miguel,"","","","","","",9.9881,124.3389
PH,4803,Baras,"","","","","","",14.5217,121.2667
PH,4804,Gigmoto,"","","","","","",13.7794,124.3897
PH,4805,Viga,"","","","","","",13.8728,124.3072
PH,4806,Panganiban,"","","","","","",13.9086,124.2994
PH,4807,Bagamanoc,"","","","","","",13.9408,124.2858
PH,4808,Caramoran,"","","","","","",13.9853,124.1336
PH,4809,Pandan,"","","","","","",14.0461,124.17
PH,4810,San Andres,"","","","","","",13.26,123.78
PH,4900,Boac,"","","","","","",13.4492,121.8372
PH,4901,Mogpog,"","","","","","",13.4744,121.8614
PH,4902,Santa Cruz,"","","","","","",14.2786,121.4156
PH,4903,Torrijos,"","","","","","",13.3203,122.0872
PH,4904,Buenavista,"","","","","","",13.5689,121.8097
PH,4905,Gasan,"","","","","","",13.3222,121.8469
PH,5000,Iloilo City,"","","","","","",10.6969,122.5644
PH,5001,Pavia,"","","","","","",10.7761,122.5456
PH,5002,Santa Barbara,"","","","","","",10.7356,122.9248
PH,5003,Leganes,"","","","","","",10.7872,122.5892
PH,5004,Zarraga,"","","","","","",10.8197,122.6081
PH,5005,New Lucena,"","","","","","",10.8794,122.5983
PH,5006,Dumangas,"","","","","","",10.8253,122.7156
PH,5007,Barotoc Nuevo,"","","","","","",10.7356,122.9248
PH,5008,Pototan,"","","","","","",10.9431,122.6353
PH,5009,Anilao,"","","","","","",10.1572,125.1419
PH,5010,Banate,"","","","","","",12.95,123.6833
PH,5011,Barotoc Viejo,"","","","","","",11.9388,122.9757
PH,5012,Ajuy,"","","","","","",11.1683,123.0181
PH,5013,Concepcion,"","","","","","",15.3253,120.6569
PH,5014,Sara,"","","","","","",11.2572,123.0189
PH,5015,San Dionisio,"","","","","","",11.27,123.0936
PH,5016,Batad,"","","","","","",10.9856,123.9336
PH,5017,Estancia,"","","","","","",11.4503,123.1525
PH,5018,Balasan,"","","","","","",11.4694,123.0886
PH,5019,Carles,"","","","","","",11.5728,123.1358
PH,5020,Oton,"","","","","","",10.6931,122.4736
PH,5021,Tigbauan,"","","","","","",10.6736,122.3764
PH,5022,Guimbal,"","","","","","",10.6631,122.3208
PH,5023,Miagao,"","","","","","",10.645,122.2403
PH,5024,San Joaquin,"","","","","","",15.0944,120.7678
PH,5025,San Miguel,"","","","","","",9.9881,124.3389
PH,5026,Leon,"","","","","","",10.7819,122.3883
PH,5027,Tubungan,"","","","","","",10.7644,122.3181
PH,5028,Alimodian,"","","","","","",10.8214,122.4311
PH,5029,Igbaras,"","","","","","",10.7167,122.265
PH,5030,Maasin,"","","","","","",10.1336,124.8447
PH,5031,Cabatuan,"","","","","","",11.2985,122.6378
PH,5032,Mina,"","","","","","",10.9325,122.5783
PH,5033,Badiangan,"","","","","","",11.0167,122.5
PH,5034,Janiuay,"","","","","","",10.95,122.5064
PH,5035,Dingle,"","","","","","",11.0056,122.6683
PH,5036,San Enrique,"","","","","","",10.4167,122.85
PH,5037,Passi City,"","","","","","",11.2985,122.6378
PH,5038,Duenas,"","","","","","",11.0658,122.6169
PH,5039,San Rafael,"","","","","","",14.8669,120.5381
PH,5040,Calinog,"","","","","","",11.1167,122.5667
PH,5041,Bingawan,"","","","","","",11.2331,122.5703
PH,5042,Lambunao,"","","","","","",11.055,122.4756
PH,5043,Lemery,"","","","","","",11.2267,122.925
PH,5044,Buenavista,"","","","","","",8.9769,125.4089
PH,5045,Jordan,"","","","","","",10.6558,122.5922
PH,5046,Nueva Valencia,"","","","","","",10.5217,122.5267
PH,5047,San Lorenzo,"","","","","","",10.6837,123.0093
PH,5048,Sibunag,"","","","","","",10.6837,123.0093
PH,5100,San Jose,"","","","","","",11.1808,122.9125
PH,5101,Magsaysay,"","","","","","",17.3103,121.7775
PH,5102,Calintaan,"","","","","","",12.5667,120.9333
PH,5103,Rizal,"","","","","","",15.7086,121.1033
PH,5104,Sablayan,"","","","","","",12.8378,120.7714
PH,5105,Santa Cruz,"","","","","","",14.2786,121.4156
PH,5106,Mamburao,"","","","","","",13.2281,120.5936
PH,5107,Paluan,"","","","","","",13.4181,120.4672
PH,5108,Abra de Ilog,"","","","","","",13.45,120.7333
PH,5109,Lubang,"","","","","","",13.8578,120.1233
PH,5110,Tilik,"","","","","","",13.8194,120.2022
PH,5111,Looc,"","","","","","",14.1597,120.6564
PH,5200,Calapan,"","","","","","",13.4192,121.1925
PH,5201,Baco,"","","","","","",13.3597,121.0978
PH,5202,San Teodoro,"","","","","","",13.4364,121.0172
PH,5203,Puerto Galera,"","","","","","",13.5,120.9542
PH,5204,Naujan,"","","","","","",13.3222,121.3022
PH,5205,Victoria,"","","","","","",14.2269,121.3275
PH,5206,Pola,"","","","","","",13.1439,121.44
PH,5207,Socorro,"","","","","","",13.0583,121.4117
PH,5208,Pinamalayan,"","","","","","",13.0356,121.4886
PH,5209,Gloria,"","","","","","",12.9833,121.4667
PH,5210,Bansud,"","","","","","",12.865,121.4564
PH,5211,Bongabon,"","","","","","",15.6311,121.1442
PH,5212,Roxas,"","","","","","",11.5853,122.7511
PH,5213,Mansalay,"","","","","","",12.5203,121.4394
PH,5214,Bulalacao,"","","","","","",12.3256,121.3436
PH,5300,Puerto Princesa,"","","","","","",9.7392,118.7353
PH,5301,Iwahig Penal Colony,"","","","","","",9.7503,118.6617
PH,5302,Aborlan,"","","","","","",9.4331,118.5564
PH,5303,Narra (Panacan),"","","","","","",9.1132,118.1271
PH,5304,Quezon,"","","","","","",9.1132,118.1271
PH,5305,Brooke's Point,"","","","","","",9.1132,118.1271
PH,5306,Bataraza,"","","","","","",8.6617,117.6222
PH,5307,Balabac,"","","","","","",7.9819,117.06
PH,5308,Roxas,"","","","","","",9.1132,118.1271
PH,5309,San Vicente,"","","","","","",9.1132,118.1271
PH,5310,Dumaran,"","","","","","",10.5264,119.7686
PH,5311,Araceli,"","","","","","",10.5561,119.9928
PH,5312,Taytay,"","","","","","",14.5692,121.1325
PH,5313,El Nido,"","","","","","",11.1858,119.3956
PH,5314,Linapacan,"","","","","","",11.4944,119.8672
PH,5315,Culion,"","","","","","",11.8889,120.0203
PH,5316,Coron,"","","","","","",11.9986,120.2058
PH,5317,Busuanga,"","","","","","",12.2108,119.8933
PH,5318,Cuyo,"","","","","","",10.8525,121.0086
PH,5319,Magsaysay,"","","","","","",11.6981,120.1427
PH,5320,Agutaya,"","","","","","",11.1486,120.9422
PH,5321,Cagayancillo,"","","","","","",9.5769,121.2072
PH,5322,Kalayaan,"","","","","","",14.35,121.5667
PH,5400,Masbate City,"","","","","","",11.8092,123.8355
PH,5401,Mobo,"","","","","","",12.3381,123.6589
PH,5402,Uson,"","","","","","",12.2278,123.7833
PH,5403,Dimasalang,"","","","","","",12.1911,123.8592
PH,5404,Palanas,"","","","","","",12.145,123.9211
PH,5405,Cataingan,"","","","","","",12.0028,123.9797
PH,5406,Pio V. Corpuz,"","","","","","",11.9006,124.0328
PH,5407,Esperanza,"","","","","","",11.8092,123.8355
PH,5408,Placer,"","","","","","",11.8667,123.9181
PH,5409,Cawayan,"","","","","","",9.8017,123.5308
PH,5410,Milagros,"","","","","","",12.2203,123.4867
PH,5411,Mandaon,"","","","","","",12.2267,123.2836
PH,5412,Balud,"","","","","","",12.0386,123.1944
PH,5413,Baleno,"","","","","","",12.4706,123.4764
PH,5414,Aroroy,"","","","","","",12.5111,123.3978
PH,5415,Batuan,"","","","","","",12.4225,123.7797
PH,5416,San Fernando,"","","","","","",15.0303,120.6856
PH,5417,San Jacinto,"","","","","","",16.0725,120.4411
PH,5418,Monreal,"","","","","","",12.6431,123.6747
PH,5419,Claveria,"","","","","","",18.6075,121.085
PH,5420,San Pascual,"","","","","","",16.3403,120.4211
PH,5421,Buenavista,"","","","","","",8.9769,125.4089
PH,5456,Bugasong,"","","","","","",11.0433,122.0661
PH,5500,Romblon,"","","","","","",12.5761,122.2711
PH,5501,San Agustin,"","","","","","",13.2786,121.3031
PH,5502,Imelda,"","","","","","",14.0333,122.8833
PH,5503,Calatrava,"","","","","","",12.6206,122.0714
PH,5504,San Andres,"","","","","","",13.26,123.78
PH,5505,Odiongan,"","","","","","",12.4017,121.9919
PH,5506,Ferrol,"","","","","","",12.3383,121.9414
PH,5507,Looc,"","","","","","",14.1597,120.6564
PH,5508,Santa Fe,"","","","","","",12.1561,121.9956
PH,5509,Alcantara,"","","","","","",12.2667,122.05
PH,5510,San Jose,"","","","","","",11.1808,122.9125
PH,5511,Magdiwang,"","","","","","",12.4903,122.5125
PH,5512,Cajidiocan,"","","","","","",12.3706,122.6867
PH,5513,San Fernando,"","","","","","",15.0303,120.6856
PH,5514,Corcuera,"","","","","","",12.7858,122.0467
PH,5515,Banton (Jones),"","","","","","",12.9492,122.0975
PH,5516,Concepcion,"","","","","","",15.3253,120.6569
PH,5600,Kalibo,"","","","","","",6.3506,124.8189
PH,5601,Banga,"","","","","","",6.4239,124.7783
PH,5602,Libacao,"","","","","","",11.4819,122.3039
PH,5603,Madalag,"","","","","","",10.8992,122.9836
PH,5604,Numancia,"","","","","","",11.7019,122.3294
PH,5605,Lezo,"","","","","","",11.6664,122.3261
PH,5606,Malinao,"","","","","","",14,121.8333
PH,5607,Nabas,"","","","","","",11.8333,122.0825
PH,5608,Malay,"","","","","","",10.6888,122.8161
PH,5609,Buruanga,"","","","","","",11.8419,121.8889
PH,5610,New Washington,"","","","","","",11.6489,122.4331
PH,5611,Makato,"","","","","","",11.7167,122.2833
PH,5612,Tangalan,"","","","","","",11.7761,122.26
PH,5613,Ibajay,"","","","","","",11.82,122.1611
PH,5614,Balete,"","","","","","",14.0186,121.0983
PH,5615,Batan,"","","","","","",11.5853,122.4964
PH,5616,Altavas,"","","","","","",11.5369,122.4864
PH,5700,San Jose,"","","","","","",11.1808,122.9125
PH,5701,Belison,"","","","","","",10.8403,121.9561
PH,5702,Patnongon,"","","","","","",10.9178,121.9825
PH,5703,Valderrama,"","","","","","",11.405,122.0822
PH,5705,Laua-an,"","","","","","",11.1431,122.0417
PH,5706,Barbaza,"","","","","","",11.1986,122.0372
PH,5707,Tibiao,"","","","","","",11.2883,122.0353
PH,5708,Culasi,"","","","","","",11.4244,122.0564
PH,5709,Sebaste,"","","","","","",11.5872,122.0936
PH,5710,Libertad,"","","","","","",8.9442,125.5019
PH,5711,Caluya,"","","","","","",11.9358,121.5578
PH,5712,Pandan,"","","","","","",14.0461,124.17
PH,5713,Sibalom,"","","","","","",10.7883,122.0197
PH,5714,San Remigio,"","","","","","",10.8333,122.1
PH,5715,Hamtic,"","","","","","",10.7022,121.9717
PH,5716,Tobias Fornier (Dao),"","","","","","",10.5092,121.9472
PH,5717,Anini-y,"","","","","","",10.4386,121.9197
PH,5800,Roxas City,"","","","","","",11.5853,122.7511
PH,5801,Panay,"","","","","","",11.5578,122.7942
PH,5802,Pontevedra,"","","","","","",10.3717,122.8675
PH,5803,President Roxas,"","","","","","",7.1544,125.0558
PH,5804,Pilar,"","","","","","",14.66,120.5653
PH,5805,Ivisan,"","","","","","",11.5217,122.6908
PH,5806,Sapian,"","","","","","",11.4931,122.6033
PH,5807,Mambusao,"","","","","","",11.4289,122.5953
PH,5808,Jamindan,"","","","","","",11.4056,122.5081
PH,5809,Ma-ayon,"","","","","","",11.4833,122.8167
PH,5810,Dao,"","","","","","",11.3944,122.6858
PH,5811,Cuartero,"","","","","","",11.3444,122.6675
PH,5812,Dumarao,"","","","","","",11.2642,122.6889
PH,5813,Dumalag,"","","","","","",11.3039,122.6222
PH,5814,Tapaz,"","","","","","",11.2653,122.5333
PH,5815,Panitan,"","","","","","",11.4686,122.7686
PH,5816,Sigma,"","","","","","",11.4167,122.6669
PH,6000,Cebu City,"","","","","","",10.3111,123.8917
PH,6001,Consolacion,"","","","","","",10.3794,123.9564
PH,6002,Liloan,"","","","","","",10.4,123.9833
PH,6003,Compostela,"","","","","","",7.6731,126.0889
PH,6004,Danao City,"","","","","","",10.5208,124.0272
PH,6005,Carmen,"","","","","","",10.8111,123.8928
PH,6006,Catmon,"","","","","","",10.7167,124
PH,6007,Sogod,"","","","","","",12.38,122.6836
PH,6008,Borbon,"","","","","","",10.8372,124.0267
PH,6009,Tabogon,"","","","","","",14.0814,122.3775
PH,6010,Asturias,"","","","","","",10.5672,123.7161
PH,6010,Bogo City,"","","","","","",10.5672,123.7161
PH,6011,San Remigio,"","","","","","",10.8333,122.1
PH,6011,Badian,"","","","","","",9.8647,123.3964
PH,6012,Medellin,"","","","","","",11.1289,123.9608
PH,6013,Daanbantayan,"","","","","","",11.2517,123.9997
PH,6014,Mandaue City,"","","","","","",10.3236,123.9222
PH,6015,Lapu-Lapu City,"","","","","","",10.3103,123.9494
PH,6016,Mactan Airport,"","","","","","",10.5665,123.6243
PH,6017,Cordova,"","","","","","",10.2519,123.9494
PH,6018,San Fernando,"","","","","","",10.5665,123.6243
PH,6019,Carcar City,"","","","","","",10.5665,123.6243
PH,6020,Sibonga,"","","","","","",10.0169,123.6169
PH,6022,Dalaguete,"","","","","","",9.7617,123.5356
PH,6024,Boljoon,"","","","","","",9.6269,123.4761
PH,6025,Oslob,"","","","","","",9.5247,123.4297
PH,6026,Santander,"","","","","","",9.4167,123.3422
PH,6027,Samboan,"","","","","","",9.5292,123.305
PH,6028,Ginatilan,"","","","","","",9.5642,123.3181
PH,6029,Malabuyoc,"","","","","","",9.6578,123.3294
PH,6032,Moalboal,"","","","","","",9.9433,123.3992
PH,6034,Ronda,"","","","","","",10.0014,123.4083
PH,6035,Dumanjug,"","","","","","",10.0583,123.4331
PH,6036,Barili,"","","","","","",10.1122,123.5103
PH,6037,Naga,"","","","","","",13.6192,123.1814
PH,6038,Toledo City,"","","","","","",10.3792,123.6419
PH,6039,Pinamungahan,"","","","","","",10.2664,123.5858
PH,6041,Balamban,"","","","","","",10.5061,123.7153
PH,6043,Tuburan,"","","","","","",6.6439,122.2736
PH,6044,Tabuelan,"","","","","","",10.82,123.8681
PH,6045,Talisay City,"","","","","","",10.2447,123.8494
PH,6046,Minglanilla,"","","","","","",10.2458,123.7822
PH,6047,Santa Fe,"","","","","","",12.1561,121.9956
PH,6048,Pilar,"","","","","","",14.66,120.5653
PH,6049,Poro,"","","","","","",10.7538,122.8642
PH,6050,San Francisco,"","","","","","",9.732,123.6391
PH,6051,Tudela,"","","","","","",8.2469,123.845
PH,6052,Bantayan,"","","","","","",11.1683,123.7192
PH,6053,Madridejos,"","","","","","",9.7808,123.3531
PH,6088,Aloguinsan,"","","","","","",10.2194,123.55
PH,6099,Argao,"","","","","","",13.55,121.8667
PH,6100,Bacolod City,"","","","","","",10.6667,122.95
PH,6101,Bago City,"","","","","","",10.5333,122.8333
PH,6102,Pulupandan,"","","","","","",10.5211,122.7969
PH,6103,Valladolid,"","","","","","",10.465,122.8256
PH,6104,San Enrique,"","","","","","",10.4167,122.85
PH,6105,Pontevedra,"","","","","","",10.3717,122.8675
PH,6106,Hinigaran City,"","","","","","",10.4297,122.8414
PH,6107,Binalbagan City,"","","","","","",10.4297,122.8414
PH,6108,Himamaylan City,"","","","","","",10.4297,122.8414
PH,6109,Ilog,"","","","","","",10.0333,122.7667
PH,6110,Candoni,"","","","","","",9.8217,122.5972
PH,6111,Kabankalan City,"","","","","","",10.3716,122.9902
PH,6112,Cauayan,"","","","","","",10.3716,122.9902
PH,6113,Sipalay City,"","","","","","",10.3716,122.9902
PH,6114,Hinoba-an,"","","","","","",9.5886,122.4744
PH,6115,Talisay City,"","","","","","",10.2447,123.8494
PH,6116,Silay City,"","","","","","",10.7989,122.9739
PH,6117,Silay Hawaiian Central,"","","","","","",10.3716,122.9902
PH,6118,Enrique Magalona,"","","","","","",10.8758,122.9686
PH,6119,Victorias City,"","","","","","",10.9,123.0778
PH,6120,Manapla,"","","","","","",10.9575,123.125
PH,6121,Cadiz City,"","","","","","",10.9583,123.3086
PH,6122,Sagay City,"","","","","","",10.8933,123.4131
PH,6123,Paraiso (Fabrica),"","","","","","",10.4933,122.9834
PH,6124,Escalante City,"","","","","","",10.4933,122.9834
PH,6125,Toboso,"","","","","","",10.7178,123.5183
PH,6126,Calatrava,"","","","","","",12.6206,122.0714
PH,6127,San Carlos City,"","","","","","",10.4869,123.4203
PH,6128,Isabela,"","","","","","",6.7064,121.9714
PH,6129,Murcia,"","","","","","",10.6058,123.0389
PH,6130,La Carlota City,"","","","","","",10.4233,122.9208
PH,6131,La Castillana,"","","","","","",10.3468,122.9994
PH,6132,Moises Padilla,"","","","","","",10.2703,123.0781
PH,6201,Sibulan,"","","","","","",9.3597,123.285
PH,6202,San Jose,"","","","","","",11.1808,122.9125
PH,6202,Loay,"","","","","","",9.6,124.0167
PH,6203,Amlan,"","","","","","",9.4636,123.2267
PH,6204,Tanjay City,"","","","","","",9.7804,123.2184
PH,6205,Salvaña City,"","","","","","",9.4711,123.115
PH,6205,Pamplona,"","","","","","",9.4711,123.115
PH,6207,Mabinay,"","","","","","",9.7272,122.9017
PH,6208,Manjuyod,"","","","","","",9.6803,123.1472
PH,6209,Bindoy,"","","","","","",9.7606,123.1425
PH,6210,Ayungon,"","","","","","",9.8603,123.1475
PH,6211,Tayasan,"","","","","","",9.9242,123.1706
PH,6212,Jimalalud,"","","","","","",9.9764,123.1922
PH,6213,La Libertad,"","","","","","",10.0269,123.2331
PH,6214,Guihulngan,"","","","","","",10.1203,123.2711
PH,6215,Valencia,"","","","","","",7.9064,125.0942
PH,6216,Bacong,"","","","","","",9.9369,123.945
PH,6217,Dauin,"","","","","","",9.1911,123.2656
PH,6217,ais City,"","","","","","",9.1911,123.2656
PH,6219,Siaton,"","","","","","",9.0636,123.0339
PH,6220,Sta. Catalina,"","","","","","",9.526,123.4913
PH,6221,Bayawan City,"","","","","","",9.526,123.4913
PH,6222,Basay,"","","","","","",9.4119,122.6411
PH,6223,Canlaon City,"","","","","","",10.3864,123.1964
PH,6224,Valle Hermoso,"","","","","","",9.7872,124.2264
PH,6225,Siquij,"","","","","","",9.526,123.4913
PH,6226,Larena,"","","","","","",9.2453,123.5939
PH,6226,SM City,"","","","","","",9.2453,123.5939
PH,6227,San Juan,"","","","","","",9.526,123.4913
PH,6228,Lazi,"","","","","","",9.1264,123.6364
PH,6229,Maria,"","","","","","",9.1986,123.6539
PH,6230,Enrique Villanueva,"","","","","","",9.2772,123.6472
PH,6267,Dumaguete City,"","","","","","",9.3103,123.3081
PH,6300,Tagbilaran City,"","","","","","",9.6475,123.8556
PH,6301,Baclayon,"","","","","","",6.5842,125.3694
PH,6302,Alburquerque,"","","","","","",9.6081,123.9581
PH,6304,Lila,"","","","","","",9.5944,124.0942
PH,6305,Dimiao,"","","","","","",9.6167,124.1667
PH,6306,Valencia,"","","","","","",7.9064,125.0942
PH,6307,Garcia Hernandez,"","","","","","",9.6153,124.2972
PH,6308,Jagna,"","","","","","",9.6514,124.3672
PH,6309,Duero,"","","","","","",9.7103,124.4039
PH,6310,Guindulman,"","","","","","",9.7628,124.4844
PH,6311,Anda,"","","","","","",10.7122,123.4865
PH,6312,Candijay,"","","","","","",10.7122,123.4865
PH,6313,Mabini,"","","","","","",10.7122,123.4865
PH,6314,Alicia,"","","","","","",7.5139,122.93
PH,6315,Ubay,"","","","","","",10.0561,124.4736
PH,6316,Loboc,"","","","","","",9.6378,124.0325
PH,6317,Bilar,"","","","","","",9.7089,124.105
PH,6318,Batuan,"","","","","","",12.4225,123.7797
PH,6319,Carmen,"","","","","","",15.8833,120.6
PH,6320,Sierra Bullones,"","","","","","",10.5538,123.8014
PH,6321,Pilar,"","","","","","",10.5538,123.8014
PH,6322,Dagohoy,"","","","","","",9.8953,124.2739
PH,6323,San Miguel,"","","","","","",9.9881,124.3389
PH,6324,Trinidad,"","","","","","",10.5538,123.8014
PH,6325,Talibon,"","","","","","",10.1492,124.325
PH,6326,Bien Unido,"","","","","","",10.1403,124.3769
PH,6327,Loon,"","","","","","",9.8011,123.7922
PH,6328,Calape,"","","","","","",10.2858,122.9694
PH,6329,Tubigon,"","","","","","",13.6167,122.5333
PH,6330,Clarin,"","","","","","",9.9619,124.0236
PH,6331,Sagbayan,"","","","","","",9.9136,124.0928
PH,6332,Inabanga,"","","","","","",10.0311,124.0661
PH,6333,Buenavista,"","","","","","",8.9769,125.4089
PH,6334,Jetafe,"","","","","","",10.1472,124.1539
PH,6335,Antequera,"","","","","","",9.78,123.8989
PH,6336,Maribojoc,"","","","","","",9.7511,123.8406
PH,6337,Corella,"","","","","","",9.6883,123.9222
PH,6338,Sikatuna,"","","","","","",9.6917,123.9739
PH,6339,Dauis,"","","","","","",9.6253,123.8658
PH,6340,Panglao,"","","","","","",9.5781,123.7458
PH,6341,Cortes,"","","","","","",9.2797,126.1911
PH,6342,Balilihan,"","","","","","",9.7567,123.9733
PH,6343,Catigbian,"","","","","","",9.8503,124.0003
PH,6344,Danao,"","","","","","",10.5208,124.0272
PH,6345,San Isidro,"","","","","","",15.05,120.75
PH,6346,Pres. Carlos P. Garcia,"","","","","","",11.517,123.2887
PH,6347,Sevilla,"","","","","","",16.5833,120.3333
PH,6400,Catarman,"","","","","","",12.4961,124.6386
PH,6401,Bobon,"","","","","","",15.6697,120.3856
PH,6402,San Jose,"","","","","","",11.1808,122.9125
PH,6403,Lope de Vega,"","","","","","",12.2969,124.6225
PH,6404,Lavezares,"","","","","","",12.5322,124.3306
PH,6405,Allen,"","","","","","",12.5006,124.2867
PH,6406,Victoria,"","","","","","",14.2269,121.3275
PH,6407,San Antonio,"","","","","","",12.6958,124.1308
PH,6408,Capul,"","","","","","",12.4228,124.1806
PH,6409,San Isidro,"","","","","","",15.05,120.75
PH,6410,Biri,"","","","","","",12.6833,124.3636
PH,6411,Laoang,"","","","","","",12.5667,125
PH,6412,Mapanas,"","","","","","",12.4747,125.2547
PH,6413,Pambujan,"","","","","","",12.5642,124.9294
PH,6414,Silvino Lobos,"","","","","","",12.3,124.8333
PH,6415,San Roque,"","","","","","",14.9028,120.5286
PH,6416,Rosario,"","","","","","",13.63,121.2197
PH,6417,Mondragon,"","","","","","",12.5144,124.7553
PH,6418,Catubig,"","","","","","",12.4092,125.0542
PH,6419,San Vicente,"","","","","","",12.8939,123.9932
PH,6420,Las Navas,"","","","","","",12.3403,125.0319
PH,6421,Palapag,"","","","","","",12.5467,125.1156
PH,6422,Gamay,"","","","","","",12.3875,125.2994
PH,6423,Lapinig,"","","","","","",12.315,125.3017
PH,6500,Tacloban City,"","","","","","",11.2433,125.0047
PH,6501,Palo,"","","","","","",11.1575,124.9908
PH,6502,Tanuan,"","","","","","",10.517,124.6383
PH,6503,Tolosa,"","","","","","",7.0322,122.1614
PH,6504,Tabontabon,"","","","","","",11.0408,124.9611
PH,6505,Dulag,"","","","","","",10.9525,125.0317
PH,6506,Julita,"","","","","","",10.9747,124.9617
PH,6507,Mayorga,"","","","","","",10.9,125
PH,6508,La Paz,"","","","","","",10.517,124.6383
PH,6509,Macarthur,"","","","","","",10.8347,124.9953
PH,6510,Abuyog,"","","","","","",10.7353,125.0214
PH,6511,Javier,"","","","","","",10.7958,124.9356
PH,6512,Mahaplag,"","","","","","",10.5864,124.9731
PH,6513,Santa Fe,"","","","","","",12.1561,121.9956
PH,6514,Pastrana,"","","","","","",11.1367,124.8856
PH,6515,Dagami,"","","","","","",11.0608,124.9028
PH,6516,Burauen,"","","","","","",10.9756,124.8928
PH,6517,Alangalang,"","","","","","",11.2061,124.8467
PH,6518,San Miguel,"","","","","","",9.9881,124.3389
PH,6519,Barugo,"","","","","","",11.3242,124.7383
PH,6520,Babatngon,"","","","","","",11.4233,124.8461
PH,6521,Baybay,"","","","","","",10.6769,124.7992
PH,6522,Inopacan,"","","","","","",10.4975,124.7389
PH,6523,Hindang,"","","","","","",10.4342,124.7292
PH,6524,Hilongos,"","","","","","",10.3744,124.7497
PH,6525,Bato,"","","","","","",13.3556,123.3636
PH,6526,Matalom,"","","","","","",10.2831,124.7878
PH,6527,Jaro,"","","","","","",11.1883,124.7825
PH,6528,Tunga,"","","","","","",11.2456,124.7517
PH,6529,Carigara,"","","","","","",11.2992,124.6756
PH,6530,Capoocan,"","","","","","",11.2933,124.6419
PH,6531,Kananga,"","","","","","",11.1858,124.5592
PH,6532,Matag-ob,"","","","","","",11.1798,123.7768
PH,6533,Leyte,"","","","","","",11.3703,124.4889
PH,6534,Calubian,"","","","","","",11.445,124.4289
PH,6535,San Isidro,"","","","","","",15.05,120.75
PH,6536,Tabango,"","","","","","",11.3078,124.3711
PH,6537,Villaba,"","","","","","",11.2122,124.3931
PH,6538,Palompon,"","","","","","",11.0469,124.3867
PH,6539,Isabel,"","","","","","",6.7064,121.9714
PH,6540,Merida,"","","","","","",10.9106,124.5364
PH,6541,Ormoc City,"","","","","","",11.0064,124.6075
PH,6542,Albuera,"","","","","","",10.9167,124.6967
PH,6543,Naval,"","","","","","",11.5606,124.3975
PH,6544,Almeria,"","","","","","",11.6203,124.3817
PH,6545,Kawayan,"","","","","","",14.8039,120.6844
PH,6546,Maripipi,"","","","","","",11.7792,124.3492
PH,6547,Culaba,"","","","","","",11.6578,124.5425
PH,6548,Caibiran,"","","","","","",11.5717,124.5822
PH,6549,Biliran,"","","","","","",11.4667,124.4753
PH,6550,Cabucgayan,"","","","","","",11.4719,124.575
PH,6600,Maasin,"","","","","","",10.1336,124.8447
PH,6601,Macrohon,"","","","","","",10.0797,124.9431
PH,6602,Padre Burgos,"","","","","","",13.9203,121.8144
PH,6603,Malitbog,"","","","","","",10.16,124.9992
PH,6604,Bontoc,"","","","","","",10.912,124.4318
PH,6605,Tomas Oppus,"","","","","","",10.2506,124.9831
PH,6606,Sogod,"","","","","","",12.38,122.6836
PH,6607,Silago,"","","","","","",10.5292,125.1656
PH,6608,Hinunangan,"","","","","","",10.3989,125.1994
PH,6609,Hinundayan,"","","","","","",10.3556,125.2533
PH,6610,Anahawan,"","","","","","",10.35,124.8667
PH,6611,San Juan (Cabalian),"","","","","","",10.2669,125.1756
PH,6612,Liloan,"","","","","","",10.4,123.9833
PH,6613,San Francisco,"","","","","","",10.2576,124.919
PH,6614,Pintuyan,"","","","","","",9.9447,125.2494
PH,6615,Libagon,"","","","","","",10.3008,125.0558
PH,6616,St. Bernard,"","","","","","",10.2833,125.1833
PH,6617,San Ricardo,"","","","","","",10.2576,124.919
PH,6666,Char Lang,"","","","","","",10.6502,124.6267
PH,6700,Catbalogan,"","","","","","",11.7753,124.8861
PH,6701,Jiabong,"","","","","","",11.7625,124.9519
PH,6702,Motiong,"","","","","","",11.78,124.9997
PH,6703,Paranas (Wright),"","","","","","",11.9294,124.8318
PH,6704,Tarangnan,"","","","","","",11.9017,124.7481
PH,6705,Pagsanghan,"","","","","","",11.9664,124.725
PH,6706,Gandara,"","","","","","",12.0131,124.8089
PH,6707,San Jorge,"","","","","","",11.9808,124.8239
PH,6708,Matuguinao,"","","","","","",12.1469,124.8844
PH,6709,Santa Margarita,"","","","","","",12.0378,124.6578
PH,6710,Calbayog City,"","","","","","",12.0672,124.6042
PH,6711,Santo Niño,"","","","","","",11.7346,124.7988
PH,6712,Tagapul-an,"","","","","","",12.05,124.15
PH,6713,Hinabangan,"","","","","","",11.6992,125.0675
PH,6714,San Sebastian,"","","","","","",11.7346,124.7988
PH,6715,Calbiga,"","","","","","",11.6247,125.0164
PH,6716,Pinabacdao,"","","","","","",11.61,124.9856
PH,6717,Villareal,"","","","","","",11.5633,124.93
PH,6718,Santa Rita,"","","","","","",11.7346,124.7988
PH,6719,Talalora,"","","","","","",11.5275,124.8381
PH,6720,Basey,"","","","","","",11.2817,125.0683
PH,6721,Marabut,"","","","","","",11.8667,124.85
PH,6722,Daram,"","","","","","",11.6369,124.7961
PH,6723,San Jose De Buan,"","","","","","",12.0544,125.0269
PH,6724,Almagro,"","","","","","",11.9144,124.2867
PH,6725,Zumarraga,"","","","","","",11.6369,124.845
PH,6800,Borongan,"","","","","","",11.6081,125.4319
PH,6801,Balangkayan,"","","","","","",11.4714,125.5106
PH,6802,Maydolong,"","","","","","",11.4992,125.5011
PH,6803,Llorente,"","","","","","",11.4119,125.5458
PH,6804,Hernani,"","","","","","",11.3258,125.6194
PH,6805,General MacArthur,"","","","","","",11.2464,125.5394
PH,6806,Can-avid,"","","","","","",11.9953,125.4472
PH,6807,Salcedo,"","","","","","",11.1469,125.665
PH,6808,Mercedes,"","","","","","",14.1106,123.0125
PH,6809,Guiuan,"","","","","","",11.0333,125.7247
PH,6810,Quinapondan,"","","","","","",11.1583,125.5219
PH,6811,Giporlos,"","","","","","",11.12,125.4494
PH,6812,Balangiga,"","","","","","",11.1097,125.3875
PH,6813,Lawaan,"","","","","","",11.1336,124.835
PH,6814,San Julian,"","","","","","",11.7536,125.4558
PH,6815,Sulat,"","","","","","",11.8103,125.4544
PH,6816,Taft,"","","","","","",11.9011,125.4189
PH,6817,Dolores,"","","","","","",11.6008,125.3554
PH,6818,Oras,"","","","","","",12.1342,125.4375
PH,6819,Jipapad,"","","","","","",12.2867,125.2378
PH,6820,Maslog,"","","","","","",13.1025,123.7744
PH,6821,San Policarpo,"","","","","","",12.0675,124.5625
PH,6822,Arteche,"","","","","","",12.2672,125.3708
PH,7000,Zamboanga City,"","","","","","",6.9103,122.0739
PH,7001,Ipil,"","","","","","",7.7844,122.5861
PH,7002,Roseller T. Lim,"","","","","","",8.5513,122.972
PH,7003,Titay,"","","","","","",7.8125,122.5344
PH,7004,Naga,"","","","","","",8.5513,122.972
PH,7005,Kumalarang,"","","","","","",7.7475,123.1458
PH,7005,Kabasalan,"","","","","","",7.0667,124.65
PH,7006,Siay,"","","","","","",7.6961,122.8631
PH,7007,Imelda,"","","","","","",14.0333,122.8833
PH,7008,Payao,"","","","","","",10.1833,122.95
PH,7009,Buug,"","","","","","",7.7278,123.0611
PH,7010,Mabuhay,"","","","","","",7.3331,125.5475
PH,7011,Bayog,"","","","","","",7.6849,123.4733
PH,7012,Talusan,"","","","","","",7.4267,122.8103
PH,7014,Lakewood,"","","","","","",7.8531,123.1611
PH,7015,Dumalinao,"","","","","","",7.8175,123.37
PH,7016,Pagadian City,"","","","","","",7.8257,123.437
PH,7017,Labangan,"","","","","","",7.8636,123.5136
PH,7018,Tungawan,"","","","","","",7.5081,122.3711
PH,7019,Tukuran,"","","","","","",7.8514,123.5756
PH,7020,Aurora,"","","","","","",8.3289,123.5595
PH,7021,Midsalip,"","","","","","",8,123.2667
PH,7022,Sominot,"","","","","","",8.3289,123.5595
PH,7023,Molave,"","","","","","",8.0908,123.4883
PH,7024,Ramon Magsaysay,"","","","","","",8.0019,123.5094
PH,7025,Tambulig,"","","","","","",8.0681,123.5364
PH,7026,Mahayag,"","","","","","",8.1131,123.4525
PH,7027,Josefina,"","","","","","",8.2,123.5333
PH,7028,Dumingag,"","","","","","",8.1692,123.3506
PH,7029,San Miguel,"","","","","","",9.9881,124.3389
PH,7030,Dinas,"","","","","","",7.6147,123.3383
PH,7031,San Pablo,"","","","","","",7.9116,123.3849
PH,7032,Dimataling,"","","","","","",7.5319,123.3664
PH,7033,Pitogo,"","","","","","",10.1208,124.5544
PH,7034,Tabina,"","","","","","",7.465,123.4089
PH,7035,Margosatubig,"","","","","","",7.5767,123.1669
PH,7036,Vincenzo A. Sagun,"","","","","","",7.9116,123.3849
PH,7037,Lapuyan,"","","","","","",7.6364,123.1958
PH,7038,Malangas,"","","","","","",7.6303,123.0317
PH,7039,Diplahan,"","","","","","",7.7167,123.0167
PH,7040,Alicia,"","","","","","",7.5139,122.93
PH,7041,Olutanga,"","","","","","",7.3106,122.8464
PH,7042,Guipos,"","","","","","",7.7339,123.3231
PH,7043,Tigbao,"","","","","","",12.5547,123.3383
PH,7100,Dipolog City,"","","","","","",8.5894,123.3414
PH,7101,Dapitan City,"","","","","","",8.6464,123.4208
PH,7102,Roxas,"","","","","","",11.5853,122.7511
PH,7103,Sibutad,"","","","","","",8.5808,123.4806
PH,7104,Rizal,"","","","","","",8.8362,123.3398
PH,7105,Pinan,"","","","","","",8.4815,123.4462
PH,7106,Polanco,"","","","","","",8.5317,123.3617
PH,7107,Mutia,"","","","","","",8.4308,123.4706
PH,7108,Sergio Osmeña,"","","","","","",8.1667,123.5
PH,7109,Katipunan,"","","","","","",8.5128,123.2861
PH,7110,Manukan,"","","","","","",8.5333,123.1
PH,7111,Jose Dalman (Ponot),"","","","","","",8.4564,123.0267
PH,7112,Sindangan (Leon B. Postigo),"","","","","","",8.3979,122.8347
PH,7113,Siayan,"","","","","","",8.2667,123.1
PH,7114,Salug,"","","","","","",8.1147,122.7833
PH,7115,Liloy,"","","","","","",8.1144,122.6594
PH,7116,Tampilisan,"","","","","","",8.0167,122.6833
PH,7117,Labason,"","","","","","",8.0692,122.5217
PH,7118,Gutalac,"","","","","","",7.9825,122.4047
PH,7119,La Libertad,"","","","","","",10.0269,123.2331
PH,7120,Siocon,"","","","","","",7.7061,122.1353
PH,7121,Siraway,"","","","","","",7.5853,122.1397
PH,7122,Sibuco,"","","","","","",7.2911,122.0656
PH,7123,Baliguian,"","","","","","",7.8094,122.1444
PH,7124,Kalawit,"","","","","","",8.0667,122.5167
PH,7200,Ozamis City,"","","","","","",8.1458,123.8444
PH,7201,Clarin,"","","","","","",9.9619,124.0236
PH,7202,Tudela,"","","","","","",8.2469,123.845
PH,7203,Sinacaban,"","","","","","",8.2925,123.8436
PH,7204,Jimenez,"","","","","","",8.3347,123.8406
PH,7205,Panaon,"","","","","","",8.3456,123.8296
PH,7206,Aloran,"","","","","","",8.4181,123.8176
PH,7207,Oroquieta City,"","","","","","",8.4858,123.8044
PH,7208,Lopez Jaena,"","","","","","",8.5536,123.7683
PH,7209,Plaridel,"","","","","","",14.8872,120.8572
PH,7210,Calamba,"","","","","","",14.2117,121.1653
PH,7211,Baliangao,"","","","","","",8.6617,123.6005
PH,7212,Sapang Dalaga,"","","","","","",8.5431,123.5683
PH,7213,Concepcion,"","","","","","",9.5058,123.1397
PH,7214,Tangub City,"","","","","","",8.06,123.75
PH,7215,Bonifacio,"","","","","","",8.0525,123.6142
PH,7300,Isabela City,"","","","","","",6.7064,121.9714
PH,7301,Lantawan,"","","","","","",6.6381,121.8406
PH,7302,Lamitan City,"","","","","","",6.5886,122.0189
PH,7303,Maluso,"","","","","","",6.5422,121.8769
PH,7304,Tipo-Tipo,"","","","","","",6.5814,122.1794
PH,7305,Sumisip,"","","","","","",6.4197,121.9714
PH,7306,Tuburan,"","","","","","",6.6439,122.2736
PH,7308,Froilie,"","","","","","",6.5886,122.0189
PH,7400,Jolo,"","","","","","",6.0522,121.0022
PH,7401,Patikul,"","","","","","",6.0892,121.1053
PH,7402,Panamao,"","","","","","",5.9811,121.2147
PH,7403,Talipao,"","","","","","",5.9764,121.1161
PH,7404,Luuk,"","","","","","",6.0721,121.7845
PH,7405,Pata,"","","","","","",6.1684,121.5859
PH,7406,Tongkil,"","","","","","",6.0721,121.7845
PH,7407,Indanan,"","","","","","",5.9735,120.9698
PH,7408,Parang,"","","","","","",7.3711,124.2672
PH,7409,Maimbung,"","","","","","",5.9281,121.0289
PH,7410,Tapul,"","","","","","",9.9333,118.7833
PH,7411,Lugus,"","","","","","",5.7036,120.8203
PH,7412,Siasi,"","","","","","",5.5444,120.8161
PH,7413,Marungas,"","","","","","",6.1039,120.9628
PH,7414,Panguntaran,"","","","","","",6.8213,120.3456
PH,7415,Panglima Estino,"","","","","","",6.8213,120.3456
PH,7416,Kalingalan Kalauang,"","","","","","",6.8213,120.3456
PH,7500,Bongao,"","","","","","",5.0292,119.7731
PH,7501,Panglima Sugala (Balimbing),"","","","","","",5.0825,119.9658
PH,7502,Tandubas,"","","","","","",5.1611,120.3431
PH,7503,Sapa-Sapa,"","","","","","",5.0325,120.2253
PH,7504,South Ubian,"","","","","","",5.1861,120.4981
PH,7505,Simunul,"","","","","","",4.8983,119.8494
PH,7506,Sitangkai,"","","","","","",4.6628,119.3928
PH,7507,Turtle Island (Taganak),"","","","","","",5.255,119.8488
PH,7508,Mapun (Cagayan de Sulu),"","","","","","",6.9767,118.5136
PH,7509,Languyan,"","","","","","",5.2661,120.0778
PH,8000,Davao City,"","","","","","",7.0731,125.6128
PH,8002,Digos City,"","","","","","",6.7212,125.3586
PH,8003,Matanao,"","","","","","",6.6792,125.255
PH,8004,Magsaysay,"","","","","","",6.7212,125.3586
PH,8005,Bansalan,"","","","","","",6.7212,125.3586
PH,8006,Hagonoy,"","","","","","",6.7212,125.3586
PH,8007,Padada,"","","","","","",6.6411,125.345
PH,8008,Kiblawan,"","","","","","",6.6142,125.2367
PH,8009,Sulop,"","","","","","",6.5986,125.3436
PH,8010,Malalag,"","","","","","",6.5958,125.3992
PH,8011,Santa Maria,"","","","","","",6.5536,125.4708
PH,8012,Malita,"","","","","","",6.4147,125.6142
PH,8013,Don Marcelino,"","","","","","",6.2642,125.6658
PH,8014,Jose Abad Santos,"","","","","","",5.9133,125.6447
PH,8015,Sarangani,"","","","","","",5.4033,125.465
PH,8016,Ateneo de Davao University,"","","","","","",6.1908,125.5433
PH,8100,Tagum City,"","","","","","",7.6009,125.9258
PH,8101,Carmen,"","","","","","",7.6009,125.9258
PH,8102,Asuncion,"","","","","","",7.5342,125.7667
PH,8103,Laak (San Vicente),"","","","","","",7.6009,125.9258
PH,8104,New Corella,"","","","","","",7.5892,125.8272
PH,8105,Panabo City,"","","","","","",7.6009,125.9258
PH,8106,Nabunturan,"","","","","","",7.6078,125.9664
PH,8107,Montevista,"","","","","","",7.6933,125.9889
PH,8108,Mawab,"","","","","","",7.5081,125.9169
PH,8109,Compostela,"","","","","","",7.6731,126.0889
PH,8110,New Bataan,"","","","","","",7.6036,126.1333
PH,8111,Monkayo,"","","","","","",7.8153,126.0544
PH,8112,Santo Tomas,"","","","","","",7.4405,125.8879
PH,8113,Kapalong,"","","","","","",7.5903,125.7069
PH,8114,Maco,"","","","","","",7.3619,125.8553
PH,8115,Mabini (Doña Alicia),"","","","","","",7.4405,125.8879
PH,8116,Maragusan (San Mariano),"","","","","","",7.4405,125.8879
PH,8117,Pantukan,"","","","","","",7.1353,125.8897
PH,8118,Babak,"","","","","","",7.1364,125.6875
PH,8119,Island Garden City of Samal,"","","","","","",7.4405,125.8879
PH,8120,Kaputian,"","","","","","",6.9658,125.7261
PH,8200,Mati,"","","","","","",6.9528,126.2158
PH,8201,Tarragona,"","","","","","",7.0447,126.4481
PH,8209,San Isidro,"","","","","","",15.05,120.75
PH,8300,Tandag,"","","","","","",9.0783,126.1986
PH,8301,San Miguel,"","","","","","",9.9881,124.3389
PH,8302,Tago,"","","","","","",9.0211,126.2317
PH,8303,Bayabas,"","","","","","",8.9288,125.9219
PH,8304,Cagwait,"","","","","","",8.9288,125.9219
PH,8305,San Agustin,"","","","","","",8.9288,125.9219
PH,8306,Marihatag,"","","","","","",8.7936,126.2969
PH,8307,Lianga,"","","","","","",8.6336,126.0947
PH,8308,Tagbina,"","","","","","",8.4519,126.1714
PH,8309,Barobo,"","","","","","",8.5353,126.1214
PH,8310,Hinatuan,"","","","","","",8.3722,126.3342
PH,8311,Bislig,"","","","","","",11.0725,125.0336
PH,8312,Lingig,"","","","","","",8.0389,126.4125
PH,8313,Cortez,"","","","","","",11.5369,122.3983
PH,8314,Lanuza,"","","","","","",9.2342,126.0644
PH,8315,Carmen,"","","","","","",9.5554,125.451
PH,8316,Madrid,"","","","","","",9.2625,125.9647
PH,8317,Cantillan,"","","","","","",9.5554,125.451
PH,8318,Carrascal,"","","","","","",9.3703,125.9492
PH,8400,Surigao City,"","","","","","",9.7839,125.4889
PH,8401,San Francisco,"","","","","","",9.69,125.1224
PH,8402,Malimano,"","","","","","",9.69,125.1224
PH,8403,Tagana-an,"","","","","","",9.6972,125.5856
PH,8404,Sison,"","","","","","",9.6603,125.5286
PH,8405,Placer,"","","","","","",11.8667,123.9181
PH,8406,Tubod,"","","","","","",9.7781,123.1083
PH,8407,Mainit,"","","","","","",7.5314,126.0131
PH,8408,Bacuag,"","","","","","",9.6081,125.6389
PH,8409,Gigaquit,"","","","","","",9.5944,125.6975
PH,8410,Claver,"","","","","","",9.5725,125.7331
PH,8411,Cagdianao,"","","","","","",9.9211,125.6692
PH,8412,Dinagat,"","","","","","",9.9561,125.5933
PH,8413,Basilisa (Rizal),"","","","","","",9.5443,125.8119
PH,8414,Libjo (Albor),"","","","","","",9.5443,125.8119
PH,8415,Loreto,"","","","","","",8.1869,125.8531
PH,8416,Socorro,"","","","","","",9.5443,125.8119
PH,8417,Dapa,"","","","","","",9.7594,126.0531
PH,8418,Del Carmen,"","","","","","",9.8694,125.9697
PH,8419,Gen. Luna,"","","","","","",9.5443,125.8119
PH,8420,Pilar,"","","","","","",14.66,120.5653
PH,8421,San Isidro,"","","","","","",15.05,120.75
PH,8422,Santa Monica,"","","","","","",10.02,126.0383
PH,8423,San Benito,"","","","","","",9.9578,126.0069
PH,8424,Burgos,"","","","","","",11.5239,123.916
PH,8425,Alegria,"","","","","","",9.4669,125.5772
PH,8426,Tubajon,"","","","","","",10.3317,125.5619
PH,8427,San Jose,"","","","","","",11.1808,122.9125
PH,8501,San Francisco,"","","","","","",8.3419,125.8879
PH,8502,Bayugan,"","","","","","",8.7561,125.7675
PH,8503,Sibagat,"","","","","","",8.8225,125.6975
PH,8504,Rosario,"","","","","","",8.3419,125.8879
PH,8505,Trento,"","","","","","",8.0458,126.0636
PH,8506,Bunawan,"","","","","","",8.1672,125.9908
PH,8507,Loreto,"","","","","","",8.1869,125.8531
PH,8508,La Paz,"","","","","","",8.3419,125.8879
PH,8509,Veruela,"","","","","","",8.0725,125.9547
PH,8510,Talacogon,"","","","","","",8.4561,125.7842
PH,8511,San Luis,"","","","","","",8.4894,125.725
PH,8512,Santa Josefa,"","","","","","",7.9911,126.03
PH,8513,Esperanza,"","","","","","",8.3122,125.8464
PH,8600,Butuan City,"","","","","","",8.9492,125.5436
PH,8601,Buenavista,"","","","","","",8.9769,125.4089
PH,8602,Nasipit,"","","","","","",8.9692,125.2947
PH,8603,Carmen,"","","","","","",15.8833,120.6
PH,8604,Magallanes,"","","","","","",12.8292,123.8364
PH,8605,Cabadbaran City,"","","","","","",10.4466,124.662
PH,8606,Tubay,"","","","","","",9.1669,125.5239
PH,8607,Jabonga,"","","","","","",9.3431,125.5156
PH,8608,Santiago,"","","","","","",10.4466,124.662
PH,8609,Kitcharao,"","","","","","",9.455,125.5731
PH,8610,Las Nieves,"","","","","","",8.7317,125.5992
PH,8611,Remedios T. Romualdez,"","","","","","",8.7317,125.5992
PH,8700,Malaybalay City,"","","","","","",8.5497,124.8308
PH,8701,Sumilao,"","","","","","",8.2906,124.9472
PH,8702,Impasugong,"","","","","","",8.3097,125.0019
PH,8703,Manolo Fortich,"","","","","","",8.3697,124.8644
PH,8704,Malitbog,"","","","","","",10.16,124.9992
PH,8705,Phillips,"","","","","","",8.3267,124.8114
PH,8706,Libona,"","","","","","",8.3403,124.7328
PH,8707,Baungon,"","","","","","",8.3675,124.685
PH,8708,Talakag,"","","","","","",8.2331,124.6047
PH,8709,Valencia City,"","","","","","",8.5497,124.8308
PH,8710,Musuan,"","","","","","",7.6857,124.9439
PH,8711,San Fernando,"","","","","","",7.6857,124.9439
PH,8712,Don Carlos,"","","","","","",7.68,125.005
PH,8713,Kadingilan,"","","","","","",7.6011,124.9086
PH,8714,Maramag,"","","","","","",7.7633,125.0053
PH,8715,Quezon,"","","","","","",7.6857,124.9439
PH,8716,Kitaotao,"","","","","","",7.6397,125.0089
PH,8717,Pangantucan,"","","","","","",7.6857,124.9439
PH,8718,Kalilangan,"","","","","","",7.8211,124.7314
PH,8719,Dangcagan,"","","","","","",7.6092,125.0042
PH,8720,Kibawe,"","","","","","",7.5686,124.9878
PH,8721,Damulog,"","","","","","",7.4836,124.9431
PH,8722,Lantapan,"","","","","","",7.9978,125.0278
PH,8723,Cabanglasan,"","","","","","",8.1206,125.3294
PH,9000,Cagayan de Oro City,"","","","","","",8.4822,124.6472
PH,9001,Tagoloan,"","","","","","",8.5389,124.7569
PH,9002,Villanueva,"","","","","","",8.5889,124.7756
PH,9003,Jasaan,"","","","","","",8.6542,124.7556
PH,9004,Claveria,"","","","","","",8.6176,124.5325
PH,9005,Balingasag,"","","","","","",8.7442,124.7769
PH,9006,Lagonglong,"","","","","","",8.8072,124.7903
PH,9007,Salay,"","","","","","",8.8592,124.7892
PH,9008,Binuangan,"","","","","","",8.2663,122.9685
PH,9009,Sugbungcogon,"","","","","","",8.6176,124.5325
PH,9010,Kinogitan,"","","","","","",8.9856,124.7928
PH,9011,Balinguan,"","","","","","",9.0503,124.7325
PH,9012,Talisayan,"","","","","","",10.95,124.7
PH,9013,Medina,"","","","","","",8.9122,125.0244
PH,9014,Gingoog City,"","","","","","",8.8278,125.0997
PH,9015,Magsaysay,"","","","","","",9.0503,124.7325
PH,9016,Opol,"","","","","","",8.52,124.5703
PH,9017,El Salvador,"","","","","","",9.0503,124.7325
PH,9018,Alubijid,"","","","","","",8.5733,124.4736
PH,9019,Laguindingan,"","","","","","",8.5833,124.4667
PH,9020,Gitagum,"","","","","","",8.5967,124.4064
PH,9021,Libertad,"","","","","","",8.9442,125.5019
PH,9022,Initao,"","","","","","",8.4983,124.3056
PH,9023,Naawan,"","","","","","",8.4311,124.2883
PH,9024,Manticao,"","","","","","",8.4011,124.2858
PH,9025,Lugait,"","","","","","",8.3369,124.2603
PH,9100,Mambajao,"","","","","","",9.2503,124.7161
PH,9101,Mahinog,"","","","","","",9.1578,124.7875
PH,9102,Guinsiliban,"","","","","","",9.0964,124.7828
PH,9103,Sagay,"","","","","","",9.1058,124.7247
PH,9104,Catarman,"","","","","","",12.4961,124.6386
PH,9200,Iligan City,"","","","","","",8.25,124.4
PH,9201,Linamon,"","","","","","",8.1811,124.1689
PH,9202,Kauswagan,"","","","","","",8.1892,124.0894
PH,9203,Matungao,"","","","","","",8.62,123.6583
PH,9204,Poona Piagapo,"","","","","","",8.0833,124.1167
PH,9205,Bacolod,"","","","","","",10.6667,122.95
PH,9206,Maigo,"","","","","","",8.1581,123.9611
PH,9207,Kolambogan,"","","","","","",7.6533,122.4719
PH,9208,Pantao Ragat,"","","","","","",8.62,123.6583
PH,9209,Tubod,"","","","","","",9.7781,123.1083
PH,9210,Baroy,"","","","","","",8.0303,123.7794
PH,9211,Lala,"","","","","","",7.9667,123.7333
PH,9212,Salvador,"","","","","","",11.0028,122.8353
PH,9213,Sapad,"","","","","","",7.4267,124.3681
PH,9214,Kapatagan,"","","","","","",7.8989,123.7706
PH,9215,Karomatan,"","","","","","",7.7944,123.7167
PH,9216,Nunungan,"","","","","","",7.8236,123.965
PH,9217,Baloi,"","","","","","",8.1164,124.2253
PH,9218,Pantar,"","","","","","",8.0661,124.2583
PH,9219,Munai,"","","","","","",7.9758,124.0636
PH,9220,Tangkal,"","","","","","",8.0133,124.0344
PH,9221,Magsaysay,"","","","","","",8.2761,124.3957
PH,9222,Tagoloan,"","","","","","",8.5389,124.7569
PH,9300,Malabang,"","","","","","",7.5903,124.0703
PH,9301,Picong(Sultan Gumander),"","","","","","",7.6588,124.2571
PH,9302,Balabagan,"","","","","","",7.5264,124.1142
PH,9303,Marogong,"","","","","","",7.6667,124.15
PH,9304,Tubaran,"","","","","","",7.7242,124.1911
PH,9305,Butig,"","","","","","",7.7244,124.3008
PH,9306,Lumbayanague,"","","","","","",7.7825,124.28
PH,9307,Lumbatan,"","","","","","",7.4631,124.7589
PH,9308,Macadar Andong,"","","","","","",7.6588,124.2571
PH,9309,Bayang,"","","","","","",7.7928,124.1917
PH,9310,Binidayan,"","","","","","",7.8081,124.1692
PH,9311,Ganassi,"","","","","","",7.8303,124.1
PH,9312,Pagayawan,"","","","","","",8.1617,124.0258
PH,9313,Pualas,"","","","","","",8.0172,123.8481
PH,9314,Madamba,"","","","","","",11.9933,124.0325
PH,9315,Madalum,"","","","","","",7.8531,124.1186
PH,9316,Bacolod Kalawi,"","","","","","",8.3572,124.0852
PH,9317,Tugaya,"","","","","","",7.8842,124.1722
PH,9318,Balindong,"","","","","","",7.9167,124.2003
PH,9319,Calanogas,"","","","","","",7.75,124.1
PH,9320,Bumbaran,"","","","","","",7.8,124.65
PH,9321,Tagoloan-II,"","","","","","",7.8,124.65
PH,9400,Kidapawan City,"","","","","","",7.0308,124.9279
PH,9401,Makilala,"","","","","","",6.9517,125.0969
PH,9402,M'Lang,"","","","","","",6.9467,124.8783
PH,9403,Tulunan,"","","","","","",6.8344,124.8769
PH,9404,Magpet,"","","","","","",7.1119,125.1133
PH,9405,President Roxas,"","","","","","",7.1544,125.0558
PH,9406,Matalam,"","","","","","",7.0864,124.9006
PH,9407,Kabacan,"","","","","","",7.1067,124.8292
PH,9408,Carmen,"","","","","","",7.0308,124.9279
PH,9409,Pikit,"","","","","","",7.0544,124.6719
PH,9410,Midsayap,"","","","","","",7.1908,124.5303
PH,9411,Libungan,"","","","","","",11.1558,124.5631
PH,9412,Pigkawayan,"","","","","","",7.2772,124.4256
PH,9413,Alamada,"","","","","","",7.3333,124.5667
PH,9414,Antipas,"","","","","","",8.0896,124.5619
PH,9415,Aleosan,"","","","","","",8.0896,124.5619
PH,9416,Banisilan,"","","","","","",7.4908,124.7242
PH,9417,Arakan,"","","","","","",8.0896,124.5619
PH,9500,General Santos City,"","","","","","",6.1128,125.1717
PH,9501,Alabel,"","","","","","",6.0894,125.2756
PH,9502,Maasim,"","","","","","",6.3211,125.0571
PH,9503,Malungon,"","","","","","",6.5225,125.3536
PH,9504,Polomolok,"","","","","","",6.2219,125.0603
PH,9505,Tupi,"","","","","","",6.3344,124.9528
PH,9506,Koronadal City,"","","","","","",6.3211,125.0571
PH,9507,Tampakan,"","","","","","",6.4442,124.9264
PH,9508,Norala,"","","","","","",6.5225,124.6592
PH,9509,Sto. Niño,"","","","","","",6.3211,125.0571
PH,9510,Tantangan,"","","","","","",6.615,124.7489
PH,9511,Banga,"","","","","","",6.4239,124.7783
PH,9512,Surallah,"","","","","","",6.3667,124.7333
PH,9513,T'Boli,"","","","","","",6.2,124.8333
PH,9514,Kiamba,"","","","","","",5.9894,124.6242
PH,9515,Maitum,"","","","","","",6.0392,124.4986
PH,9516,Malapatan,"","","","","","",5.9675,125.2881
PH,9517,Glan,"","","","","","",5.8231,125.2042
PH,9600,Cotabato City,"","","","","","",7.2236,124.2464
PH,9601,Datu Odin Sinsuat (Dinaig),"","","","","","",7.0646,124.3266
PH,9602,Upi/Datu Blah T. Sinsuat,"","","","","","",7.0646,124.3266
PH,9603,Ampatuan City,"","","","","","",6.8333,124.15
PH,9603,South Upi,"","","","","","",6.8333,124.15
PH,9604,Parang,"","","","","","",7.3711,124.2672
PH,9605,Sultan Kudarat/Sultan Mastura,"","","","","","",7.0646,124.3266
PH,9606,Kabuntalan/Northern Kabuntalan,"","","","","","",7.0646,124.3266
PH,9607,Datu Piang,"","","","","","",7.0283,124.5025
PH,9608,Sarip Aguak (Maganoy),"","","","","","",7.0646,124.3266
PH,9609,Ampatuan,"","","","","","",6.8667,124.4667
PH,9610,Pagalungan,"","","","","","",7.0567,124.7008
PH,9611,Sultan sa Barongis,"","","","","","",6.8,124.6367
PH,9612,Talayan,"","","","","","",7.2647,124.2342
PH,9613,Matanog,"","","","","","",7.5161,124.2564
PH,9614,Barira,"","","","","","",7.4872,124.2992
PH,9615,Buldon,"","","","","","",7.5097,124.3714
PH,9616,Buluan,"","","","","","",7.7167,122.5253
PH,9617,Datu Paglas,"","","","","","",6.7667,124.85
PH,9618,Gen. S.K. Pendatun,"","","","","","",7.2647,124.2342
PH,9700,Marawi City,"","","","","","",7.9986,124.2928
PH,9701,Saguiaran,"","","","","","",8.0331,124.27
PH,9702,Mulondo,"","","","","","",7.845,124.312
PH,9703,Lumba Bayabao,"","","","","","",7.8833,124.3833
PH,9704,Tamparan,"","","","","","",7.8792,124.3331
PH,9705,Poona Bayabao,"","","","","","",7.845,124.312
PH,9706,Masui,"","","","","","",7.845,124.312
PH,9708,Bubong,"","","","","","",7.1939,124.1919
PH,9709,Kapai,"","","","","","",8.0819,124.4011
PH,9710,Piagapo,"","","","","","",8,124.2
PH,9711,Marantao,"","","","","","",7.95,124.2333
PH,9712,Taraka,"","","","","","",7.6204,123.4139
PH,9713,Ramain-Ditsaan,"","","","","","",7.9708,124.3453
PH,9714,Buadiposo Buntong,"","","","","","",7.9667,124.3833
PH,9715,Maguing,"","","","","","",7.8652,124.2071
PH,9716,Wao,"","","","","","",7.6833,124.6667
PH,9800,Tacurong,"","","","","","",6.6925,124.6764
PH,9801,Columbio,"","","","","","",6.6964,124.9372
PH,9802,Mariano Marcos,"","","","","","",6.7333,124.6667
PH,9803,Lutayan,"","","","","","",6.62,124.8831
PH,9804,Pres. Quirino,"","","","","","",6.5913,124.5729
PH,9805,Isulan,"","","","","","",6.6294,124.605
PH,9806,Esperanza (Ampatuan),"","","","","","",6.5913,124.5729
PH,9807,Lebak (Salaman),"","","","","","",6.5913,124.5729
PH,9808,Kalamansig,"","","","","","",6.5567,124.0522
PH,9809,Palimbang,"","","","","","",6.2106,124.1894
PH,9810,Bagumbayan,"","","","","","",6.5913,124.5729
PH,9811,Sen. Ninoy Aquino,"","","","","","",6.5913,124.5729
