country_code,zipcode,place,state,state_code,province,province_code,community,community_code,latitude,longitude
BD,1000,Dhaka GPO,Dhaka Division,81,Dhaka,3026,Palton,"",23.729,90.4112
BD,1100,Dhaka Sadar HO,Dhaka Division,81,Dhaka,3026,Sutrapur,"",23.9996,90.4222
BD,1203,Wari TSO,Dhaka Division,81,Dhaka,3026,Sutrapur,"",23.7415,90.4276
BD,1204,Gendaria TSO,Dhaka Division,81,Dhaka,3026,Sutrapur,"",23.7011,90.4263
BD,1205,New Market TSO,Dhaka Division,81,Dhaka,3026,New market,"",23.7433,90.3841
BD,1206,Dhaka CantonmentTSO,Dhaka Division,81,Dhaka,3026,Dhaka Cantt.,"",23.8179,90.4103
BD,1207,Mohammadpur Housing,Dhaka Division,81,Dhaka,3026,Mohammadpur,"",23.7701,90.3628
BD,1208,Dhaka Politechnic,Dhaka Division,81,Dhaka,3026,Tejgaon Industrial Area,"",23.7591,90.4003
BD,1209,Jigatala TSO,Dhaka Division,81,Dhaka,3026,Dhanmondi,"",23.7552,90.3731
BD,1211,Posta TSO,Dhaka Division,81,Dhaka,3026,Lalbag,"",23.8196,90.364
BD,1212,Gulshan Model Town,Dhaka Division,81,Dhaka,3026,Gulshan,"",23.7916,90.4152
BD,1213,Banani TSO,Dhaka Division,81,Dhaka,3026,Gulshan,"",23.7931,90.4048
BD,1214,Basabo TSO,Dhaka Division,81,Dhaka,3026,Sabujbag,"",23.7418,90.4277
BD,1215,Tejgaon TSO,Dhaka Division,81,Dhaka,3026,Tejgaon,"",23.7687,90.3901
BD,1216,Mirpur TSO,Dhaka Division,81,Dhaka,3026,Mirpur,"",23.8219,90.3657
BD,1217,Shantinagr TSO,Dhaka Division,81,Dhaka,3026,Ramna,"",23.726,90.4251
BD,1219,KhilgaonTSO,Dhaka Division,81,Dhaka,3026,Khilgaon,"",23.7518,90.4254
BD,1222,BangabhabanTSO,Dhaka Division,81,Dhaka,3026,Motijheel,"",23.9072,90.4599
BD,1223,DilkushaTSO,Dhaka Division,81,Dhaka,3026,Motijheel,"",23.8822,90.4576
BD,1225,Sangsad BhabanTSO,Dhaka Division,81,Dhaka,3026,Mohammadpur,"",23.7617,90.3784
BD,1229,KhilkhetTSO,Dhaka Division,81,Dhaka,3026,Khilkhet,"",23.8515,90.403
BD,1230,Uttara Model TwonTSO,Dhaka Division,81,Dhaka,3026,Uttara,"",23.8667,90.4
BD,1232,Dhania TSO,Dhaka Division,81,Dhaka,3026,Jatrabari,"",23.7117,90.4463
BD,1310,Keraniganj,Dhaka Division,81,Dhaka,3026,Keraniganj,"",23.7223,90.311
BD,1311,Dhaka Jute Mills,Dhaka Division,81,Dhaka,3026,Keraniganj,"",23.7223,90.311
BD,1312,Ati,Dhaka Division,81,Dhaka,3026,Keraniganj,"",23.7167,90.35
BD,1313,Kalatia,Dhaka Division,81,Dhaka,3026,Keraniganj,"",23.7279,90.2721
BD,1320,Nawabganj,Dhaka Division,81,Dhaka,3026,Nawabganj,"",23.663,90.1593
BD,1321,Hasnabad,Dhaka Division,81,Dhaka,3026,Nawabganj,"",23.6551,90.1055
BD,1322,Daudpur,Dhaka Division,81,Dhaka,3026,Nawabganj,"",23.8833,90.5333
BD,1323,Agla,Dhaka Division,81,Dhaka,3026,Nawabganj,"",23.6503,90.2185
BD,1324,Khalpar,Dhaka Division,81,Dhaka,3026,Nawabganj,"",23.6298,90.1313
BD,1325,Churain,Dhaka Division,81,Dhaka,3026,Nawabganj,"",23.6189,90.224
BD,1330,Joypara,Dhaka Division,81,Dhaka,3026,Joypara,"",23.6215,90.1241
BD,1331,Palamganj,Dhaka Division,81,Dhaka,3026,Joypara,"",23.5412,90.2538
BD,1332,Narisha,Dhaka Division,81,Dhaka,3026,Joypara,"",23.5412,90.2538
BD,1340,Savar,Dhaka Division,81,Dhaka,3026,Savar,"",23.8486,90.25
BD,1341,Dairy Farm,Dhaka Division,81,Dhaka,3026,Savar,"",23.8486,90.25
BD,1342,Jahangirnagar Univer,Dhaka Division,81,Dhaka,3026,Savar,"",23.8486,90.25
BD,1343,Saver P.A.T.C,Dhaka Division,81,Dhaka,3026,Savar,"",23.8486,90.25
BD,1344,Savar Canttonment,Dhaka Division,81,Dhaka,3026,Savar,"",23.8486,90.25
BD,1345,Shimulia,Dhaka Division,81,Dhaka,3026,Savar,"",23.8486,90.25
BD,1346,Kashem Cotton Mills,Dhaka Division,81,Dhaka,3026,Savar,"",23.8486,90.25
BD,1347,Rajphulbaria,Dhaka Division,81,Dhaka,3026,Savar,"",23.8486,90.25
BD,1348,Amin Bazar,Dhaka Division,81,Dhaka,3026,Savar,"",23.8486,90.25
BD,1349,EPZ,Dhaka Division,81,Dhaka,3026,Savar,"",23.8486,90.25
BD,1350,Dhamrai,Dhaka Division,81,Dhaka,3026,Dhamrai,"",23.9122,90.2683
BD,1351,Kamalpur,Dhaka Division,81,Dhaka,3026,Dhamrai,"",23.9994,90.8099
BD,1360,Demra,Dhaka Division,81,Dhaka,3026,Demra,"",23.7099,90.4546
BD,1361,Sarulia,Dhaka Division,81,Dhaka,3026,Demra,"",23.8429,90.3244
BD,1362,Matuail,Dhaka Division,81,Dhaka,3026,Demra,"",23.7121,90.4598
BD,7800,Faridpursadar,Dhaka Division,81,Faridpur,3029,Faridpur Sadar,"",23.55,89.7833
BD,7801,Kanaipur,Dhaka Division,81,Faridpur,3029,Faridpur Sadar,"",23.55,89.7833
BD,7802,Ambikapur,Dhaka Division,81,Faridpur,3029,Faridpur Sadar,"",23.55,89.7833
BD,7803,Baitulaman Politecni,Dhaka Division,81,Faridpur,3029,Faridpur Sadar,"",23.55,89.7833
BD,7804,Shriangan,Dhaka Division,81,Faridpur,3029,Shriangan,"",23.55,89.7833
BD,7810,Charbadrashan,Dhaka Division,81,Faridpur,3029,Charbhadrasan,"",23.4224,89.8067
BD,7820,Sadarpur,Dhaka Division,81,Faridpur,3029,Sadarpur,"",23.4224,89.8067
BD,7821,Hat Krishapur,Dhaka Division,81,Faridpur,3029,Sadarpur,"",23.4224,89.8067
BD,7822,Bishwa jaker Manjil,Dhaka Division,81,Faridpur,3029,Sadarpur,"",23.4224,89.8067
BD,7830,Bhanga,Dhaka Division,81,Faridpur,3029,Bhanga,"",23.3919,89.9839
BD,7840,Nagarkanda,Dhaka Division,81,Faridpur,3029,Nagarkanda,"",23.4888,89.8771
BD,7841,Talma,Dhaka Division,81,Faridpur,3029,Nagarkanda,"",23.4888,89.8771
BD,7850,Madukhali,Dhaka Division,81,Faridpur,3029,Madukhali,"",23.4224,89.8067
BD,7851,Kamarkali,Dhaka Division,81,Faridpur,3029,Madukhali,"",23.4224,89.8067
BD,7860,Boalmari,Dhaka Division,81,Faridpur,3029,Boalmari,"",23.3921,89.6831
BD,7861,Rupatpat,Dhaka Division,81,Faridpur,3029,Boalmari,"",23.3921,89.6831
BD,7870,Alfadanga,Dhaka Division,81,Faridpur,3029,Alfadanga,"",23.289,89.706
BD,1700,Gazipur Sadar,Dhaka Division,81,Gazipur,3033,Gazipur Sadar,"",23.9874,90.4052
BD,1701,B.R.R,Dhaka Division,81,Gazipur,3033,Gazipur Sadar,"",23.9874,90.4052
BD,1702,Chandna,Dhaka Division,81,Gazipur,3033,Gazipur Sadar,"",23.9874,90.4052
BD,1703,B.O.F,Dhaka Division,81,Gazipur,3033,Gazipur Sadar,"",23.9874,90.4052
BD,1704,National University,Dhaka Division,81,Gazipur,3033,Gazipur Sadar,"",23.9874,90.4052
BD,1710,Monnunagar,Dhaka Division,81,Gazipur,3033,Monnunagar,"",24.0942,90.4858
BD,1711,Nishat Nagar,Dhaka Division,81,Gazipur,3033,Monnunagar,"",24.0942,90.4858
BD,1712,Ershad Nagar,Dhaka Division,81,Gazipur,3033,Monnunagar,"",24.0942,90.4858
BD,1720,Kaliganj,Dhaka Division,81,Gazipur,3033,Kaliganj,"",23.923,90.5655
BD,1721,Pubail,Dhaka Division,81,Gazipur,3033,Kaliganj,"",23.9387,90.4744
BD,1722,Santanpara,Dhaka Division,81,Gazipur,3033,Kaliganj,"",23.9193,90.6112
BD,1723,Vaoal Jamalpur,Dhaka Division,81,Gazipur,3033,Kaliganj,"",23.927,90.5504
BD,1730,kapashia,Dhaka Division,81,Gazipur,3033,Kapashia,"",24.0942,90.4858
BD,1740,Sreepur,Dhaka Division,81,Gazipur,3033,Sreepur,"",24.43,90.5342
BD,1741,Rajendrapur,Dhaka Division,81,Gazipur,3033,Sripur,"",24.6233,90.5782
BD,1742,Rajendrapur Canttome,Dhaka Division,81,Gazipur,3033,Sripur,"",24.43,90.5342
BD,1743,Barmi,Dhaka Division,81,Gazipur,3033,Sreepur,"",24.43,90.5342
BD,1744,Satkhamair,Dhaka Division,81,Gazipur,3033,Sreepur,"",24.2368,90.4903
BD,1745,Kawraid,Dhaka Division,81,Gazipur,3033,Sreepur,"",24.43,90.5342
BD,1747,Bashamur,Dhaka Division,81,Gazipur,3033,Sreepur,"",24.43,90.5342
BD,1748,Boubi,Dhaka Division,81,Gazipur,3033,Sreepur,"",24.43,90.5342
BD,1750,Kaliakaar,Dhaka Division,81,Gazipur,3033,Kaliakaar,"",24.0311,90.276
BD,1751,Safipur,Dhaka Division,81,Gazipur,3033,Kaliakaar,"",24.0311,90.276
BD,8013,Chandradighalia,Dhaka Division,81,Gopalganj,3035,Gopalganj Sadar,"",23.2328,90.4242
BD,8100,Gopalganj Sadar,Dhaka Division,81,Gopalganj,3035,Gopalganj Sadar,"",23.0713,89.8345
BD,8101,Ulpur,Dhaka Division,81,Gopalganj,3035,Gopalganj Sadar,"",23.0713,89.8345
BD,8102,Barfa,Dhaka Division,81,Gopalganj,3035,Gopalganj Sadar,"",23.0713,89.8345
BD,8110,Kotalipara,Dhaka Division,81,Gopalganj,3035,Kotalipara,"",23.1528,89.8974
BD,8120,Tungipara,Dhaka Division,81,Gopalganj,3035,Tungipara,"",22.8998,89.9033
BD,8121,Patgati,Dhaka Division,81,Gopalganj,3035,Tungipara,"",22.8927,89.897
BD,8130,Kashiani,Dhaka Division,81,Gopalganj,3035,Kashiani,"",23.2357,89.7205
BD,8131,Ramdia College,Dhaka Division,81,Gopalganj,3035,Kashiani,"",23.2357,89.7205
BD,8132,Ratoil,Dhaka Division,81,Gopalganj,3035,Kashiani,"",23.2357,89.7205
BD,8133,Jonapur,Dhaka Division,81,Gopalganj,3035,Kashiani,"",23.2357,89.7205
BD,8140,Maksudpur,Dhaka Division,81,Gopalganj,3035,Maksudpur,"",23.5506,90.1623
BD,8141,Batkiamari,Dhaka Division,81,Gopalganj,3035,Maksudpur,"",23.4086,90.0145
BD,8142,Khandarpara,Dhaka Division,81,Gopalganj,3035,Maksudpur,"",23.2667,89.8667
BD,2300,Kishoreganj Sadar,Dhaka Division,81,Kishoreganj,3048,Kishoreganj Sadar,"",24.3394,90.7603
BD,2301,Kishoreganj S.Mills,Dhaka Division,81,Kishoreganj,3048,Kishoreganj Sadar,"",24.3394,90.7603
BD,2302,Maizhati,Dhaka Division,81,Kishoreganj,3048,Kishoreganj Sadar,"",24.3394,90.7603
BD,2303,Nilganj,Dhaka Division,81,Kishoreganj,3048,Kishoreganj Sadar,"",24.3394,90.7603
BD,2310,Karimganj,Dhaka Division,81,Kishoreganj,3048,Karimganj,"",24.4678,90.8705
BD,2316,Tarial,Dhaka Division,81,Kishoreganj,3048,Tarial,"",24.4678,90.8705
BD,2320,Hossenpur,Dhaka Division,81,Kishoreganj,3048,Hossenpur,"",24.3491,90.9571
BD,2326,Pakundia,Dhaka Division,81,Kishoreganj,3048,Pakundia,"",24.3491,90.9571
BD,2330,Katiadi,Dhaka Division,81,Kishoreganj,3048,Katiadi,"",24.2162,90.95
BD,2331,Gochhihata,Dhaka Division,81,Kishoreganj,3048,Katiadi,"",24.2162,90.95
BD,2336,Bajitpur,Dhaka Division,81,Kishoreganj,3048,Bajitpur,"",24.2162,90.95
BD,2337,Sararchar,Dhaka Division,81,Kishoreganj,3048,Bajitpur,"",24.2162,90.95
BD,2338,Laksmipur,Dhaka Division,81,Kishoreganj,3048,Bajitpur,"",24.2162,90.95
BD,2340,Kuliarchar,Dhaka Division,81,Kishoreganj,3048,Kuliarchar,"",24.155,90.9
BD,2341,Chhoysuti,Dhaka Division,81,Kishoreganj,3048,Kuliarchar,"",24.155,90.9
BD,2350,Bhairab,Dhaka Division,81,Kishoreganj,3048,Bhairob,"",24.3491,90.9571
BD,2360,Nikli,Dhaka Division,81,Kishoreganj,3048,Nikli,"",24.3491,90.9571
BD,2370,MIthamoin,Dhaka Division,81,Kishoreganj,3048,Mithamoin,"",24.3895,91.1657
BD,2371,Abdullahpur,Dhaka Division,81,Kishoreganj,3048,Mithamoin,"",24.3895,91.1657
BD,2380,Ostagram,Dhaka Division,81,Kishoreganj,3048,Ostagram,"",24.3491,90.9571
BD,2390,Itna,Dhaka Division,81,Kishoreganj,3048,Itna,"",24.5269,91.096
BD,7900,Madaripur Sadar,Dhaka Division,81,Madaripur,3054,Madaripur Sadar,"",23.1691,90.2258
BD,7901,Charmugria,Dhaka Division,81,Madaripur,3054,Madaripur Sadar,"",23.1691,90.2258
BD,7902,Kulpaddi,Dhaka Division,81,Madaripur,3054,Madaripur Sadar,"",23.1691,90.2258
BD,7903,Habiganj,Dhaka Division,81,Madaripur,3054,Madaripur Sadar,"",23.1691,90.2258
BD,7904,Mustafapur,Dhaka Division,81,Madaripur,3054,Madaripur Sadar,"",23.1691,90.2258
BD,7910,Rajoir,Dhaka Division,81,Madaripur,3054,Rajoir,"",23.2069,90.0505
BD,7911,Khalia,Dhaka Division,81,Madaripur,3054,Rajoir,"",23.2221,90.0013
BD,7920,Kalkini,Dhaka Division,81,Madaripur,3054,kalkini,"",23.1,90.2667
BD,7921,Sahabrampur,Dhaka Division,81,Madaripur,3054,kalkini,"",23.1,90.2667
BD,7930,Barhamganj,Dhaka Division,81,Madaripur,3054,Barhamganj,"",23.2786,90.1741
BD,7931,Nilaksmibandar,Dhaka Division,81,Madaripur,3054,Barhamganj,"",23.2786,90.1741
BD,7932,Bahadurpur,Dhaka Division,81,Madaripur,3054,Barhamganj,"",23.2365,90.1424
BD,7933,Umedpur,Dhaka Division,81,Madaripur,3054,Barhamganj,"",23.3208,90.2057
BD,1800,Manikganj Sadar,Dhaka Division,81,Manikganj,3056,Manikganj Sadar,"",23.8473,89.8707
BD,1801,Manikganj Bazar,Dhaka Division,81,Manikganj,3056,Manikganj Sadar,"",23.8473,89.8707
BD,1802,Gorpara,Dhaka Division,81,Manikganj,3056,Manikganj Sadar,"",23.8473,89.8707
BD,1803,Mahadebpur,Dhaka Division,81,Manikganj,3056,Manikganj Sadar,"",23.8499,89.8783
BD,1804,Barangail,Dhaka Division,81,Manikganj,3056,Manikganj Sadar,"",23.8447,89.8631
BD,1810,Saturia,Dhaka Division,81,Manikganj,3056,Saturia,"",23.8863,89.7719
BD,1811,Baliati,Dhaka Division,81,Manikganj,3056,Saturia,"",23.9939,90.0404
BD,1820,Singair,Dhaka Division,81,Manikganj,3056,Singari,"",23.8129,90.1428
BD,1821,Baira,Dhaka Division,81,Manikganj,3056,Singari,"",23.8206,90.0727
BD,1822,joymantop,Dhaka Division,81,Manikganj,3056,Singari,"",23.8167,90.1078
BD,1830,Lechhraganj,Dhaka Division,81,Manikganj,3056,Lechhraganj,"",23.8609,89.9366
BD,1831,Jhitka,Dhaka Division,81,Manikganj,3056,Lechhraganj,"",23.8609,89.9366
BD,1840,Gheor,Dhaka Division,81,Manikganj,3056,Gheor,"",23.8609,89.9366
BD,1850,Shibaloy,Dhaka Division,81,Manikganj,3056,Shibloya,"",23.8178,89.7866
BD,1851,Aricha,Dhaka Division,81,Manikganj,3056,Shibloya,"",23.8178,89.7866
BD,1852,Tewta,Dhaka Division,81,Manikganj,3056,Shibloya,"",23.8178,89.7866
BD,1853,Uthli,Dhaka Division,81,Manikganj,3056,Shibloya,"",23.8178,89.7866
BD,1860,Doulatpur,Dhaka Division,81,Manikganj,3056,Doulatpur,"",23.8609,89.9366
BD,1333,Haridia,Dhaka Division,81,Munshiganj,3059,Lohajong,"",23.4608,90.3835
BD,1334,Gouragonj,Dhaka Division,81,Munshiganj,3059,Lohajong,"",23.5412,90.2538
BD,1335,Madini Mandal,Dhaka Division,81,Munshiganj,3059,Lohajong,"",23.5412,90.2538
BD,1500,Munshiganj Sadar,Dhaka Division,81,Munshiganj,3059,Munshiganj Sadar,"",23.55,90.4167
BD,1501,Rikabibazar,Dhaka Division,81,Munshiganj,3059,Munshiganj Sadar,"",23.55,90.4167
BD,1502,Mirkadim,Dhaka Division,81,Munshiganj,3059,Munshiganj Sadar,"",23.55,90.4167
BD,1503,Kathakhali,Dhaka Division,81,Munshiganj,3059,Munshiganj Sadar,"",23.55,90.4167
BD,1510,Gajaria,Dhaka Division,81,Munshiganj,3059,Gajaria,"",23.8167,90.4833
BD,1511,Hossendi,Dhaka Division,81,Munshiganj,3059,Gajaria,"",23.675,90.5462
BD,1512,Rasulpur,Dhaka Division,81,Munshiganj,3059,Gajaria,"",23.5333,90.609
BD,1520,Tangibari,Dhaka Division,81,Munshiganj,3059,Tangibari,"",23.5126,90.4664
BD,1521,Betkahat,Dhaka Division,81,Munshiganj,3059,Tangibari,"",23.4576,90.4677
BD,1522,Baligao,Dhaka Division,81,Munshiganj,3059,Tangibari,"",23.4576,90.4677
BD,1523,Bajrajugini,Dhaka Division,81,Munshiganj,3059,Tangibari,"",23.4576,90.4677
BD,1524,Hasail,Dhaka Division,81,Munshiganj,3059,Tangibari,"",23.4354,90.452
BD,1525,Dighirpar,Dhaka Division,81,Munshiganj,3059,Tangibari,"",23.4249,90.4848
BD,1526,Pura EDSO,Dhaka Division,81,Munshiganj,3059,Tangibari,"",23.4576,90.4677
BD,1527,Pura,Dhaka Division,81,Munshiganj,3059,Tangibari,"",23.4576,90.4677
BD,1530,Lohajang,Dhaka Division,81,Munshiganj,3059,Lohajong,"",23.45,90.35
BD,1531,Korhati,Dhaka Division,81,Munshiganj,3059,Lohajong,"",23.45,90.3
BD,1532,Haldia SO,Dhaka Division,81,Munshiganj,3059,Lohajong,"",23.45,90.325
BD,1533,Haridia DESO,Dhaka Division,81,Munshiganj,3059,Lohajong,"",23.45,90.325
BD,1534,Gouragonj,Dhaka Division,81,Munshiganj,3059,Lohajong,"",23.45,90.325
BD,1535,Medini Mandal EDSO,Dhaka Division,81,Munshiganj,3059,Lohajong,"",23.45,90.325
BD,1540,Sirajdikhan,Dhaka Division,81,Munshiganj,3059,Sirajdikhan,"",23.5604,90.3444
BD,1541,Kola,Dhaka Division,81,Munshiganj,3059,Sirajdikhan,"",23.5604,90.3444
BD,1542,Ichapur,Dhaka Division,81,Munshiganj,3059,Sirajdikhan,"",23.5604,90.3444
BD,1543,Malkha Nagar,Dhaka Division,81,Munshiganj,3059,Sirajdikhan,"",23.5604,90.3444
BD,1544,Shekher Nagar,Dhaka Division,81,Munshiganj,3059,Sirajdikhan,"",23.5604,90.3444
BD,1550,Srinagar,Dhaka Division,81,Munshiganj,3059,Srinagar,"",23.55,90.65
BD,1551,Barikhal,Dhaka Division,81,Munshiganj,3059,Srinagar,"",23.5284,90.3663
BD,1552,Mazpara,Dhaka Division,81,Munshiganj,3059,Srinagar,"",23.5284,90.3663
BD,1553,Hashara,Dhaka Division,81,Munshiganj,3059,Srinagar,"",23.5284,90.3663
BD,1554,Kolapara,Dhaka Division,81,Munshiganj,3059,Srinagar,"",23.4988,90.2571
BD,1555,Kumarbhog,Dhaka Division,81,Munshiganj,3059,Srinagar,"",23.5284,90.3663
BD,1556,Vaggyakul SO,Dhaka Division,81,Munshiganj,3059,Srinagar,"",23.5284,90.3663
BD,1557,Baghra,Dhaka Division,81,Munshiganj,3059,Srinagar,"",23.5364,90.1919
BD,1558,Bhaggyakul,Dhaka Division,81,Munshiganj,3059,Srinagar,"",23.5284,90.3663
BD,1400,Narayanganj Sadar,Dhaka Division,81,Narayanganj,3067,Narayanganj Sadar,"",23.7197,90.5634
BD,1410,Bandar,Dhaka Division,81,Narayanganj,3067,Bandar,"",23.6173,90.5283
BD,1411,D.C Mills,Dhaka Division,81,Narayanganj,3067,Bandar,"",23.6106,90.5234
BD,1412,Nabiganj,Dhaka Division,81,Narayanganj,3067,Bandar,"",23.6286,90.5197
BD,1413,BIDS,Dhaka Division,81,Narayanganj,3067,Bandar,"",23.6106,90.5234
BD,1414,Madanganj,Dhaka Division,81,Narayanganj,3067,Bandar,"",23.5858,90.522
BD,1420,Fatullah,Dhaka Division,81,Narayanganj,3067,Fatullah,"",23.65,90.49
BD,1421,Fatulla Bazar,Dhaka Division,81,Narayanganj,3067,Fatullah,"",23.65,90.49
BD,1430,Siddirganj,Dhaka Division,81,Narayanganj,3067,Siddirganj,"",23.7197,90.5634
BD,1431,Adamjeenagar,Dhaka Division,81,Narayanganj,3067,Siddirganj,"",23.7197,90.5634
BD,1432,LN Mills,Dhaka Division,81,Narayanganj,3067,Siddirganj,"",23.7197,90.5634
BD,1440,Baidder Bazar,Dhaka Division,81,Narayanganj,3067,Baidder Bazar,"",23.7197,90.5634
BD,1441,Bara Nagar,Dhaka Division,81,Narayanganj,3067,Baidder Bazar,"",23.7197,90.5634
BD,1442,Barodi,Dhaka Division,81,Narayanganj,3067,Baidder Bazar,"",23.7197,90.5634
BD,1450,Araihazar,Dhaka Division,81,Narayanganj,3067,Araihazar,"",23.7941,90.6575
BD,1451,Gopaldi,Dhaka Division,81,Narayanganj,3067,Araihazar,"",23.8057,90.7103
BD,1460,Rupganj,Dhaka Division,81,Narayanganj,3067,Rupganj,"",23.7986,90.5475
BD,1461,Kanchan,Dhaka Division,81,Narayanganj,3067,Rupganj,"",23.831,90.558
BD,1462,Bhulta,Dhaka Division,81,Narayanganj,3067,Rupganj,"",23.7775,90.5593
BD,1463,Nagri,Dhaka Division,81,Narayanganj,3067,Rupganj,"",23.7986,90.5475
BD,1464,Murapara,Dhaka Division,81,Narayanganj,3067,Rupganj,"",23.7871,90.5252
BD,1600,Narshingdi Sadar,Dhaka Division,81,Narshingdi,3068,Narshingdi Sadar,"",23.9282,90.6994
BD,1601,UMC Jute Mills,Dhaka Division,81,Narshingdi,3068,Narshingdi Sadar,"",23.9282,90.6994
BD,1602,Narshingdi College,Dhaka Division,81,Narshingdi,3068,Narshingdi Sadar,"",23.9282,90.6994
BD,1603,Panchdona,Dhaka Division,81,Narshingdi,3068,Narshingdi Sadar,"",23.8983,90.6615
BD,1604,Madhabdi,Dhaka Division,81,Narshingdi,3068,Narshingdi Sadar,"",23.999,90.6925
BD,1605,Karimpur,Dhaka Division,81,Narshingdi,3068,Narshingdi Sadar,"",23.8874,90.7442
BD,1610,Palash,Dhaka Division,81,Narshingdi,3068,Palash,"",23.95,90.625
BD,1611,Ghorashal Urea Facto,Dhaka Division,81,Narshingdi,3068,Palash,"",23.9456,90.6277
BD,1612,Char Sindhur,Dhaka Division,81,Narshingdi,3068,Palash,"",23.9456,90.6277
BD,1613,Ghorashal,Dhaka Division,81,Narshingdi,3068,Palash,"",23.9413,90.6304
BD,1620,Shibpur,Dhaka Division,81,Narshingdi,3068,Shibpur,"",24.0394,90.7392
BD,1630,Raypura,Dhaka Division,81,Narshingdi,3068,Raypura,"",24.0186,90.7129
BD,1631,Bazar Hasnabad,Dhaka Division,81,Narshingdi,3068,Raypura,"",24.0186,90.7129
BD,1632,Radhaganj bazar,Dhaka Division,81,Narshingdi,3068,Raypura,"",24.0186,90.7129
BD,1640,Belabo,Dhaka Division,81,Narshingdi,3068,Belabo,"",24.1035,90.8458
BD,1650,Monohordi,Dhaka Division,81,Narshingdi,3068,Monohordi,"",24.1155,90.7271
BD,1651,Hatirdia,Dhaka Division,81,Narshingdi,3068,Monohordi,"",24.1007,90.703
BD,1652,Katabaria,Dhaka Division,81,Narshingdi,3068,Monohordi,"",24.1508,90.7608
BD,7700,Rajbari Sadar,Dhaka Division,81,Rajbari,3082,Rajbari Sadar,"",23.7187,89.6105
BD,7710,Goalanda,Dhaka Division,81,Rajbari,3082,Rajbari Sadar,"",23.7241,89.765
BD,7711,Khankhanapur,Dhaka Division,81,Rajbari,3082,Rajbari Sadar,"",23.6924,89.7064
BD,7720,Pangsha,Dhaka Division,81,Rajbari,3082,Pangsha,"",23.7808,89.4246
BD,7721,Ramkol,Dhaka Division,81,Rajbari,3082,Pangsha,"",23.7968,89.3513
BD,7722,Ratandia,Dhaka Division,81,Rajbari,3082,Pangsha,"",23.7648,89.4978
BD,7723,Mrigibazar,Dhaka Division,81,Rajbari,3082,Pangsha,"",23.7808,89.4246
BD,7730,Baliakandi,Dhaka Division,81,Rajbari,3082,Baliakandi,"",23.7252,89.7201
BD,7731,Nalia,Dhaka Division,81,Rajbari,3082,Baliakandi,"",23.6091,89.6226
BD,8000,Shariatpur Sadar,Dhaka Division,81,Shariatpur,3086,Shariatpur Sadar,"",23.2578,90.3152
BD,8001,Angaria,Dhaka Division,81,Shariatpur,3086,Shariatpur Sadar,"",23.2578,90.3152
BD,8002,Chikandi,Dhaka Division,81,Shariatpur,3086,Shariatpur Sadar,"",23.2578,90.3152
BD,8010,Jajira,Dhaka Division,81,Shariatpur,3086,Jajira,"",23.2328,90.4242
BD,8020,Naria,Dhaka Division,81,Shariatpur,3086,Naria,"",23.3029,90.4087
BD,8021,Bhozeshwar,Dhaka Division,81,Shariatpur,3086,Naria,"",23.2709,90.453
BD,8022,Gharisar,Dhaka Division,81,Shariatpur,3086,Naria,"",23.2707,90.4776
BD,8023,Upshi,Dhaka Division,81,Shariatpur,3086,Naria,"",23.2709,90.453
BD,8024,Kartikpur,Dhaka Division,81,Shariatpur,3086,Naria,"",23.2391,90.4729
BD,8030,Bhedorganj,Dhaka Division,81,Shariatpur,3086,Bhedorganj,"",23.2328,90.4242
BD,8040,Damudhya,Dhaka Division,81,Shariatpur,3086,Damudhya,"",23.2328,90.4242
BD,8050,Gosairhat,Dhaka Division,81,Shariatpur,3086,Gosairhat,"",23.0934,90.4468
BD,1900,Tangail Sadar,Dhaka Division,81,Tangail,3093,Tangail Sadar,"",24.3551,90.0386
BD,1901,Kagmari,Dhaka Division,81,Tangail,3093,Tangail Sadar,"",24.3551,90.0386
BD,1902,Santosh,Dhaka Division,81,Tangail,3093,Tangail Sadar,"",24.3551,90.0386
BD,1903,Korotia,Dhaka Division,81,Tangail,3093,Tangail Sadar,"",24.3551,90.0386
BD,1904,Purabari,Dhaka Division,81,Tangail,3093,Tangail Sadar,"",24.3551,90.0386
BD,1910,Delduar,Dhaka Division,81,Tangail,3093,Delduar,"",24.1597,89.9621
BD,1911,Jangalia,Dhaka Division,81,Tangail,3093,Delduar,"",23.9854,90.0662
BD,1912,Patharail,Dhaka Division,81,Tangail,3093,Delduar,"",23.8667,89.95
BD,1913,Elasin,Dhaka Division,81,Tangail,3093,Delduar,"",24.0039,89.9928
BD,1914,Hinga Nagar,Dhaka Division,81,Tangail,3093,Delduar,"",24.0039,89.9928
BD,1915,Lowhati,Dhaka Division,81,Tangail,3093,Delduar,"",24.0039,89.9928
BD,1920,Basail,Dhaka Division,81,Tangail,3093,Basail,"",24.2857,90.0003
BD,1930,Kashkawlia,Dhaka Division,81,Tangail,3093,Kashkaolia,"",24.0578,89.877
BD,1936,Nagarpur,Dhaka Division,81,Tangail,3093,Nagarpur,"",24.0578,89.877
BD,1937,Dhuburia,Dhaka Division,81,Tangail,3093,Nagarpur,"",24.0578,89.877
BD,1938,Salimabad,Dhaka Division,81,Tangail,3093,Nagarpur,"",24.0578,89.877
BD,1940,Mirzapur,Dhaka Division,81,Tangail,3093,Mirzapur,"",24.1029,90.0984
BD,1941,Gorai,Dhaka Division,81,Tangail,3093,Mirzapur,"",24.0926,90.1623
BD,1942,M.C. College,Dhaka Division,81,Tangail,3093,Mirzapur,"",24.0977,90.1303
BD,1943,Warri paikpara,Dhaka Division,81,Tangail,3093,Mirzapur,"",24.0977,90.1303
BD,1944,Jarmuki,Dhaka Division,81,Tangail,3093,Mirzapur,"",24.0977,90.1303
BD,1945,Mohera,Dhaka Division,81,Tangail,3093,Mirzapur,"",24.0977,90.1303
BD,1950,Sakhipur,Dhaka Division,81,Tangail,3093,Sakhipur,"",24.3199,90.1694
BD,1951,Kochua,Dhaka Division,81,Tangail,3093,Sakhipur,"",24.3199,90.1694
BD,1960,Bhuapur,Dhaka Division,81,Tangail,3093,Bhuapur,"",24.4604,89.8727
BD,1970,Kalihati,Dhaka Division,81,Tangail,3093,Kalihati,"",24.3824,90.0006
BD,1971,Rajafair,Dhaka Division,81,Tangail,3093,Kalihati,"",24.4,90.0333
BD,1972,Nagbari,Dhaka Division,81,Tangail,3093,Kalihati,"",24.3451,90.0494
BD,1973,Ballabazar,Dhaka Division,81,Tangail,3093,Kalihati,"",24.3824,90.0006
BD,1974,Elinga,Dhaka Division,81,Tangail,3093,Kalihati,"",24.3824,90.0006
BD,1975,Palisha,Dhaka Division,81,Tangail,3093,Kalihati,"",24.3824,90.0006
BD,1976,Nagarbari SO,Dhaka Division,81,Tangail,3093,Kalihati,"",24.3824,90.0006
BD,1977,Nagarbari,Dhaka Division,81,Tangail,3093,Kalihati,"",24.4022,89.919
BD,1980,Ghatial,Dhaka Division,81,Tangail,3093,Ghatail,"",24.2857,90.0003
BD,1981,Zahidganj,Dhaka Division,81,Tangail,3093,Ghatail,"",24.2857,90.0003
BD,1982,D. Pakutia,Dhaka Division,81,Tangail,3093,Ghatail,"",24.2857,90.0003
BD,1983,Dhalapara,Dhaka Division,81,Tangail,3093,Ghatail,"",24.2857,90.0003
BD,1984,Lohani,Dhaka Division,81,Tangail,3093,Ghatail,"",24.2857,90.0003
BD,1990,Gopalpur,Dhaka Division,81,Tangail,3093,Gopalpur,"",24.5601,89.9218
BD,1991,Jhowail,Dhaka Division,81,Tangail,3093,Gopalpur,"",24.5793,89.9353
BD,1992,Hemnagar,Dhaka Division,81,Tangail,3093,Gopalpur,"",24.5658,89.8525
BD,1996,Madhupur,Dhaka Division,81,Tangail,3093,Madhupur,"",24.6119,90.0315
BD,1997,Dhobari,Dhaka Division,81,Tangail,3093,Madhupur,"",24.5793,89.9353
BD,9300,Bagerhat Sadar,Khulna Division,82,Bagherhat,4001,Bagerhat Sadar,"",22.6953,89.7194
BD,9301,P.C College,Khulna Division,82,Bagherhat,4001,Bagerhat Sadar,"",22.6953,89.7194
BD,9302,Rangdia,Khulna Division,82,Bagherhat,4001,Bagerhat Sadar,"",22.6953,89.7194
BD,9310,Kachua,Khulna Division,82,Bagherhat,4001,Kachua UPO,"",22.6526,89.8856
BD,9311,Sonarkola,Khulna Division,82,Bagherhat,4001,Kachua UPO,"",22.6526,89.8856
BD,9320,Morelganj,Khulna Division,82,Bagherhat,4001,Morelganj,"",22.6953,89.7194
BD,9321,Sannasi Bazar,Khulna Division,82,Bagherhat,4001,Morelganj,"",22.6953,89.7194
BD,9322,Telisatee,Khulna Division,82,Bagherhat,4001,Morelganj,"",22.6953,89.7194
BD,9330,Rayenda,Khulna Division,82,Bagherhat,4001,Rayenda,"",22.3096,89.8421
BD,9340,Rampal,Khulna Division,82,Bagherhat,4001,Rampal,"",22.6686,89.6365
BD,9341,Foylahat,Khulna Division,82,Bagherhat,4001,Rampal,"",22.6686,89.6365
BD,9342,Sonatunia,Khulna Division,82,Bagherhat,4001,Rampal,"",22.6686,89.6365
BD,9343,Gourambha,Khulna Division,82,Bagherhat,4001,Rampal,"",22.6686,89.6365
BD,9350,Chalna Ankorage,Khulna Division,82,Bagherhat,4001,Chalna Ankorage,"",22.4889,89.5958
BD,9351,Mongla Port,Khulna Division,82,Bagherhat,4001,Chalna Ankorage,"",22.4889,89.5958
BD,9360,Chitalmari,Khulna Division,82,Bagherhat,4001,Chitalmari,"",22.7571,89.6683
BD,9361,Barabaria,Khulna Division,82,Bagherhat,4001,Chitalmari,"",22.7571,89.6683
BD,9370,Fakirhat,Khulna Division,82,Bagherhat,4001,Fakirhat,"",22.7785,89.7058
BD,9371,Mansa,Khulna Division,82,Bagherhat,4001,Fakirhat,"",22.7935,89.6723
BD,9372,Bhanganpar Bazar,Khulna Division,82,Bagherhat,4001,Fakirhat,"",22.786,89.689
BD,9380,Mollahat,Khulna Division,82,Bagherhat,4001,Mollahat,"",22.9044,89.7341
BD,9381,Kahalpur,Khulna Division,82,Bagherhat,4001,Mollahat,"",22.9044,89.7341
BD,9382,Dariala,Khulna Division,82,Bagherhat,4001,Mollahat,"",22.9141,89.739
BD,9383,Charkulia,Khulna Division,82,Bagherhat,4001,Mollahat,"",22.9044,89.7341
BD,9384,Nagarkandi,Khulna Division,82,Bagherhat,4001,Mollahat,"",22.8946,89.7292
BD,9385,Pak Gangni,Khulna Division,82,Bagherhat,4001,Mollahat,"",22.9044,89.7341
BD,7200,Chuadanga Sadar,Khulna Division,82,Chuadanga,4018,Chuadanga Sadar,"",23.7144,88.8957
BD,7201,Munshiganj,Khulna Division,82,Chuadanga,4018,Chuadanga Sadar,"",23.7144,88.8957
BD,7210,Alamdanga,Khulna Division,82,Chuadanga,4018,Alamdanga,"",23.7899,88.9033
BD,7211,Hardi,Khulna Division,82,Chuadanga,4018,Alamdanga,"",23.7899,88.9033
BD,7220,Damurhuda,Khulna Division,82,Chuadanga,4018,Damurhuda,"",23.6101,88.7798
BD,7221,Darshana,Khulna Division,82,Chuadanga,4018,Damurhuda,"",23.5149,88.8019
BD,7222,Andulbaria,Khulna Division,82,Chuadanga,4018,Damurhuda,"",23.4804,88.892
BD,7230,Doulatganj,Khulna Division,82,Chuadanga,4018,Doulatganj,"",23.6219,88.8545
BD,7400,Jessore Sadar,Khulna Division,82,Jessore,4041,Jessore Sadar,"",23.1586,89.2586
BD,7401,Jessore Upa-Shahar,Khulna Division,82,Jessore,4041,Jessore Sadar,"",23.1586,89.2586
BD,7402,Chanchra,Khulna Division,82,Jessore,4041,Jessore Sadar,"",23.1484,89.2138
BD,7403,Jessore canttonment,Khulna Division,82,Jessore,4041,Jessore Sadar,"",23.1586,89.2586
BD,7404,Jessore Airbach,Khulna Division,82,Jessore,4041,Jessore Sadar,"",23.1586,89.2586
BD,7405,Rupdia,Khulna Division,82,Jessore,4041,Jessore Sadar,"",23.1315,89.294
BD,7406,Basundia,Khulna Division,82,Jessore,4041,Jessore Sadar,"",23.1245,89.3709
BD,7407,Churamankathi,Khulna Division,82,Jessore,4041,Jessore Sadar,"",23.23,89.1558
BD,7410,Chougachha,Khulna Division,82,Jessore,4041,Chaugachha,"",23.2576,89.0201
BD,7420,Jhikargachha,Khulna Division,82,Jessore,4041,Jhikargachha,"",23.1113,89.0906
BD,7430,Sarsa,Khulna Division,82,Jessore,4041,Sarsa,"",23.0572,88.9525
BD,7431,Benapole,Khulna Division,82,Jessore,4041,Sarsa,"",23.047,88.9059
BD,7432,Jadabpur,Khulna Division,82,Jessore,4041,Sarsa,"",23.0487,89.0122
BD,7433,Bag Achra,Khulna Division,82,Jessore,4041,Sarsa,"",22.9655,88.9701
BD,7440,Monirampur,Khulna Division,82,Jessore,4041,Monirampur,"",23.0263,89.234
BD,7450,Keshobpur,Khulna Division,82,Jessore,4041,Keshabpur,"",23.6172,88.7799
BD,7460,Noapara,Khulna Division,82,Jessore,4041,Noapara,"",23.1783,89.231
BD,7461,Rajghat,Khulna Division,82,Jessore,4041,Noapara,"",23.0024,89.4303
BD,7462,Bhugilhat,Khulna Division,82,Jessore,4041,Noapara,"",23.0143,89.4563
BD,7470,Bagharpara,Khulna Division,82,Jessore,4041,Bagharpara,"",23.227,89.3375
BD,7471,Gouranagar,Khulna Division,82,Jessore,4041,Bagharpara,"",23.227,89.3375
BD,7300,Jinaidaha Sadar,Khulna Division,82,Jinaidaha,4044,Jinaidaha Sadar,"",23.451,89.1023
BD,7301,Jinaidaha Cadet College,Khulna Division,82,Jinaidaha,4044,Jinaidaha Sadar,"",23.451,89.1023
BD,7310,Harinakundu,Khulna Division,82,Jinaidaha,4044,Harinakundu,"",23.451,89.1023
BD,7320,Shailakupa,Khulna Division,82,Jinaidaha,4044,Shailakupa,"",23.6098,89.3147
BD,7321,Kumiradaha,Khulna Division,82,Jinaidaha,4044,Shailakupa,"",23.6098,89.3147
BD,7330,Kotchandpur,Khulna Division,82,Jinaidaha,4044,Kotchandpur,"",23.4023,89.0137
BD,7340,Maheshpur,Khulna Division,82,Jinaidaha,4044,Maheshpur,"",23.3529,88.9122
BD,7350,Naldanga,Khulna Division,82,Jinaidaha,4044,Naldanga,"",23.439,89.1684
BD,7351,Hatbar Bazar,Khulna Division,82,Jinaidaha,4044,Naldanga,"",23.439,89.1684
BD,9000,Khulna G.P.O,Khulna Division,82,Khulna,4047,Khulna Sadar,"",22.8404,89.5392
BD,9100,Khula Sadar,Khulna Division,82,Khulna,4047,Khulna Sadar,"",22.8174,89.5648
BD,9201,Khulna Shipyard,Khulna Division,82,Khulna,4047,Khulna Sadar,"",23.1149,89.3222
BD,9202,Doulatpur,Khulna Division,82,Khulna,4047,Khulna Sadar,"",23.3139,89.1382
BD,9203,BIT Khulna,Khulna Division,82,Khulna,4047,Khulna Sadar,"",23.1149,89.3222
BD,9204,Siramani,Khulna Division,82,Khulna,4047,Khulna Sadar,"",22.916,89.5062
BD,9205,Jahanabad Canttonmen,Khulna Division,82,Khulna,4047,Khulna Sadar,"",23.1149,89.3222
BD,9206,Sonali Jute Mills,Khulna Division,82,Khulna,4047,Khulna Sadar,"",23.1149,89.3222
BD,9207,Atra Shilpa Area,Khulna Division,82,Khulna,4047,Khulna Sadar,"",23.1149,89.3222
BD,9208,Khulna University,Khulna Division,82,Khulna,4047,Khulna Sadar,"",23.1149,89.3222
BD,9210,Phultala,Khulna Division,82,Khulna,4047,Phultala,"",22.7167,89.5119
BD,9220,Digalia,Khulna Division,82,Khulna,4047,Digalia,"",22.9325,89.5598
BD,9221,Chandni Mahal,Khulna Division,82,Khulna,4047,Digalia,"",22.9325,89.5598
BD,9222,Senhati,Khulna Division,82,Khulna,4047,Digalia,"",22.8752,89.55
BD,9223,Ghoshghati,Khulna Division,82,Khulna,4047,Digalia,"",22.9325,89.5598
BD,9224,Gazirhat,Khulna Division,82,Khulna,4047,Digalia,"",22.9899,89.5696
BD,9230,Terakhada,Khulna Division,82,Khulna,4047,Terakhada,"",22.9359,89.6706
BD,9231,Pak Barasat,Khulna Division,82,Khulna,4047,Terakhada,"",22.9359,89.6706
BD,9240,Alaipur,Khulna Division,82,Khulna,4047,Alaipur,"",22.8116,89.6364
BD,9241,Rupsha,Khulna Division,82,Khulna,4047,Alaipur,"",22.8116,89.6364
BD,9242,Belphulia,Khulna Division,82,Khulna,4047,Alaipur,"",22.8116,89.6364
BD,9250,Sajiara,Khulna Division,82,Khulna,4047,Sajiara,"",22.823,89.42
BD,9251,Ghonabanda,Khulna Division,82,Khulna,4047,Sajiara,"",22.7486,89.3095
BD,9252,Chuknagar,Khulna Division,82,Khulna,4047,Sajiara,"",22.8395,89.3086
BD,9253,Shahapur,Khulna Division,82,Khulna,4047,Sajiara,"",22.5833,89.2
BD,9260,Batiaghat,Khulna Division,82,Khulna,4047,Batiaghat,"",22.7442,89.4143
BD,9261,Surkalee,Khulna Division,82,Khulna,4047,Batiaghat,"",22.7442,89.4143
BD,9270,Chalna Bazar,Khulna Division,82,Khulna,4047,Chalna Bazar,"",22.4981,89.4937
BD,9271,Dakup,Khulna Division,82,Khulna,4047,Chalna Bazar,"",22.4981,89.4937
BD,9272,Bajua,Khulna Division,82,Khulna,4047,Chalna Bazar,"",22.5499,89.5394
BD,9273,Nalian,Khulna Division,82,Khulna,4047,Chalna Bazar,"",22.4462,89.448
BD,9280,Paikgachha,Khulna Division,82,Khulna,4047,Paikgachha,"",22.5831,89.3285
BD,9281,Godaipur,Khulna Division,82,Khulna,4047,Paikgachha,"",22.5829,89.2827
BD,9282,Kapilmoni,Khulna Division,82,Khulna,4047,Paikgachha,"",22.5829,89.2827
BD,9283,Katipara,Khulna Division,82,Khulna,4047,Paikgachha,"",22.6319,89.2579
BD,9284,Chandkhali,Khulna Division,82,Khulna,4047,Paikgachha,"",22.5338,89.2617
BD,9285,Garaikhali,Khulna Division,82,Khulna,4047,Paikgachha,"",22.5829,89.2827
BD,9290,Madinabad,Khulna Division,82,Khulna,4047,Madinabad,"",22.357,89.281
BD,9291,Amadee,Khulna Division,82,Khulna,4047,Madinabad,"",22.357,89.281
BD,7000,Kustia Sadar,Khulna Division,82,Kustia,4050,Kustia Sadar,"",23.9368,89.127
BD,7001,Kushtia Mohini,Khulna Division,82,Kustia,4050,Kustia Sadar,"",23.9086,89.1097
BD,7002,Jagati,Khulna Division,82,Kustia,4050,Kustia Sadar,"",23.8804,89.0925
BD,7003,Islami University,Khulna Division,82,Kustia,4050,Kustia Sadar,"",23.9086,89.1097
BD,7010,Kumarkhali,Khulna Division,82,Kustia,4050,Kumarkhali,"",23.8613,89.242
BD,7011,Panti,Khulna Division,82,Kustia,4050,Kumarkhali,"",23.7681,89.2129
BD,7020,Janipur,Khulna Division,82,Kustia,4050,Janipur,"",23.8003,89.2815
BD,7021,Khoksa,Khulna Division,82,Kustia,4050,Janipur,"",23.8003,89.2815
BD,7030,Mirpur,Khulna Division,82,Kustia,4050,Mirpur,"",23.9372,88.9979
BD,7031,Poradaha,Khulna Division,82,Kustia,4050,Mirpur,"",23.8662,89.0316
BD,7032,Amla Sadarpur,Khulna Division,82,Kustia,4050,Mirpur,"",23.9017,89.0148
BD,7040,Bheramara,Khulna Division,82,Kustia,4050,Bheramara,"",24.0245,88.9923
BD,7041,Ganges Bheramara,Khulna Division,82,Kustia,4050,Bheramara,"",24.0245,88.9923
BD,7042,Allardarga,Khulna Division,82,Kustia,4050,Bheramara,"",24.0245,88.9923
BD,7050,Rafayetpur,Khulna Division,82,Kustia,4050,Rafayetpur,"",23.8843,89.1222
BD,7051,Taragunia,Khulna Division,82,Kustia,4050,Rafayetpur,"",23.8843,89.1222
BD,7052,Khasmathurapur,Khulna Division,82,Kustia,4050,Rafayetpur,"",23.8843,89.1222
BD,7600,Magura Sadar,Khulna Division,82,Magura,4055,Magura Sadar,"",23.3824,89.4612
BD,7610,Shripur,Khulna Division,82,Magura,4055,Shripur,"",23.3824,89.4612
BD,7611,Langalbadh,Khulna Division,82,Magura,4055,Shripur,"",23.3824,89.4612
BD,7612,Nachol,Khulna Division,82,Magura,4055,Shripur,"",23.3824,89.4612
BD,7620,Arpara,Khulna Division,82,Magura,4055,Arpara,"",23.3732,89.3764
BD,7630,Mohammadpur,Khulna Division,82,Magura,4055,Mohammadpur,"",23.387,89.5036
BD,7631,Binodpur,Khulna Division,82,Magura,4055,Mohammadpur,"",23.4381,89.504
BD,7632,Nahata,Khulna Division,82,Magura,4055,Mohammadpur,"",23.3359,89.5032
BD,7100,Meherpur Sadar,Khulna Division,82,Meherpur,4057,Meherpur Sadar,"",23.7431,88.685
BD,7101,Amjhupi,Khulna Division,82,Meherpur,4057,Meherpur Sadar,"",23.7431,88.685
BD,7102,Mujib Nagar Complex,Khulna Division,82,Meherpur,4057,Meherpur Sadar,"",23.7431,88.685
BD,7110,Gangni,Khulna Division,82,Meherpur,4057,Gangni,"",23.7431,88.685
BD,7152,Amjhupi,Khulna Division,82,Meherpur,4057,Meherpur Sadar,"",23.7431,88.685
BD,7500,Narail Sadar,Khulna Division,82,Narail,4065,Narail Sadar,"",23.1404,89.6383
BD,7501,Ratanganj,Khulna Division,82,Narail,4065,Narail Sadar,"",23.1404,89.6383
BD,7510,Laxmipasha,Khulna Division,82,Narail,4065,Laxmipasha,"",23.1729,89.6408
BD,7511,Lohagora,Khulna Division,82,Narail,4065,Laxmipasha,"",23.1729,89.6408
BD,7512,Itna,Khulna Division,82,Narail,4065,Laxmipasha,"",23.1569,89.6935
BD,7513,Naldi,Khulna Division,82,Narail,4065,Laxmipasha,"",23.274,89.5492
BD,7514,Baradia,Khulna Division,82,Narail,4065,Laxmipasha,"",23.0878,89.6795
BD,7520,Kalia,Khulna Division,82,Narail,4065,Kalia,"",23.043,89.6309
BD,7521,Mohajan,Khulna Division,82,Narail,4065,Mohajan,"",23.043,89.6309
BD,9400,Satkhira Sadar,Khulna Division,82,Satkhira,4087,Satkhira Sadar,"",22.6297,89.1474
BD,9401,Satkhira Islamia Acc,Khulna Division,82,Satkhira,4087,Satkhira Sadar,"",22.6297,89.1474
BD,9402,Gunakar kati,Khulna Division,82,Satkhira,4087,Satkhira Sadar,"",22.6297,89.1474
BD,9403,Budhhat,Khulna Division,82,Satkhira,4087,Satkhira Sadar,"",22.6297,89.1474
BD,9410,kalaroa,Khulna Division,82,Satkhira,4087,kalaroa,"",22.8593,89.043
BD,9411,Murarikati,Khulna Division,82,Satkhira,4087,kalaroa,"",22.3017,89.0538
BD,9412,Jhaudanga,Khulna Division,82,Satkhira,4087,kalaroa,"",22.8089,89.0363
BD,9413,Hamidpur,Khulna Division,82,Satkhira,4087,kalaroa,"",23.1556,89.2476
BD,9414,Khordo,Khulna Division,82,Satkhira,4087,kalaroa,"",22.7814,89.0952
BD,9415,Chandanpur,Khulna Division,82,Satkhira,4087,kalaroa,"",22.7814,89.0952
BD,9420,Taala,Khulna Division,82,Satkhira,4087,Taala,"",22.7733,89.1605
BD,9421,Patkelghata,Khulna Division,82,Satkhira,4087,Taala,"",22.7733,89.1605
BD,9430,Debbhata,Khulna Division,82,Satkhira,4087,Debbhata,"",22.6297,89.1474
BD,9431,Gurugram,Khulna Division,82,Satkhira,4087,Debbhata,"",22.6297,89.1474
BD,9440,Kaliganj UPO,Khulna Division,82,Satkhira,4087,Kaliganj UPO,"",22.6297,89.1474
BD,9441,Nalta Mubaroknagar,Khulna Division,82,Satkhira,4087,Kaliganj UPO,"",22.6297,89.1474
BD,9442,Ratanpur,Khulna Division,82,Satkhira,4087,Kaliganj UPO,"",22.6297,89.1474
BD,9450,Nakipur,Khulna Division,82,Satkhira,4087,Nakipur,"",22.3314,89.1191
BD,9451,Noornagar,Khulna Division,82,Satkhira,4087,Nakipur,"",22.3081,89.1964
BD,9452,Naobeki,Khulna Division,82,Satkhira,4087,Nakipur,"",22.3081,89.1964
BD,9453,Buri Goalini,Khulna Division,82,Satkhira,4087,Nakipur,"",22.3081,89.1964
BD,9454,Gabura,Khulna Division,82,Satkhira,4087,Nakipur,"",22.2847,89.2738
BD,9455,Habinagar,Khulna Division,82,Satkhira,4087,Nakipur,"",22.3081,89.1964
BD,9460,Ashashuni,Khulna Division,82,Satkhira,4087,Ashashuni,"",22.5227,89.2455
BD,9461,Baradal,Khulna Division,82,Satkhira,4087,Ashashuni,"",22.5227,89.2455
BD,5800,Bogra Sadar,Rājshāhi Division,83,Bogra,5010,Bogra Sadar,"",24.806,89.3138
BD,5801,Bogra Canttonment,Rājshāhi Division,83,Bogra,5010,Bogra Sadar,"",24.806,89.3138
BD,5810,Shibganj,Rājshāhi Division,83,Bogra,5010,Shibganj,"",25.0015,89.3227
BD,5820,Gabtoli,Rājshāhi Division,83,Bogra,5010,Gabtoli,"",24.806,89.3138
BD,5821,Sukhanpukur,Rājshāhi Division,83,Bogra,5010,Gabtoli,"",24.806,89.3138
BD,5826,Sonatola,Rājshāhi Division,83,Bogra,5010,Sonatola,"",24.806,89.3138
BD,5830,Sariakandi,Rājshāhi Division,83,Bogra,5010,Sariakandi,"",24.8846,89.57
BD,5831,Chandan Baisha,Rājshāhi Division,83,Bogra,5010,Sariakandi,"",24.8,89.5833
BD,5840,Sherpur,Rājshāhi Division,83,Bogra,5010,Sherpur,"",24.6765,89.4159
BD,5841,Chandaikona,Rājshāhi Division,83,Bogra,5010,Sherpur,"",24.5505,89.5063
BD,5842,Palli Unnyan Accadem,Rājshāhi Division,83,Bogra,5010,Sherpur,"",24.6135,89.4611
BD,5850,Dhunat,Rājshāhi Division,83,Bogra,5010,Dhunat,"",24.6859,89.5414
BD,5851,Gosaibari,Rājshāhi Division,83,Bogra,5010,Dhunat,"",25.0021,88.7189
BD,5860,Nandigram,Rājshāhi Division,83,Bogra,5010,Nandigram,"",24.806,89.3138
BD,5870,Kahalu,Rājshāhi Division,83,Bogra,5010,Kahalu,"",24.806,89.3138
BD,5880,Dupchachia,Rājshāhi Division,83,Bogra,5010,Dupchachia,"",24.8441,89.1789
BD,5881,Talora,Rājshāhi Division,83,Bogra,5010,Dupchachia,"",24.8441,89.1789
BD,5890,Adamdighi,Rājshāhi Division,83,Bogra,5010,Alamdighi,"",24.8089,88.987
BD,5891,Santahar,Rājshāhi Division,83,Bogra,5010,Alamdighi,"",24.8089,88.987
BD,5892,Nasharatpur,Rājshāhi Division,83,Bogra,5010,Alamdighi,"",24.8089,88.987
BD,5900,Joypurhat Sadar,Rājshāhi Division,83,Joypurhat,5038,Joypurhat Sadar,"",25.0971,89.1033
BD,5910,Panchbibi,Rājshāhi Division,83,Joypurhat,5038,panchbibi,"",25.1907,89.0221
BD,5920,Khetlal,Rājshāhi Division,83,Joypurhat,5038,Khetlal,"",25.0389,89.1214
BD,5930,kalai,Rājshāhi Division,83,Joypurhat,5038,kalai,"",25.0617,89.1665
BD,5940,Akklepur,Rājshāhi Division,83,Joypurhat,5038,Akkelpur,"",25.0971,89.1033
BD,5941,jamalganj,Rājshāhi Division,83,Joypurhat,5038,Akkelpur,"",25.0971,89.1033
BD,5942,Tilakpur,Rājshāhi Division,83,Joypurhat,5038,Akkelpur,"",25.0971,89.1033
BD,6500,Naogaon Sadar,Rājshāhi Division,83,Naogaon,5064,Naogaon Sadar,"",24.9317,88.6882
BD,6510,Prasadpur,Rājshāhi Division,83,Naogaon,5064,Prasadpur,"",24.833,88.7168
BD,6511,Manda,Rājshāhi Division,83,Naogaon,5064,Prasadpur,"",24.7989,88.7028
BD,6512,Balihar,Rājshāhi Division,83,Naogaon,5064,Prasadpur,"",24.816,88.7098
BD,6520,Niamatpur,Rājshāhi Division,83,Naogaon,5064,Niamatpur,"",24.8354,88.5646
BD,6530,Mahadebpur,Rājshāhi Division,83,Naogaon,5064,Mahadebpur,"",24.9186,88.7511
BD,6540,Patnitala,Rājshāhi Division,83,Naogaon,5064,Patnitala,"",25.0462,88.7515
BD,6550,Nitpur,Rājshāhi Division,83,Naogaon,5064,Nitpur,"",25.0285,88.4611
BD,6551,Porsa,Rājshāhi Division,83,Naogaon,5064,Nitpur,"",25.0285,88.4611
BD,6552,Panguria,Rājshāhi Division,83,Naogaon,5064,Nitpur,"",25.0285,88.4611
BD,6560,Sapahar,Rājshāhi Division,83,Naogaon,5064,Sapahar,"",25.1198,88.6013
BD,6561,Moduhil,Rājshāhi Division,83,Naogaon,5064,Sapahar,"",25.1198,88.6013
BD,6570,Badalgachhi,Rājshāhi Division,83,Naogaon,5064,Badalgachhi,"",24.9678,88.9074
BD,6580,Dhamuirhat,Rājshāhi Division,83,Naogaon,5064,Dhamuirhat,"",24.9317,88.6882
BD,6590,Raninagar,Rājshāhi Division,83,Naogaon,5064,Raninagar,"",24.7398,88.9639
BD,6591,Kashimpur,Rājshāhi Division,83,Naogaon,5064,Raninagar,"",24.7398,88.9639
BD,6596,Ahsanganj,Rājshāhi Division,83,Naogaon,5064,Ahsanganj,"",24.7398,88.9639
BD,6597,Bandai,Rājshāhi Division,83,Naogaon,5064,Ahsanganj,"",24.7398,88.9639
BD,6400,Natore Sadar,Rājshāhi Division,83,Natore,5069,Natore Sadar,"",24.3519,89.0462
BD,6401,Digapatia,Rājshāhi Division,83,Natore,5069,Natore Sadar,"",24.3519,89.0462
BD,6402,Baiddyabal Gharia,Rājshāhi Division,83,Natore,5069,Natore Sadar,"",24.3519,89.0462
BD,6403,Madhnagar,Rājshāhi Division,83,Natore,5069,Natore Sadar,"",24.3519,89.0462
BD,6410,Laxman,Rājshāhi Division,83,Natore,5069,Laxman,"",24.3519,89.0462
BD,6420,Gopalpur U.P.O,Rājshāhi Division,83,Natore,5069,Gopalpur UPO,"",24.2581,88.9859
BD,6421,Lalpur S.O,Rājshāhi Division,83,Natore,5069,Gopalpur UPO,"",24.2581,88.9859
BD,6422,Abdulpur,Rājshāhi Division,83,Natore,5069,Gopalpur UPO,"",24.2581,88.9859
BD,6430,Harua,Rājshāhi Division,83,Natore,5069,Harua,"",24.2952,89.0063
BD,6431,Dayarampur,Rājshāhi Division,83,Natore,5069,Harua,"",24.2952,89.0063
BD,6432,Baraigram,Rājshāhi Division,83,Natore,5069,Harua,"",24.2952,89.0063
BD,6440,Hatgurudaspur,Rājshāhi Division,83,Natore,5069,Hatgurudaspur,"",24.3519,89.0462
BD,6450,Singra,Rājshāhi Division,83,Natore,5069,Singra,"",24.5026,89.1462
BD,6300,Chapinawbganj Sadar,Rājshāhi Division,83,Chapinawabganj,5070,Chapinawabganj Sadar,"",24.5992,88.2939
BD,6301,Rajarampur,Rājshāhi Division,83,Chapinawabganj,5070,Chapinawabganj Sadar,"",24.5797,88.2741
BD,6302,Ramchandrapur,Rājshāhi Division,83,Chapinawabganj,5070,Chapinawabganj Sadar,"",24.5987,88.2046
BD,6303,Amnura,Rājshāhi Division,83,Chapinawabganj,5070,Chapinawabganj Sadar,"",24.6194,88.403
BD,6310,Nachol,Rājshāhi Division,83,Chapinawabganj,5070,Nachol,"",24.7303,88.4203
BD,6311,Mandumala,Rājshāhi Division,83,Chapinawabganj,5070,Nachol,"",24.7303,88.4203
BD,6320,Rohanpur,Rājshāhi Division,83,Chapinawabganj,5070,Rohanpur,"",24.6962,88.2995
BD,6321,Gomashtapur,Rājshāhi Division,83,Chapinawabganj,5070,Rohanpur,"",24.6962,88.2995
BD,6330,Bholahat,Rājshāhi Division,83,Chapinawabganj,5070,Bholahat,"",24.953,88.1957
BD,6340,Shibganj U.P.O,Rājshāhi Division,83,Chapinawabganj,5070,Shibganj U.P.O,"",24.6962,88.2995
BD,6341,Kansart,Rājshāhi Division,83,Chapinawabganj,5070,Shibganj U.P.O,"",24.6962,88.2995
BD,6342,Manaksha,Rājshāhi Division,83,Chapinawabganj,5070,Shibganj U.P.O,"",24.6962,88.2995
BD,6600,Pabna Sadar,Rājshāhi Division,83,Pabna,5076,Pabna Sadar,"",24.0034,89.2493
BD,6601,Kaliko Cotton Mills,Rājshāhi Division,83,Pabna,5076,Pabna Sadar,"",24.0034,89.2493
BD,6602,Hamayetpur,Rājshāhi Division,83,Pabna,5076,Pabna Sadar,"",24.0034,89.2493
BD,6610,Debottar,Rājshāhi Division,83,Pabna,5076,Debottar,"",24.0793,89.4358
BD,6620,Ishwardi,Rājshāhi Division,83,Pabna,5076,Ishwardi,"",24.393,89.0088
BD,6621,Dhapari,Rājshāhi Division,83,Pabna,5076,Ishwardi,"",24.393,89.0088
BD,6622,Pakshi,Rājshāhi Division,83,Pabna,5076,Ishwardi,"",24.393,89.0088
BD,6623,Rajapur,Rājshāhi Division,83,Pabna,5076,Ishwardi,"",24.393,89.0088
BD,6630,Chatmohar,Rājshāhi Division,83,Pabna,5076,Chatmohar,"",24.2296,89.2911
BD,6640,Bhangura,Rājshāhi Division,83,Pabna,5076,Bhangura,"",24.0793,89.4358
BD,6650,Banwarinagar,Rājshāhi Division,83,Pabna,5076,Banwarinagar,"",24.0793,89.4358
BD,6660,Sujanagar,Rājshāhi Division,83,Pabna,5076,Sujanagar,"",23.8505,89.5954
BD,6661,Sagarkandi,Rājshāhi Division,83,Pabna,5076,Sujanagar,"",23.8505,89.5954
BD,6670,Sathia,Rājshāhi Division,83,Pabna,5076,Sathia,"",24.0793,89.4358
BD,6680,Bera,Rājshāhi Division,83,Pabna,5076,Bera,"",24.0782,89.6326
BD,6681,Nakalia,Rājshāhi Division,83,Pabna,5076,Bera,"",24.0347,89.6655
BD,6682,Kashinathpur,Rājshāhi Division,83,Pabna,5076,Bera,"",23.9657,89.6076
BD,6683,Puran Bharenga,Rājshāhi Division,83,Pabna,5076,Bera,"",24.0262,89.6352
BD,6000,Rajshahi Sadar,Rājshāhi Division,83,Rajshahi,5081,Rajshahi Sadar,"",24.3644,88.6049
BD,6100,Ghuramara,Rājshāhi Division,83,Rajshahi,5081,Rajshahi Sadar,"",24.3663,88.605
BD,6201,Rajshahi Court,Rājshāhi Division,83,Rajshahi,5081,Rajshahi Sadar,"",24.7514,88.3819
BD,6202,Rajshahi Canttonment,Rājshāhi Division,83,Rajshahi,5081,Rajshahi Sadar,"",24.7514,88.3819
BD,6203,Sapura,Rājshāhi Division,83,Rajshahi,5081,Rajshahi Sadar,"",24.7514,88.3819
BD,6204,Kazla,Rājshāhi Division,83,Rajshahi,5081,Rajshahi Sadar,"",24.7514,88.3819
BD,6205,Rajshahi University,Rājshāhi Division,83,Rajshahi,5081,Rajshahi Sadar,"",24.7514,88.3819
BD,6206,Binodpur Bazar,Rājshāhi Division,83,Rajshahi,5081,Rajshahi Sadar,"",24.7514,88.3819
BD,6210,Lalitganj,Rājshāhi Division,83,Rajshahi,5081,Lalitganj,"",24.4067,89.1145
BD,6211,Rajshahi Sugar Mills,Rājshāhi Division,83,Rajshahi,5081,Lalitganj,"",24.4067,89.1145
BD,6212,Shyampur,Rājshāhi Division,83,Rajshahi,5081,Lalitganj,"",24.4067,89.1145
BD,6220,Khodmohanpur,Rājshāhi Division,83,Rajshahi,5081,Khod Mohanpur,"",24.4461,88.7166
BD,6230,Tanor,Rājshāhi Division,83,Rajshahi,5081,Tanor,"",24.5909,88.5778
BD,6240,Durgapur,Rājshāhi Division,83,Rajshahi,5081,Durgapur,"",24.4466,88.7636
BD,6250,Bhabaniganj,Rājshāhi Division,83,Rajshahi,5081,Bhabaniganj,"",24.5837,88.8216
BD,6251,Taharpur,Rājshāhi Division,83,Rajshahi,5081,Bhabaniganj,"",24.5837,88.8216
BD,6260,Putia,Rājshāhi Division,83,Rajshahi,5081,Putia,"",24.4461,88.7166
BD,6270,Charghat,Rājshāhi Division,83,Rajshahi,5081,Charghat,"",24.2821,88.7585
BD,6271,Sarda,Rājshāhi Division,83,Rajshahi,5081,Charghat,"",24.2821,88.7585
BD,6280,Bagha,Rājshāhi Division,83,Rajshahi,5081,Bagha,"",24.1978,88.8464
BD,6281,Arani,Rājshāhi Division,83,Rajshahi,5081,Bagha,"",24.2878,88.8621
BD,6290,Godagari,Rājshāhi Division,83,Rajshahi,5081,Godagari,"",24.4683,88.3236
BD,6291,Premtoli,Rājshāhi Division,83,Rajshahi,5081,Godagari,"",24.4683,88.3236
BD,6700,Sirajganj Sadar,Rājshāhi Division,83,Sirajganj,5088,Sirajganj Sadar,"",24.6494,88.9346
BD,6701,Raipur,Rājshāhi Division,83,Sirajganj,5088,Sirajganj Sadar,"",24.6494,88.9346
BD,6702,Rashidabad,Rājshāhi Division,83,Sirajganj,5088,Sirajganj Sadar,"",24.6494,88.9346
BD,6710,Kazipur,Rājshāhi Division,83,Sirajganj,5088,Kazipur,"",24.6115,89.6328
BD,6711,Shuvgachha,Rājshāhi Division,83,Sirajganj,5088,Kazipur,"",24.6115,89.6328
BD,6712,Gandail,Rājshāhi Division,83,Sirajganj,5088,Kazipur,"",24.6115,89.6328
BD,6720,Dhangora,Rājshāhi Division,83,Sirajganj,5088,Dhangora,"",24.4083,89.5358
BD,6721,Malonga,Rājshāhi Division,83,Sirajganj,5088,Dhangora,"",24.4083,89.5358
BD,6730,Baiddya Jam Toil,Rājshāhi Division,83,Sirajganj,5088,Baiddya Jam Toil,"",24.4083,89.5358
BD,6740,Belkuchi,Rājshāhi Division,83,Sirajganj,5088,Belkuchi,"",24.2981,89.7041
BD,6741,Sohagpur,Rājshāhi Division,83,Sirajganj,5088,Belkuchi,"",24.3238,89.705
BD,6742,Rajapur,Rājshāhi Division,83,Sirajganj,5088,Belkuchi,"",24.3496,89.7059
BD,6751,Enayetpur,Rājshāhi Division,83,Sirajganj,5088,Belkuchi,"",25.0468,89.33
BD,6752,Sthal,Rājshāhi Division,83,Sirajganj,5088,Belkuchi,"",24.1972,89.7272
BD,6760,Ullapara,Rājshāhi Division,83,Sirajganj,5088,Ullapara,"",24.3128,89.5701
BD,6761,Ullapara R.S,Rājshāhi Division,83,Sirajganj,5088,Ullapara,"",24.3016,89.5942
BD,6762,Lahiri Mohanpur,Rājshāhi Division,83,Sirajganj,5088,Ullapara,"",24.3016,89.5942
BD,6763,Salap,Rājshāhi Division,83,Sirajganj,5088,Ullapara,"",24.2905,89.6183
BD,6770,Shahjadpur,Rājshāhi Division,83,Sirajganj,5088,Shahjadpur,"",24.1525,89.649
BD,6771,Porjana,Rājshāhi Division,83,Sirajganj,5088,Shahjadpur,"",24.1565,89.6481
BD,6772,Jamirta,Rājshāhi Division,83,Sirajganj,5088,Shahjadpur,"",24.1484,89.6499
BD,6773,Kaijuri,Rājshāhi Division,83,Sirajganj,5088,Shahjadpur,"",24.1525,89.649
BD,6780,Tarash,Rājshāhi Division,83,Sirajganj,5088,Tarash,"",24.4303,89.3722
BD,4600,Bandarban Sadar,Chittagong,84,Bandarban,2003,Bandarban Sadar,"",21.839,92.3415
BD,4610,Roanchhari,Chittagong,84,Bandarban,2003,Roanchhari,"",21.839,92.3415
BD,4620,Ruma,Chittagong,84,Bandarban,2003,Ruma,"",22.0492,92.4093
BD,4630,Thanchi,Chittagong,84,Bandarban,2003,Thanchi,"",21.839,92.3415
BD,4641,Lama,Chittagong,84,Bandarban,2003,Thanchi,"",21.7744,92.2191
BD,4650,Alikadam,Chittagong,84,Bandarban,2003,Alikadam,"",21.6934,92.3963
BD,4660,Naikhong,Chittagong,84,Bandarban,2003,Naikhong,"",21.839,92.3415
BD,3400,Brahamanbaria Sadar,Chittagong,84,Brahmanbaria,2012,Brahamanbaria Sadar,"",24.0402,91.0117
BD,3401,Talshahar,Chittagong,84,Brahmanbaria,2012,Brahamanbaria Sadar,"",24.0402,91.0117
BD,3402,Ashuganj,Chittagong,84,Brahmanbaria,2012,Brahamanbaria Sadar,"",24.0402,91.0117
BD,3403,Ashuganj Share,Chittagong,84,Brahmanbaria,2012,Brahamanbaria Sadar,"",24.0402,91.0117
BD,3404,Poun,Chittagong,84,Brahmanbaria,2012,Brahamanbaria Sadar,"",24.0402,91.0117
BD,3410,Nabinagar,Chittagong,84,Brahmanbaria,2012,Nabinagar,"",23.8879,90.9679
BD,3411,Laubfatehpur,Chittagong,84,Brahmanbaria,2012,Nabinagar,"",23.8455,90.9851
BD,3412,Rasullabad,Chittagong,84,Brahmanbaria,2012,Nabinagar,"",23.8455,90.9851
BD,3413,Shamgram,Chittagong,84,Brahmanbaria,2012,Nabinagar,"",23.8455,90.9851
BD,3414,Ratanpur,Chittagong,84,Brahmanbaria,2012,Nabinagar,"",23.8455,90.9851
BD,3415,Shahapur,Chittagong,84,Brahmanbaria,2012,Nabinagar,"",23.7777,90.9153
BD,3417,Kaitala,Chittagong,84,Brahmanbaria,2012,Nabinagar,"",23.8709,91.0719
BD,3418,Salimganj,Chittagong,84,Brahmanbaria,2012,Nabinagar,"",23.8455,90.9851
BD,3419,Jibanganj,Chittagong,84,Brahmanbaria,2012,Nabinagar,"",23.8455,90.9851
BD,3420,Banchharampur,Chittagong,84,Brahmanbaria,2012,Banchharampur,"",23.906,91.1189
BD,3430,Sarial,Chittagong,84,Brahmanbaria,2012,Sarail,"",24.0512,91.2331
BD,3431,Shahbajpur,Chittagong,84,Brahmanbaria,2012,Sarail,"",24.0512,91.2331
BD,3432,Chandura,Chittagong,84,Brahmanbaria,2012,Sarail,"",24.0512,91.2331
BD,3440,Nasirnagar,Chittagong,84,Brahmanbaria,2012,Nasirnagar,"",24.2283,91.2428
BD,3441,Fandauk,Chittagong,84,Brahmanbaria,2012,Nasirnagar,"",24.2283,91.2428
BD,3450,Akhaura,Chittagong,84,Brahmanbaria,2012,Akhaura,"",23.8724,91.2077
BD,3451,Azampur,Chittagong,84,Brahmanbaria,2012,Akhaura,"",23.8529,91.2122
BD,3452,Gangasagar,Chittagong,84,Brahmanbaria,2012,Akhaura,"",23.8333,91.2167
BD,3460,Kasba,Chittagong,84,Brahmanbaria,2012,Kasba,"",23.815,91.1417
BD,3461,Kuti,Chittagong,84,Brahmanbaria,2012,Kasba,"",23.795,91.1158
BD,3462,Chandidar,Chittagong,84,Brahmanbaria,2012,Kasba,"",23.8014,91.1468
BD,3463,Chargachh,Chittagong,84,Brahmanbaria,2012,Kasba,"",23.8014,91.1468
BD,3464,Gopinathpur,Chittagong,84,Brahmanbaria,2012,Kasba,"",23.7943,91.183
BD,3600,Chandpur Sadar,Chittagong,84,Chandpur,2013,Chandpur Sadar,"",23.2453,90.7281
BD,3601,Puranbazar,Chittagong,84,Chandpur,2013,Chandpur Sadar,"",23.2453,90.7281
BD,3602,Baburhat,Chittagong,84,Chandpur,2013,Chandpur Sadar,"",23.2453,90.7281
BD,3603,Sahatali,Chittagong,84,Chandpur,2013,Chandpur Sadar,"",23.2453,90.7281
BD,3610,Hajiganj,Chittagong,84,Chandpur,2013,Hajiganj,"",23.2519,90.8551
BD,3611,Bolakhal,Chittagong,84,Chandpur,2013,Hajiganj,"",23.2519,90.8551
BD,3620,Shahrasti,Chittagong,84,Chandpur,2013,Shahrasti,"",23.2748,90.7355
BD,3621,Khilabazar,Chittagong,84,Chandpur,2013,Shahrasti,"",23.2748,90.7355
BD,3622,Pashchim Kherihar Al,Chittagong,84,Chandpur,2013,Shahrasti,"",23.2748,90.7355
BD,3623,Chotoshi,Chittagong,84,Chandpur,2013,Shahrasti,"",23.2748,90.7355
BD,3624,Islamia Madrasha,Chittagong,84,Chandpur,2013,Shahrasti,"",23.2748,90.7355
BD,3630,Kachua,Chittagong,84,Chandpur,2013,Kachua,"",23.3485,90.9085
BD,3631,Pak Shrirampur,Chittagong,84,Chandpur,2013,Kachua,"",23.3485,90.9085
BD,3632,Rahima Nagar,Chittagong,84,Chandpur,2013,Kachua,"",23.3485,90.9085
BD,3633,Shachar,Chittagong,84,Chandpur,2013,Kachua,"",23.3485,90.9085
BD,3640,Matlobganj,Chittagong,84,Chandpur,2013,Matlobganj,"",23.4326,90.6163
BD,3641,Mohanpur,Chittagong,84,Chandpur,2013,Matlobganj,"",23.3986,90.5992
BD,3642,Kalipur,Chittagong,84,Chandpur,2013,Matlobganj,"",23.4667,90.6333
BD,3650,Faridganj,Chittagong,84,Chandpur,2013,Faridganj,"",23.1356,90.7434
BD,3651,Chandra,Chittagong,84,Chandpur,2013,Faridganj,"",23.1356,90.7434
BD,3652,Rupsha,Chittagong,84,Chandpur,2013,Faridganj,"",23.1356,90.7434
BD,3653,Gridkaliandia,Chittagong,84,Chandpur,2013,Faridganj,"",23.1356,90.7434
BD,3654,Rampurbazar,Chittagong,84,Chandpur,2013,Faridganj,"",23.1356,90.7434
BD,3655,Islampur Shah Isain,Chittagong,84,Chandpur,2013,Faridganj,"",23.1356,90.7434
BD,3660,Hayemchar,Chittagong,84,Chandpur,2013,Hayemchar,"",23.0768,90.681
BD,3661,Gandamara,Chittagong,84,Chandpur,2013,Hayemchar,"",23.0768,90.681
BD,4000,Chittagong GPO,Chittagong,84,Chittagong,2015,Chittagong Sadar,"",22.3455,91.8342
BD,4100,Chittagong Bandar,Chittagong,84,Chittagong,2015,Chittagong Sadar,"",22.2225,91.8412
BD,4202,Pahartoli,Chittagong,84,Chittagong,2015,Chittagong Sadar,"",22.3948,91.8365
BD,4203,Chawkbazar,Chittagong,84,Chittagong,2015,Chittagong Sadar,"",22.3948,91.8365
BD,4204,Patenga,Chittagong,84,Chittagong,2015,Chittagong Sadar,"",22.3948,91.8365
BD,4205,Chittagong Airport,Chittagong,84,Chittagong,2015,Chittagong Sadar,"",22.3948,91.8365
BD,4206,Jaldia Merine Accade,Chittagong,84,Chittagong,2015,Chittagong Sadar,"",22.3948,91.8365
BD,4207,Firozshah,Chittagong,84,Chittagong,2015,Chittagong Sadar,"",22.3948,91.8365
BD,4208,Mohard,Chittagong,84,Chittagong,2015,Chittagong Sadar,"",22.3948,91.8365
BD,4209,Chitt. Politechnic In,Chittagong,84,Chittagong,2015,Chittagong Sadar,"",22.3948,91.8365
BD,4210,Bayezid Bostami,Chittagong,84,Chittagong,2015,Chittagong Sadar,"",22.3948,91.8365
BD,4211,Amin Jute Mills,Chittagong,84,Chittagong,2015,Chittagong Sadar,"",22.3948,91.8365
BD,4212,Chandgaon,Chittagong,84,Chittagong,2015,Chittagong Sadar,"",22.3991,91.8604
BD,4213,Wazedia,Chittagong,84,Chittagong,2015,Chittagong Sadar,"",22.3948,91.8365
BD,4214,Jalalabad,Chittagong,84,Chittagong,2015,Chittagong Sadar,"",22.3906,91.8126
BD,4215,Anandabazar,Chittagong,84,Chittagong,2015,Chittagong Sadar,"",22.3948,91.8365
BD,4216,Halishahar,Chittagong,84,Chittagong,2015,Chittagong Sadar,"",22.3948,91.8365
BD,4217,North Katuli,Chittagong,84,Chittagong,2015,Chittagong Sadar,"",22.3948,91.8365
BD,4218,Chitt. Sailers Colon,Chittagong,84,Chittagong,2015,Chittagong Sadar,"",22.3948,91.8365
BD,4219,Chitt. Customs Acca,Chittagong,84,Chittagong,2015,Chittagong Sadar,"",22.3948,91.8365
BD,4220,Chitt. Cantonment,Chittagong,84,Chittagong,2015,Chittagong Sadar,"",22.3948,91.8365
BD,4221,Al- Amin Baria Madra,Chittagong,84,Chittagong,2015,Chittagong Sadar,"",22.3948,91.8365
BD,4222,Middle Patenga,Chittagong,84,Chittagong,2015,Chittagong Sadar,"",22.3948,91.8365
BD,4223,Export Processing,Chittagong,84,Chittagong,2015,Chittagong Sadar,"",22.3948,91.8365
BD,4224,Rampura TSO,Chittagong,84,Chittagong,2015,Chittagong Sadar,"",22.3948,91.8365
BD,4225,Halishshar,Chittagong,84,Chittagong,2015,Chittagong Sadar,"",22.3948,91.8365
BD,4226,North Halishahar,Chittagong,84,Chittagong,2015,Chittagong Sadar,"",22.3948,91.8365
BD,4300,Sandwip,Chittagong,84,Chittagong,2015,Sandwip,"",22.5141,91.4549
BD,4301,Shiberhat,Chittagong,84,Chittagong,2015,Sandwip,"",22.5141,91.4549
BD,4302,Urirchar,Chittagong,84,Chittagong,2015,Sandwip,"",22.5141,91.4549
BD,4310,Sitakunda,Chittagong,84,Chittagong,2015,Sitakunda,"",22.62,91.6578
BD,4311,Baroidhala,Chittagong,84,Chittagong,2015,Sitakunda,"",22.504,91.7121
BD,4312,Barabkunda,Chittagong,84,Chittagong,2015,Sitakunda,"",22.5808,91.6842
BD,4313,Bawashbaria,Chittagong,84,Chittagong,2015,Sitakunda,"",22.504,91.7121
BD,4314,Kumira,Chittagong,84,Chittagong,2015,Sitakunda,"",22.5038,91.7106
BD,4315,Bhatiari,Chittagong,84,Chittagong,2015,Sitakunda,"",22.4281,91.7504
BD,4316,Fouzdarhat,Chittagong,84,Chittagong,2015,Sitakunda,"",22.504,91.7121
BD,4317,Jafrabad,Chittagong,84,Chittagong,2015,Sitakunda,"",22.3873,91.7574
BD,4320,Mirsharai,Chittagong,84,Chittagong,2015,Mirsharai,"",22.8647,91.5664
BD,4321,Abutorab,Chittagong,84,Chittagong,2015,Mirsharai,"",22.8574,91.5332
BD,4322,Darrogahat,Chittagong,84,Chittagong,2015,Mirsharai,"",22.8574,91.5332
BD,4323,Bharawazhat,Chittagong,84,Chittagong,2015,Mirsharai,"",22.8574,91.5332
BD,4324,Joarganj,Chittagong,84,Chittagong,2015,Mirsharai,"",22.8574,91.5332
BD,4325,Azampur,Chittagong,84,Chittagong,2015,Mirsharai,"",22.85,91.5
BD,4327,Korerhat,Chittagong,84,Chittagong,2015,Mirsharai,"",22.8574,91.5332
BD,4328,Mohazanhat,Chittagong,84,Chittagong,2015,Mirsharai,"",22.8574,91.5332
BD,4330,Hathazari,Chittagong,84,Chittagong,2015,Hathazari,"",22.5052,91.8134
BD,4331,Chitt.University,Chittagong,84,Chittagong,2015,Hathazari,"",22.5264,91.8087
BD,4332,Gorduara,Chittagong,84,Chittagong,2015,Hathazari,"",22.5264,91.8087
BD,4333,Katirhat,Chittagong,84,Chittagong,2015,Hathazari,"",22.5264,91.8087
BD,4334,Mirzapur,Chittagong,84,Chittagong,2015,Hathazari,"",22.5476,91.804
BD,4335,Fatahabad,Chittagong,84,Chittagong,2015,Hathazari,"",22.5264,91.8087
BD,4337,Nuralibari,Chittagong,84,Chittagong,2015,Hathazari,"",22.5264,91.8087
BD,4338,Yunus Nagar,Chittagong,84,Chittagong,2015,Hathazari,"",22.5264,91.8087
BD,4339,Madrasa,Chittagong,84,Chittagong,2015,Hathazari,"",22.5264,91.8087
BD,4340,Rouzan,Chittagong,84,Chittagong,2015,Rouzan,"",22.5524,91.8716
BD,4341,Beenajuri,Chittagong,84,Chittagong,2015,Rouzan,"",22.5524,91.8716
BD,4342,Kundeshwari,Chittagong,84,Chittagong,2015,Rouzan,"",22.5524,91.8716
BD,4343,Gahira,Chittagong,84,Chittagong,2015,Rouzan,"",22.5247,91.8858
BD,4344,jagannath Hat,Chittagong,84,Chittagong,2015,Rouzan,"",22.5524,91.8716
BD,4345,Fatepur,Chittagong,84,Chittagong,2015,Rouzan,"",22.5801,91.8574
BD,4346,Guzra Noapara,Chittagong,84,Chittagong,2015,Rouzan,"",22.5524,91.8716
BD,4347,Dewanpur,Chittagong,84,Chittagong,2015,Rouzan,"",22.5524,91.8716
BD,4348,Mohamuni,Chittagong,84,Chittagong,2015,Rouzan,"",22.5524,91.8716
BD,4349,B.I.T Post Office,Chittagong,84,Chittagong,2015,Rouzan,"",22.5524,91.8716
BD,4350,Fatikchhari,Chittagong,84,Chittagong,2015,Fatikchhari,"",22.725,91.7675
BD,4351,Nanupur,Chittagong,84,Chittagong,2015,Fatikchhari,"",22.6243,91.8416
BD,4352,Bhandar Sharif,Chittagong,84,Chittagong,2015,Fatikchhari,"",22.6746,91.8046
BD,4353,Najirhat,Chittagong,84,Chittagong,2015,Fatikchhari,"",22.6746,91.8046
BD,4354,Harualchhari,Chittagong,84,Chittagong,2015,Fatikchhari,"",22.6746,91.8046
BD,4355,Narayanhat,Chittagong,84,Chittagong,2015,Fatikchhari,"",22.6746,91.8046
BD,4360,Rangunia,Chittagong,84,Chittagong,2015,Rangunia,"",22.4675,92.0636
BD,4361,Dhamair,Chittagong,84,Chittagong,2015,Rangunia,"",22.4075,91.9783
BD,4363,Kanungopara,Chittagong,84,Chittagong,2015,Boalkhali,"",22.4075,91.9783
BD,4364,Saroatoli,Chittagong,84,Chittagong,2015,Boalkhali,"",22.4075,91.9783
BD,4365,Iqbal Park,Chittagong,84,Chittagong,2015,Boalkhali,"",22.4075,91.9783
BD,4366,Boalkhali,Chittagong,84,Chittagong,2015,Boalkhali,"",22.3357,91.9266
BD,4367,Sakpura,Chittagong,84,Chittagong,2015,Boalkhali,"",22.4075,91.9783
BD,4368,Kadurkhal,Chittagong,84,Chittagong,2015,Boalkhali,"",22.4075,91.9783
BD,4369,Charandwip,Chittagong,84,Chittagong,2015,Boalkhali,"",22.4192,91.9447
BD,4370,Patiya Head Office,Chittagong,84,Chittagong,2015,Patiya,"",22.2451,91.8821
BD,4371,Budhpara,Chittagong,84,Chittagong,2015,Patiya,"",22.2737,91.9145
BD,4376,Anowara,Chittagong,84,Chittagong,2015,Anawara,"",22.2433,91.88
BD,4377,Paroikora,Chittagong,84,Chittagong,2015,Anawara,"",22.2451,91.8821
BD,4378,Battali,Chittagong,84,Chittagong,2015,Anawara,"",22.2183,91.8517
BD,4380,East Joara,Chittagong,84,Chittagong,2015,East Joara,"",22.1201,92.0614
BD,4381,Gachbaria,Chittagong,84,Chittagong,2015,East Joara,"",22.1201,92.0614
BD,4382,Dohazari,Chittagong,84,Chittagong,2015,East Joara,"",22.1639,92.0733
BD,4383,Barma,Chittagong,84,Chittagong,2015,East Joara,"",22.1201,92.0614
BD,4386,Satkania,Chittagong,84,Chittagong,2015,Satkania,"",22.0764,92.0496
BD,4387,Baitul Ijjat,Chittagong,84,Chittagong,2015,Satkania,"",22.1201,92.0614
BD,4388,Bazalia,Chittagong,84,Chittagong,2015,Satkania,"",22.1201,92.0614
BD,4390,Jaldi,Chittagong,84,Chittagong,2015,Jaldi,"",22.0086,91.9869
BD,4391,Khan Bahadur,Chittagong,84,Chittagong,2015,Jaldi,"",22.058,92.0091
BD,4392,Gunagari,Chittagong,84,Chittagong,2015,Jaldi,"",22.0915,91.9246
BD,4393,Banigram,Chittagong,84,Chittagong,2015,Jaldi,"",22.1251,91.9179
BD,4396,Lohagara,Chittagong,84,Chittagong,2015,Lohagara,"",22.0112,92.1009
BD,4397,Padua,Chittagong,84,Chittagong,2015,Lohagara,"",22.0538,92.1151
BD,4398,Chunti,Chittagong,84,Chittagong,2015,Lohagara,"",22.058,92.0091
BD,3500,Comilla Sadar,Chittagong,84,Comilla,2019,Comilla Sadar,"",23.3484,91.0583
BD,3501,Comilla Contoment,Chittagong,84,Comilla,2019,Comilla Sadar,"",23.3484,91.0583
BD,3502,Halimanagar,Chittagong,84,Comilla,2019,Comilla Sadar,"",23.3484,91.0583
BD,3503,Courtbari,Chittagong,84,Comilla,2019,Comilla Sadar,"",23.3484,91.0583
BD,3504,Suaganj,Chittagong,84,Comilla,2019,Comilla Sadar,"",23.3484,91.0583
BD,3510,Chandia,Chittagong,84,Comilla,2019,Chandina,"",23.539,90.7511
BD,3511,Madhaiabazar,Chittagong,84,Comilla,2019,Chandina,"",23.539,90.7511
BD,3516,Daudkandi,Chittagong,84,Comilla,2019,Daudkandi,"",23.5355,90.7126
BD,3517,Gouripur,Chittagong,84,Comilla,2019,Daudkandi,"",23.5425,90.7897
BD,3518,Dashpara,Chittagong,84,Comilla,2019,Daudkandi,"",23.539,90.7511
BD,3519,Eliotganj,Chittagong,84,Comilla,2019,Daudkandi,"",23.539,90.7511
BD,3520,Burichang,Chittagong,84,Comilla,2019,Burichang,"",23.5534,91.129
BD,3521,Maynamoti bazar,Chittagong,84,Comilla,2019,Burichang,"",23.585,91.0985
BD,3526,Brahmanpara,Chittagong,84,Comilla,2019,Brahmanpara,"",23.6165,91.0679
BD,3530,Davidhar,Chittagong,84,Comilla,2019,Davidhar,"",23.3484,91.0583
BD,3531,Gangamandal,Chittagong,84,Comilla,2019,Davidhar,"",23.3484,91.0583
BD,3532,Barashalghar,Chittagong,84,Comilla,2019,Davidhar,"",23.3484,91.0583
BD,3533,Dhamtee,Chittagong,84,Comilla,2019,Davidhar,"",23.3484,91.0583
BD,3540,Muradnagar,Chittagong,84,Comilla,2019,Muradnagar,"",23.486,90.8741
BD,3541,Ramchandarpur,Chittagong,84,Comilla,2019,Muradnagar,"",23.4787,90.8045
BD,3542,Companyganj,Chittagong,84,Comilla,2019,Muradnagar,"",23.4787,90.8045
BD,3543,Bangra,Chittagong,84,Comilla,2019,Muradnagar,"",23.4787,90.8045
BD,3544,Sonakanda,Chittagong,84,Comilla,2019,Muradnagar,"",23.4714,90.7349
BD,3545,Pantibazar,Chittagong,84,Comilla,2019,Muradnagar,"",23.4787,90.8045
BD,3546,Homna,Chittagong,84,Comilla,2019,Homna,"",23.4787,90.8045
BD,3550,Chouddagram,Chittagong,84,Comilla,2019,Chouddagram,"",23.2286,91.3298
BD,3551,Batisa,Chittagong,84,Comilla,2019,Chouddagram,"",23.1957,91.3129
BD,3552,Chiora,Chittagong,84,Comilla,2019,Chouddagram,"",23.2121,91.3214
BD,3560,Barura,Chittagong,84,Comilla,2019,Barura,"",23.3683,91.0484
BD,3561,Poyalgachha,Chittagong,84,Comilla,2019,Barura,"",23.3683,91.0484
BD,3562,Murdafarganj,Chittagong,84,Comilla,2019,Barura,"",23.3683,91.0484
BD,3570,Laksam,Chittagong,84,Comilla,2019,Laksam,"",23.2402,91.1214
BD,3571,Lakshamanpur,Chittagong,84,Comilla,2019,Laksam,"",23.1574,91.1112
BD,3572,Bipulasar,Chittagong,84,Comilla,2019,Laksam,"",23.0746,91.1009
BD,3580,Langalkot,Chittagong,84,Comilla,2019,Langalkot,"",23.1084,91.2683
BD,3581,Dhalua,Chittagong,84,Comilla,2019,Langalkot,"",23.1254,91.2354
BD,3582,Chhariabazar,Chittagong,84,Comilla,2019,Langalkot,"",23.1084,91.2683
BD,3583,Gunabati,Chittagong,84,Comilla,2019,Langalkot,"",23.0913,91.3013
BD,4700,Coxs Bazar Sadar,Chittagong,84,Cox’s Bazar,2022,Coxs Bazar Sadar,"",21.4397,92.0096
BD,4701,Zhilanja,Chittagong,84,Cox’s Bazar,2022,Coxs Bazar Sadar,"",21.4397,92.0096
BD,4702,Eidga,Chittagong,84,Cox’s Bazar,2022,Coxs Bazar Sadar,"",21.4397,92.0096
BD,4710,Gorakghat,Chittagong,84,Cox’s Bazar,2022,Gorakghat,"",21.3576,92.0807
BD,4720,Kutubdia,Chittagong,84,Cox’s Bazar,2022,Kutubdia,"",21.816,91.8523
BD,4730,Ramu,Chittagong,84,Cox’s Bazar,2022,Ramu,"",21.429,92.1062
BD,4740,Chiringga,Chittagong,84,Cox’s Bazar,2022,Chiringga,"",21.3576,92.0807
BD,4741,Chiringga S.O,Chittagong,84,Cox’s Bazar,2022,Chiringga,"",21.3576,92.0807
BD,4742,Badarkali,Chittagong,84,Cox’s Bazar,2022,Chiringga,"",21.3576,92.0807
BD,4743,Malumghat,Chittagong,84,Cox’s Bazar,2022,Chiringga,"",21.3576,92.0807
BD,4750,Ukhia,Chittagong,84,Cox’s Bazar,2022,Ukhia,"",21.245,92.1375
BD,4760,Teknaf,Chittagong,84,Cox’s Bazar,2022,Teknaf,"",20.8583,92.2977
BD,4761,Hnila,Chittagong,84,Cox’s Bazar,2022,Teknaf,"",20.8583,92.2977
BD,4762,St.Martin,Chittagong,84,Cox’s Bazar,2022,Teknaf,"",20.8583,92.2977
BD,3900,Feni Sadar,Chittagong,84,Feni,2030,Feni Sadar,"",22.9511,91.4669
BD,3901,Fazilpur,Chittagong,84,Feni,2030,Feni Sadar,"",22.9511,91.4669
BD,3902,Sharshadie,Chittagong,84,Feni,2030,Feni Sadar,"",22.9511,91.4669
BD,3903,Laskarhat,Chittagong,84,Feni,2030,Feni Sadar,"",22.9511,91.4669
BD,3910,Chhagalnaia,Chittagong,84,Feni,2030,Chhagalnaia,"",23.0248,91.5109
BD,3911,Maharajganj,Chittagong,84,Feni,2030,Chhagalnaia,"",23.0248,91.5109
BD,3912,Daraga Hat,Chittagong,84,Feni,2030,Chhagalnaia,"",23.0248,91.5109
BD,3913,Puabashimulia,Chittagong,84,Feni,2030,Chhagalnaia,"",23.0248,91.5109
BD,3920,Dagondhuia,Chittagong,84,Feni,2030,Dagonbhuia,"",23.0119,91.2826
BD,3921,Dudmukha,Chittagong,84,Feni,2030,Dagonbhuia,"",23.0119,91.2826
BD,3922,Chhilonia,Chittagong,84,Feni,2030,Dagonbhuia,"",23.0119,91.2826
BD,3923,Rajapur,Chittagong,84,Feni,2030,Dagonbhuia,"",23.0119,91.2826
BD,3930,Sonagazi,Chittagong,84,Feni,2030,Sonagazi,"",22.8518,91.3916
BD,3931,Motiganj,Chittagong,84,Feni,2030,Sonagazi,"",22.8759,91.4125
BD,3932,Ahmadpur,Chittagong,84,Feni,2030,Sonagazi,"",22.9,91.4333
BD,3933,Kazirhat,Chittagong,84,Feni,2030,Sonagazi,"",22.8759,91.4125
BD,3940,Pashurampur,Chittagong,84,Feni,2030,Pashurampur,"",23.1314,91.4371
BD,3941,Shuarbazar,Chittagong,84,Feni,2030,Pashurampur,"",23.1314,91.4371
BD,3942,Fulgazi,Chittagong,84,Feni,2030,Pashurampur,"",23.1461,91.4409
BD,3943,Munshirhat,Chittagong,84,Feni,2030,Pashurampur,"",23.1167,91.4333
BD,4400,Khagrachari Sadar,Chittagong,84,Khagrachari,2046,Khagrachari Sadar,"",23.0222,91.9808
BD,4410,Panchhari,Chittagong,84,Khagrachari,2046,Panchhari,"",23.0222,91.9808
BD,4420,Diginala,Chittagong,84,Khagrachari,2046,Diginala,"",23.0222,91.9808
BD,4430,Mahalchhari,Chittagong,84,Khagrachari,2046,Mahalchhari,"",22.9352,92.0486
BD,4440,Ramghar Head Office,Chittagong,84,Khagrachari,2046,Ramghar Head Office,"",23.0222,91.9808
BD,4450,Matiranga,Chittagong,84,Khagrachari,2046,Matiranga,"",23.1219,91.8767
BD,4460,Manikchhari,Chittagong,84,Khagrachari,2046,Manikchhari,"",23.0093,92.0172
BD,4470,Laxmichhari,Chittagong,84,Khagrachari,2046,Laxmichhari,"",23.0222,91.9808
BD,3700,Lakshimpur Sadar,Chittagong,84,Lakshmipur,2051,Lakshimpur Sadar,"",23.4167,91.1167
BD,3701,Dalal Bazar,Chittagong,84,Lakshmipur,2051,Lakshimpur Sadar,"",23.1765,91.0109
BD,3702,Bhabaniganj,Chittagong,84,Lakshmipur,2051,Lakshimpur Sadar,"",23.1765,91.0109
BD,3703,Mandari,Chittagong,84,Lakshmipur,2051,Lakshimpur Sadar,"",22.9362,90.905
BD,3704,Keramatganj,Chittagong,84,Lakshmipur,2051,Lakshimpur Sadar,"",23.1765,91.0109
BD,3705,Rupchara,Chittagong,84,Lakshmipur,2051,Lakshimpur Sadar,"",23.1765,91.0109
BD,3706,Duttapara,Chittagong,84,Lakshmipur,2051,Lakshimpur Sadar,"",23.1765,91.0109
BD,3707,Choupalli,Chittagong,84,Lakshmipur,2051,Lakshimpur Sadar,"",23.1765,91.0109
BD,3708,Chandraganj,Chittagong,84,Lakshmipur,2051,Lakshimpur Sadar,"",23.1765,91.0109
BD,3709,Amani Lakshimpur,Chittagong,84,Lakshmipur,2051,Lakshimpur Sadar,"",23.1765,91.0109
BD,3710,Raypur,Chittagong,84,Lakshmipur,2051,Raypur,"",23.0391,90.7681
BD,3711,Rakhallia,Chittagong,84,Lakshmipur,2051,Raypur,"",23.0391,90.7681
BD,3712,Nagerdighirpar,Chittagong,84,Lakshmipur,2051,Raypur,"",23.0391,90.7681
BD,3713,Haydarganj,Chittagong,84,Lakshmipur,2051,Raypur,"",23.0391,90.7681
BD,3714,Bhuabari,Chittagong,84,Lakshmipur,2051,Raypur,"",23.0391,90.7681
BD,3720,Ramganj,Chittagong,84,Lakshmipur,2051,Ramganj,"",23.1006,90.8499
BD,3721,Alipur,Chittagong,84,Lakshmipur,2051,Ramganj,"",23.0777,90.8991
BD,3722,Panpara,Chittagong,84,Lakshmipur,2051,Ramganj,"",23.0488,90.8373
BD,3723,Kanchanpur,Chittagong,84,Lakshmipur,2051,Ramganj,"",23.0263,90.7808
BD,3724,Naagmud,Chittagong,84,Lakshmipur,2051,Ramganj,"",23.0633,90.8418
BD,3725,Dolta,Chittagong,84,Lakshmipur,2051,Ramganj,"",23.0633,90.8418
BD,3730,Char Alexgander,Chittagong,84,Lakshmipur,2051,Char Alexgander,"",23.0922,90.8795
BD,3731,Hajirghat,Chittagong,84,Lakshmipur,2051,Char Alexgander,"",23.0922,90.8795
BD,3732,Ramgatirhat,Chittagong,84,Lakshmipur,2051,Char Alexgander,"",23.0922,90.8795
BD,3800,Noakhali Sadar,Chittagong,84,Noakhali,2075,Noakhali Sadar,"",22.8062,91.1495
BD,3801,Noakhali College,Chittagong,84,Noakhali,2075,Noakhali Sadar,"",22.8062,91.1495
BD,3802,Sonapur,Chittagong,84,Noakhali,2075,Noakhali Sadar,"",22.8167,91.1
BD,3803,Din Monir Hat,Chittagong,84,Noakhali,2075,Noakhali Sadar,"",22.8062,91.1495
BD,3804,Pak Kishoreganj,Chittagong,84,Noakhali,2075,Noakhali Sadar,"",22.8062,91.1495
BD,3806,Mriddarhat,Chittagong,84,Noakhali,2075,Noakhali Sadar,"",22.8062,91.1495
BD,3807,Kabirhat,Chittagong,84,Noakhali,2075,Noakhali Sadar,"",22.7956,91.1989
BD,3808,Khalifar Hat,Chittagong,84,Noakhali,2075,Noakhali Sadar,"",22.8062,91.1495
BD,3809,Charam Tua,Chittagong,84,Noakhali,2075,Noakhali Sadar,"",22.8062,91.1495
BD,3811,Chaprashir Hat,Chittagong,84,Noakhali,2075,Noakhali Sadar,"",22.9907,91.1283
BD,3812,Char Jabbar,Chittagong,84,Noakhali,2075,Noakhali Sadar,"",22.9907,91.1283
BD,3820,Begumganj,Chittagong,84,Noakhali,2075,Begumganj,"",23.0225,91.0747
BD,3821,Choumohani,Chittagong,84,Noakhali,2075,Begumganj,"",22.9902,91.0859
BD,3822,Banglabazar,Chittagong,84,Noakhali,2075,Begumganj,"",22.9902,91.0859
BD,3823,Mir Owarishpur,Chittagong,84,Noakhali,2075,Begumganj,"",22.9902,91.0859
BD,3824,Bazra,Chittagong,84,Noakhali,2075,Begumganj,"",22.9833,91.1
BD,3825,Jamidar Hat,Chittagong,84,Noakhali,2075,Begumganj,"",22.9902,91.0859
BD,3827,Sonaimuri,Chittagong,84,Noakhali,2075,Begumganj,"",23.0332,91.1005
BD,3828,Gopalpur,Chittagong,84,Noakhali,2075,Begumganj,"",22.9217,91.0683
BD,3829,Joynarayanpur,Chittagong,84,Noakhali,2075,Begumganj,"",22.9902,91.0859
BD,3831,Alaiarpur,Chittagong,84,Noakhali,2075,Begumganj,"",22.95,91.3
BD,3832,Tangirpar,Chittagong,84,Noakhali,2075,Begumganj,"",23.2707,90.9083
BD,3833,Khalafat Bazar,Chittagong,84,Noakhali,2075,Begumganj,"",23.0338,91.0738
BD,3834,Rajganj,Chittagong,84,Noakhali,2075,Begumganj,"",22.8809,91.0132
BD,3835,Oachhekpur,Chittagong,84,Noakhali,2075,Begumganj,"",23.0338,91.0738
BD,3837,Bhabani Jibanpur,Chittagong,84,Noakhali,2075,Begumganj,"",23.0338,91.0738
BD,3838,Maheshganj,Chittagong,84,Noakhali,2075,Begumganj,"",23.0338,91.0738
BD,3839,Nadona,Chittagong,84,Noakhali,2075,Begumganj,"",23.0338,91.0738
BD,3841,Nandiapara,Chittagong,84,Noakhali,2075,Begumganj,"",23.0114,91.0878
BD,3842,Khalishpur,Chittagong,84,Noakhali,2075,Begumganj,"",23.0114,91.0878
BD,3843,Dauti,Chittagong,84,Noakhali,2075,Begumganj,"",23.0114,91.0878
BD,3844,Joyag,Chittagong,84,Noakhali,2075,Begumganj,"",23.0802,91.005
BD,3845,Thanar Hat,Chittagong,84,Noakhali,2075,Begumganj,"",23.0114,91.0878
BD,3847,Amisha Para,Chittagong,84,Noakhali,2075,Begumganj,"",23.0114,91.0878
BD,3848,Durgapur,Chittagong,84,Noakhali,2075,Begumganj,"",22.9425,91.1706
BD,3850,Basur Hat,Chittagong,84,Noakhali,2075,Basurhat,"",22.9907,91.1283
BD,3851,Charhajari,Chittagong,84,Noakhali,2075,Basurhat,"",22.9907,91.1283
BD,3860,Senbag,Chittagong,84,Noakhali,2075,Senbag,"",22.991,91.2334
BD,3861,Kallyandi,Chittagong,84,Noakhali,2075,Senbag,"",22.991,91.2334
BD,3862,Beezbag,Chittagong,84,Noakhali,2075,Senbag,"",22.991,91.2334
BD,3863,Kankirhat,Chittagong,84,Noakhali,2075,Senbag,"",22.991,91.2334
BD,3864,Chatarpaia,Chittagong,84,Noakhali,2075,Senbag,"",22.991,91.2334
BD,3865,T.P. Lamua,Chittagong,84,Noakhali,2075,Senbag,"",22.991,91.2334
BD,3870,Chatkhil,Chittagong,84,Noakhali,2075,Chatkhil,"",23.0524,90.9768
BD,3871,Palla,Chittagong,84,Noakhali,2075,Chatkhil,"",23.0915,90.9819
BD,3872,Khilpara,Chittagong,84,Noakhali,2075,Chatkhil,"",23.0674,90.9911
BD,3873,Bodalcourt,Chittagong,84,Noakhali,2075,Chatkhil,"",23.0674,90.9911
BD,3874,Rezzakpur,Chittagong,84,Noakhali,2075,Chatkhil,"",23.0674,90.9911
BD,3875,Solla,Chittagong,84,Noakhali,2075,Chatkhil,"",23.1,90.9943
BD,3877,Karihati,Chittagong,84,Noakhali,2075,Chatkhil,"",23.0255,91.0113
BD,3878,Dosh Gharia,Chittagong,84,Noakhali,2075,Chatkhil,"",23.0674,90.9911
BD,3879,Bansa Bazar,Chittagong,84,Noakhali,2075,Chatkhil,"",23.0674,90.9911
BD,3881,Sahapur,Chittagong,84,Noakhali,2075,Chatkhil,"",22.9667,91.2333
BD,3882,Sampara,Chittagong,84,Noakhali,2075,Chatkhil,"",22.9082,91.8379
BD,3883,Shingbahura,Chittagong,84,Noakhali,2075,Chatkhil,"",22.9374,91.5356
BD,3890,Hatiya,Chittagong,84,Noakhali,2075,Hatiya,"",22.9907,91.1283
BD,3891,Afazia,Chittagong,84,Noakhali,2075,Hatiya,"",22.9907,91.1283
BD,3892,Tamoraddi,Chittagong,84,Noakhali,2075,Hatiya,"",22.9907,91.1283
BD,4500,Rangamati Sadar,Chittagong,84,Rangamati,2084,Rangamati Sadar,"",22.4934,92.2359
BD,4510,Kalampati,Chittagong,84,Rangamati,2084,Kalampati,"",22.4934,92.2359
BD,4511,Betbunia,Chittagong,84,Rangamati,2084,Kalampati,"",22.4934,92.2359
BD,4520,Nanichhar,Chittagong,84,Rangamati,2084,Naniachhar,"",22.4934,92.2359
BD,4530,Kaptai,Chittagong,84,Rangamati,2084,kaptai,"",22.4942,92.2209
BD,4531,Chandraghona,Chittagong,84,Rangamati,2084,kaptai,"",22.4752,92.1417
BD,4532,Kaptai Project,Chittagong,84,Rangamati,2084,kaptai,"",22.4847,92.1813
BD,4533,Kaptai Nuton Bazar,Chittagong,84,Rangamati,2084,kaptai,"",22.4847,92.1813
BD,4540,Rajsthali,Chittagong,84,Rangamati,2084,Rajsthali,"",22.4934,92.2359
BD,4550,Bilaichhari,Chittagong,84,Rangamati,2084,Bilaichhari,"",22.5108,92.3452
BD,4560,Jarachhari,Chittagong,84,Rangamati,2084,Jarachhari,"",22.4934,92.2359
BD,4570,Barakal,Chittagong,84,Rangamati,2084,Barakal,"",22.4934,92.2359
BD,4580,Longachh,Chittagong,84,Rangamati,2084,Longachh,"",22.4934,92.2359
BD,4590,Marishya,Chittagong,84,Rangamati,2084,Marishya,"",22.4934,92.2359
BD,8700,Barguna Sadar,Barisal Division,85,Barguna,1004,Barguna Sadar,"",22.3114,90.0993
BD,8701,Nali Bandar,Barisal Division,85,Barguna,1004,Barguna Sadar,"",22.3114,90.0993
BD,8710,Amtali,Barisal Division,85,Barguna,1004,Amtali,"",22.2962,90.0888
BD,8720,Patharghata,Barisal Division,85,Barguna,1004,Patharghata,"",22.2249,90.0508
BD,8721,Kakchira,Barisal Division,85,Barguna,1004,Patharghata,"",22.2249,90.0508
BD,8730,Bamna,Barisal Division,85,Barguna,1004,Bamna,"",22.3092,90.0943
BD,8740,Betagi,Barisal Division,85,Barguna,1004,Betagi,"",22.4153,90.1633
BD,8741,Darul Ulam,Barisal Division,85,Barguna,1004,Betagi,"",22.4153,90.1633
BD,8200,Barishal Sadar,Barisal Division,85,Barishal,1006,Barishal Sadar,"",22.7435,90.4393
BD,8201,Bukhainagar,Barisal Division,85,Barishal,1006,Barishal Sadar,"",22.745,90.461
BD,8202,Saheberhat,Barisal Division,85,Barishal,1006,Barishal Sadar,"",22.7435,90.4393
BD,8203,Sugandia,Barisal Division,85,Barishal,1006,Barishal Sadar,"",22.7114,90.2618
BD,8204,Patang,Barisal Division,85,Barishal,1006,Barishal Sadar,"",22.6671,90.4673
BD,8205,Kashipur,Barisal Division,85,Barishal,1006,Barishal Sadar,"",22.8506,90.567
BD,8206,Jaguarhat,Barisal Division,85,Barishal,1006,Barishal Sadar,"",22.7435,90.4393
BD,8210,Babuganj,Barisal Division,85,Barishal,1006,Babuganj,"",22.8202,90.3221
BD,8211,Rahamatpur,Barisal Division,85,Barishal,1006,Babuganj,"",22.8202,90.3221
BD,8212,Chandpasha,Barisal Division,85,Barishal,1006,Babuganj,"",22.8202,90.3221
BD,8213,Madhabpasha,Barisal Division,85,Barishal,1006,Babuganj,"",22.8202,90.3221
BD,8214,Thakur Mallik,Barisal Division,85,Barishal,1006,Babuganj,"",22.8202,90.3221
BD,8215,Nizamuddin College,Barisal Division,85,Barishal,1006,Babuganj,"",22.8202,90.3221
BD,8216,Barishal Cadet,Barisal Division,85,Barishal,1006,Babuganj,"",22.8202,90.3221
BD,8220,Uzirpur,Barisal Division,85,Barishal,1006,Uzirpur,"",22.8216,90.2466
BD,8221,Dhamura,Barisal Division,85,Barishal,1006,Uzirpur,"",22.8934,90.193
BD,8222,Jugirkanda,Barisal Division,85,Barishal,1006,Uzirpur,"",22.846,90.1701
BD,8223,Dakuarhat,Barisal Division,85,Barishal,1006,Uzirpur,"",22.8537,90.2033
BD,8224,Shikarpur,Barisal Division,85,Barishal,1006,Uzirpur,"",22.8537,90.2033
BD,8230,Gouranadi,Barisal Division,85,Barishal,1006,Gouranadi,"",22.8975,90.2542
BD,8231,Tarki Bandar,Barisal Division,85,Barishal,1006,Gouranadi,"",22.8975,90.2542
BD,8232,Kashemabad,Barisal Division,85,Barishal,1006,Gouranadi,"",22.8975,90.2542
BD,8233,Batajor,Barisal Division,85,Barishal,1006,Gouranadi,"",22.8975,90.2542
BD,8240,Agailzhara,Barisal Division,85,Barishal,1006,Agailzhara,"",22.9551,90.1842
BD,8241,Gaila,Barisal Division,85,Barishal,1006,Agailzhara,"",22.9551,90.1842
BD,8242,Paisarhat,Barisal Division,85,Barishal,1006,Agailzhara,"",22.9551,90.1842
BD,8250,Muladi,Barisal Division,85,Barishal,1006,Muladi,"",22.8225,90.3484
BD,8251,Kazirchar,Barisal Division,85,Barishal,1006,Muladi,"",22.8225,90.3484
BD,8252,Charkalekhan,Barisal Division,85,Barishal,1006,Muladi,"",22.8225,90.3484
BD,8260,Barajalia,Barisal Division,85,Barishal,1006,Barajalia,"",22.8225,90.3484
BD,8261,Osman Manjil,Barisal Division,85,Barishal,1006,Barajalia,"",22.8225,90.3484
BD,8270,Mahendiganj,Barisal Division,85,Barishal,1006,Mahendiganj,"",22.9264,90.4643
BD,8271,Laskarpur,Barisal Division,85,Barishal,1006,Mahendiganj,"",23.0555,90.1409
BD,8272,Ulania,Barisal Division,85,Barishal,1006,Mahendiganj,"",22.857,90.6019
BD,8273,Nalgora,Barisal Division,85,Barishal,1006,Mahendiganj,"",22.8667,90.65
BD,8274,Langutia,Barisal Division,85,Barishal,1006,Mahendiganj,"",22.9264,90.4643
BD,8280,Sahebganj,Barisal Division,85,Barishal,1006,Sahebganj,"",22.5287,90.3567
BD,8281,Charamandi,Barisal Division,85,Barishal,1006,Sahebganj,"",22.5287,90.3567
BD,8282,Padri Shibpur,Barisal Division,85,Barishal,1006,Sahebganj,"",22.5287,90.3567
BD,8283,Shialguni,Barisal Division,85,Barishal,1006,Sahebganj,"",22.5287,90.3567
BD,8284,kalaskati,Barisal Division,85,Barishal,1006,Sahebganj,"",22.5287,90.3567
BD,8300,Bhola Sadar,Barisal Division,85,Bhola,1009,Bhola Sadar,"",22.5703,90.6885
BD,8301,Joynagar,Barisal Division,85,Bhola,1009,Bhola Sadar,"",22.5703,90.6885
BD,8310,Doulatkhan,Barisal Division,85,Bhola,1009,Doulatkhan,"",21.933,90.646
BD,8311,Hajipur,Barisal Division,85,Bhola,1009,Doulatkhan,"",21.933,90.646
BD,8320,Borhanuddin UPO,Barisal Division,85,Bhola,1009,Borhanuddin UPO,"",22.4833,90.8
BD,8321,Mirzakalu,Barisal Division,85,Bhola,1009,Borhanuddin UPO,"",22.4833,90.8
BD,8330,Lalmohan UPO,Barisal Division,85,Bhola,1009,Lalmohan UPO,"",22.2868,90.7342
BD,8331,Daurihat,Barisal Division,85,Bhola,1009,Lalmohan UPO,"",22.2868,90.7342
BD,8332,Gazaria,Barisal Division,85,Bhola,1009,Lalmohan UPO,"",22.2868,90.7342
BD,8340,Charfashion,Barisal Division,85,Bhola,1009,Charfashion,"",22.3183,90.7172
BD,8341,Dularhat,Barisal Division,85,Bhola,1009,Charfashion,"",22.3183,90.7172
BD,8342,Keramatganj,Barisal Division,85,Bhola,1009,Charfashion,"",22.3183,90.7172
BD,8350,Hatshoshiganj,Barisal Division,85,Bhola,1009,Hatshoshiganj,"",22.3183,90.7172
BD,8360,Hajirhat,Barisal Division,85,Bhola,1009,Hajirhat,"",22.3183,90.7172
BD,8400,Jhalokathi Sadar,Barisal Division,85,Jhalokathi,1042,Jhalokathi Sadar,"",22.72,90.2048
BD,8401,Nabagram,Barisal Division,85,Jhalokathi,1042,Jhalokathi Sadar,"",22.72,90.2048
BD,8402,Baukathi,Barisal Division,85,Jhalokathi,1042,Jhalokathi Sadar,"",22.72,90.2048
BD,8403,Gabha,Barisal Division,85,Jhalokathi,1042,Jhalokathi Sadar,"",22.72,90.2048
BD,8404,Shekherhat,Barisal Division,85,Jhalokathi,1042,Jhalokathi Sadar,"",22.72,90.2048
BD,8410,Rajapur,Barisal Division,85,Jhalokathi,1042,Rajapur,"",22.6267,90.2064
BD,8420,Nalchhiti,Barisal Division,85,Jhalokathi,1042,Nalchhiti,"",22.637,90.2719
BD,8421,Beerkathi,Barisal Division,85,Jhalokathi,1042,Nalchhiti,"",22.637,90.2719
BD,8430,Kathalia,Barisal Division,85,Jhalokathi,1042,Kathalia,"",22.4016,90.1252
BD,8431,Amua,Barisal Division,85,Jhalokathi,1042,Kathalia,"",22.3682,90.0784
BD,8432,Niamatee,Barisal Division,85,Jhalokathi,1042,Kathalia,"",22.3849,90.1018
BD,8433,Shoulajalia,Barisal Division,85,Jhalokathi,1042,Kathalia,"",22.3849,90.1018
BD,8600,Patuakhali Sadar,Barisal Division,85,Patuakhali,1078,Patuakhali Sadar,"",22.245,90.3693
BD,8601,Moukaran,Barisal Division,85,Patuakhali,1078,Patuakhali Sadar,"",22.245,90.3693
BD,8602,Dumkee,Barisal Division,85,Patuakhali,1078,Patuakhali Sadar,"",22.245,90.3693
BD,8603,Rahimabad,Barisal Division,85,Patuakhali,1078,Patuakhali Sadar,"",22.245,90.3693
BD,8610,Subidkhali,Barisal Division,85,Patuakhali,1078,Subidkhali,"",22.3615,90.2089
BD,8620,Bauphal,Barisal Division,85,Patuakhali,1078,Bauphal,"",22.4159,90.5594
BD,8621,Bagabandar,Barisal Division,85,Patuakhali,1078,Bauphal,"",22.4186,90.5547
BD,8622,Birpasha,Barisal Division,85,Patuakhali,1078,Bauphal,"",22.451,90.5035
BD,8623,Kalishari,Barisal Division,85,Patuakhali,1078,Bauphal,"",22.4186,90.5547
BD,8624,Kalaia,Barisal Division,85,Patuakhali,1078,Bauphal,"",22.3888,90.6012
BD,8630,Dashmina,Barisal Division,85,Patuakhali,1078,Dashmina,"",22.245,90.3693
BD,8640,Galachipa,Barisal Division,85,Patuakhali,1078,Galachipa,"",22.245,90.3693
BD,8641,Gazipur Bandar,Barisal Division,85,Patuakhali,1078,Galachipa,"",22.245,90.3693
BD,8650,Khepupara,Barisal Division,85,Patuakhali,1078,Khepupara,"",21.9924,90.2133
BD,8651,Mahipur,Barisal Division,85,Patuakhali,1078,Khepupara,"",21.8604,90.1294
BD,8500,Pirojpur Sadar,Barisal Division,85,Pirojpur,1079,Pirojpur Sadar,"",22.4686,90.0342
BD,8501,Hularhat,Barisal Division,85,Pirojpur,1079,Pirojpur Sadar,"",22.4686,90.0342
BD,8502,Parerhat,Barisal Division,85,Pirojpur,1079,Pirojpur Sadar,"",22.4686,90.0342
BD,8510,Kaukhali,Barisal Division,85,Pirojpur,1079,kaukhali,"",22.6256,90.06
BD,8511,Keundia,Barisal Division,85,Pirojpur,1079,kaukhali,"",22.6256,90.06
BD,8512,Joykul,Barisal Division,85,Pirojpur,1079,kaukhali,"",22.6256,90.06
BD,8513,Jolagati,Barisal Division,85,Pirojpur,1079,kaukhali,"",22.6256,90.06
BD,8520,Swarupkathi,Barisal Division,85,Pirojpur,1079,Swarupkathi,"",22.7067,90.1025
BD,8521,Darus Sunnat,Barisal Division,85,Pirojpur,1079,Swarupkathi,"",22.7067,90.1025
BD,8522,Kaurikhara,Barisal Division,85,Pirojpur,1079,Swarupkathi,"",22.7067,90.1025
BD,8523,Jalabari,Barisal Division,85,Pirojpur,1079,Swarupkathi,"",22.7067,90.1025
BD,8530,Banaripara,Barisal Division,85,Pirojpur,1079,Banaripara,"",22.7894,90.1722
BD,8531,Chakhar,Barisal Division,85,Pirojpur,1079,Banaripara,"",22.7894,90.1722
BD,8540,Nazirpur,Barisal Division,85,Pirojpur,1079,Nazirpur,"",22.4686,90.0342
BD,8541,Sriramkathi,Barisal Division,85,Pirojpur,1079,Nazirpur,"",22.4686,90.0342
BD,8550,Bhandaria,Barisal Division,85,Pirojpur,1079,Bhandaria,"",22.489,90.0627
BD,8551,Kanudashkathi,Barisal Division,85,Pirojpur,1079,Bhandaria,"",22.4785,90.0446
BD,8552,Dhaoa,Barisal Division,85,Pirojpur,1079,Bhandaria,"",22.468,90.0265
BD,8560,Mathbaria,Barisal Division,85,Pirojpur,1079,Mathbaria,"",22.2862,89.9588
BD,8561,Tushkhali,Barisal Division,85,Pirojpur,1079,Mathbaria,"",22.363,89.9358
BD,8562,Halta,Barisal Division,85,Pirojpur,1079,Mathbaria,"",22.2391,90.012
BD,8563,Gulishakhali,Barisal Division,85,Pirojpur,1079,Mathbaria,"",22.2508,89.9772
BD,8564,Tiarkhali,Barisal Division,85,Pirojpur,1079,Mathbaria,"",22.2848,89.9709
BD,8565,Betmor Natun Hat,Barisal Division,85,Pirojpur,1079,Mathbaria,"",22.2848,89.9709
BD,8566,Shilarganj,Barisal Division,85,Pirojpur,1079,Mathbaria,"",22.2848,89.9709
BD,3300,Hobiganj Sadar,Sylhet Division,86,Hobiganj,6036,Hobiganj Sadar,"",24.3331,91.4339
BD,3301,Shaestaganj,Sylhet Division,86,Hobiganj,6036,Hobiganj Sadar,"",24.3331,91.4339
BD,3302,Gopaya,Sylhet Division,86,Hobiganj,6036,Hobiganj Sadar,"",24.3331,91.4339
BD,3310,Bahubal,Sylhet Division,86,Hobiganj,6036,Bahubal,"",24.3613,91.4365
BD,3320,Chunarughat,Sylhet Division,86,Hobiganj,6036,Chunarughat,"",24.1981,91.5199
BD,3321,Chandpurbagan,Sylhet Division,86,Hobiganj,6036,Chunarughat,"",24.1981,91.5199
BD,3322,Narapati,Sylhet Division,86,Hobiganj,6036,Chunarughat,"",24.1981,91.5199
BD,3330,Madhabpur,Sylhet Division,86,Hobiganj,6036,Madhabpur,"",24.1004,91.2951
BD,3331,Itakhola,Sylhet Division,86,Hobiganj,6036,Madhabpur,"",24.15,91.3667
BD,3332,Shahajibazar,Sylhet Division,86,Hobiganj,6036,Madhabpur,"",24.1252,91.3309
BD,3333,Saihamnagar,Sylhet Division,86,Hobiganj,6036,Madhabpur,"",24.1252,91.3309
BD,3340,Kalauk,Sylhet Division,86,Hobiganj,6036,Kalauk,"",24.3613,91.4365
BD,3341,Lakhai,Sylhet Division,86,Hobiganj,6036,Kalauk,"",24.3613,91.4365
BD,3350,Baniachang,Sylhet Division,86,Hobiganj,6036,Baniachang,"",24.5186,91.3579
BD,3351,Jatrapasha,Sylhet Division,86,Hobiganj,6036,Baniachang,"",24.5186,91.3579
BD,3352,Kadirganj,Sylhet Division,86,Hobiganj,6036,Baniachang,"",24.5186,91.3579
BD,3360,Azmireeganj,Sylhet Division,86,Hobiganj,6036,Azmireeganj,"",24.3613,91.4365
BD,3370,Nabiganj,Sylhet Division,86,Hobiganj,6036,Nabiganj,"",24.5667,91.5167
BD,3371,Goplarbazar,Sylhet Division,86,Hobiganj,6036,Nabiganj,"",24.6146,91.541
BD,3372,Golduba,Sylhet Division,86,Hobiganj,6036,Nabiganj,"",24.6146,91.541
BD,3373,Digalbak,Sylhet Division,86,Hobiganj,6036,Nabiganj,"",24.6146,91.541
BD,3374,Inathganj,Sylhet Division,86,Hobiganj,6036,Nabiganj,"",24.6625,91.5652
BD,3200,Moulvibazar Sadar,Sylhet Division,86,Moulvibazar,6058,Moulvibazar Sadar,"",24.5268,91.8135
BD,3201,Barakapan,Sylhet Division,86,Moulvibazar,6058,Moulvibazar Sadar,"",24.5268,91.8135
BD,3202,Monumukh,Sylhet Division,86,Moulvibazar,6058,Moulvibazar Sadar,"",24.5268,91.8135
BD,3203,Afrozganj,Sylhet Division,86,Moulvibazar,6058,Moulvibazar Sadar,"",24.5268,91.8135
BD,3210,Srimangal,Sylhet Division,86,Moulvibazar,6058,Srimangal,"",24.3065,91.7296
BD,3211,Narain Chora,Sylhet Division,86,Moulvibazar,6058,Srimangal,"",24.5956,91.651
BD,3212,Kalighat,Sylhet Division,86,Moulvibazar,6058,Srimangal,"",24.5956,91.651
BD,3213,Khejurichhara,Sylhet Division,86,Moulvibazar,6058,Srimangal,"",24.5956,91.651
BD,3214,Satgaon,Sylhet Division,86,Moulvibazar,6058,Srimangal,"",24.8847,91.5725
BD,3220,Kamalganj,Sylhet Division,86,Moulvibazar,6058,Kamalganj,"",24.3826,91.9019
BD,3221,Keramatnaga,Sylhet Division,86,Moulvibazar,6058,Kamalganj,"",24.3826,91.9019
BD,3222,Patrakhola,Sylhet Division,86,Moulvibazar,6058,Kamalganj,"",24.3826,91.9019
BD,3223,Shamsher Nagar,Sylhet Division,86,Moulvibazar,6058,Kamalganj,"",24.3826,91.9019
BD,3224,Munshibazar,Sylhet Division,86,Moulvibazar,6058,Kamalganj,"",24.3826,91.9019
BD,3230,Kulaura,Sylhet Division,86,Moulvibazar,6058,Kulaura,"",24.5333,92.05
BD,3231,Tillagaon,Sylhet Division,86,Moulvibazar,6058,Kulaura,"",24.5333,92.05
BD,3232,Langla,Sylhet Division,86,Moulvibazar,6058,Kulaura,"",24.5333,92.05
BD,3233,Prithimpasha,Sylhet Division,86,Moulvibazar,6058,Kulaura,"",24.5333,92.05
BD,3234,Kajaldhara,Sylhet Division,86,Moulvibazar,6058,Kulaura,"",24.5333,92.05
BD,3235,Karimpur,Sylhet Division,86,Moulvibazar,6058,Kulaura,"",24.5333,92.05
BD,3237,Baramchal,Sylhet Division,86,Moulvibazar,6058,Kulaura,"",24.5333,92.05
BD,3240,Rajnagar,Sylhet Division,86,Moulvibazar,6058,Rajnagar,"",24.5268,91.8135
BD,3250,Baralekha,Sylhet Division,86,Moulvibazar,6058,Baralekha,"",24.5268,91.8135
BD,3251,Juri,Sylhet Division,86,Moulvibazar,6058,Baralekha,"",24.5268,91.8135
BD,3252,Dhakkhinbag,Sylhet Division,86,Moulvibazar,6058,Baralekha,"",24.5268,91.8135
BD,3253,Purbashahabajpur,Sylhet Division,86,Moulvibazar,6058,Baralekha,"",24.5268,91.8135
BD,3000,Sunamganj Sadar,Sylhet Division,86,Sunamganj,6090,Sunamganj Sadar,"",24.9212,91.4475
BD,3001,Pagla,Sylhet Division,86,Sunamganj,6090,Sunamganj Sadar,"",24.9212,91.4475
BD,3002,Patharia,Sylhet Division,86,Sunamganj,6090,Sunamganj Sadar,"",24.9212,91.4475
BD,3010,Bishamsapur,Sylhet Division,86,Sunamganj,6090,Bishamsarpur,"",24.9086,91.5303
BD,3020,Sachna,Sylhet Division,86,Sunamganj,6090,Sachna,"",25.0097,91.2356
BD,3030,Tahirpur,Sylhet Division,86,Sunamganj,6090,Tahirpur,"",24.9086,91.5303
BD,3040,Dhirai Chandpur,Sylhet Division,86,Sunamganj,6090,Dhirai Chandpur,"",24.9086,91.5303
BD,3041,Jagdal,Sylhet Division,86,Sunamganj,6090,Dhirai Chandpur,"",24.9086,91.5303
BD,3050,Ghungiar,Sylhet Division,86,Sunamganj,6090,Ghungiar,"",24.9086,91.5303
BD,3060,Jagnnathpur,Sylhet Division,86,Sunamganj,6090,Jagnnathpur,"",24.9086,91.5303
BD,3061,Syedpur,Sylhet Division,86,Sunamganj,6090,Jagnnathpur,"",24.9086,91.5303
BD,3062,Atuajan,Sylhet Division,86,Sunamganj,6090,Jagnnathpur,"",24.9086,91.5303
BD,3063,Hasan Fatemapur,Sylhet Division,86,Sunamganj,6090,Jagnnathpur,"",24.9086,91.5303
BD,3064,Rasulganj,Sylhet Division,86,Sunamganj,6090,Jagnnathpur,"",24.9086,91.5303
BD,3065,Shiramsi,Sylhet Division,86,Sunamganj,6090,Jagnnathpur,"",24.9086,91.5303
BD,3070,Duara bazar,Sylhet Division,86,Sunamganj,6090,Duara bazar,"",24.9086,91.5303
BD,3080,Chhatak,Sylhet Division,86,Sunamganj,6090,Chhatak,"",24.8517,91.7191
BD,3081,Chhatak Cement Facto,Sylhet Division,86,Sunamganj,6090,Chhatak,"",24.8517,91.7191
BD,3082,Chhatak Paper Mills,Sylhet Division,86,Sunamganj,6090,Chhatak,"",24.8517,91.7191
BD,3083,Gabindaganj,Sylhet Division,86,Sunamganj,6090,Chhatak,"",24.8517,91.7191
BD,3084,Gabindaganj Natun Ba,Sylhet Division,86,Sunamganj,6090,Chhatak,"",24.8517,91.7191
BD,3085,Khurma,Sylhet Division,86,Sunamganj,6090,Chhatak,"",24.8701,91.7882
BD,3086,Moinpur,Sylhet Division,86,Sunamganj,6090,Chhatak,"",24.8517,91.7191
BD,3087,jahidpur,Sylhet Division,86,Sunamganj,6090,Chhatak,"",24.8333,91.65
BD,3088,Islamabad,Sylhet Division,86,Sunamganj,6090,Chhatak,"",24.8517,91.7191
BD,3893,Chourangi Bazar,Sylhet Division,86,Sunamganj,6090,Chhatak,"",22.9907,91.1283
BD,3100,Sylhe Sadar,Sylhet Division,86,Sylhet,6091,Sylhet Sadar,"",24.9328,91.8739
BD,3101,Sylhet Cadet Col,Sylhet Division,86,Sylhet,6091,Sylhet Sadar,"",24.9328,91.8739
BD,3102,Sylhet Biman Bondar,Sylhet Division,86,Sylhet,6091,Sylhet Sadar,"",24.9328,91.8739
BD,3103,Khadimnagar,Sylhet Division,86,Sylhet,6091,Sylhet Sadar,"",24.9666,91.8759
BD,3104,Jalalabad Cantoment,Sylhet Division,86,Sylhet,6091,Sylhet Sadar,"",24.9328,91.8739
BD,3105,Silam,Sylhet Division,86,Sylhet,6091,Sylhet Sadar,"",24.9328,91.8739
BD,3106,Birahimpur,Sylhet Division,86,Sylhet,6091,Sylhet Sadar,"",24.9328,91.8739
BD,3107,Jalalabad,Sylhet Division,86,Sylhet,6091,Sylhet Sadar,"",24.899,91.872
BD,3108,Mogla,Sylhet Division,86,Sylhet,6091,Sylhet Sadar,"",24.9328,91.8739
BD,3109,Ranga Hajiganj,Sylhet Division,86,Sylhet,6091,Sylhet Sadar,"",24.9328,91.8739
BD,3111,Kadamtali,Sylhet Division,86,Sylhet,6091,Sylhet Sadar,"",24.6972,91.9514
BD,3112,Kamalbazer,Sylhet Division,86,Sylhet,6091,Sylhet Sadar,"",24.6972,91.9514
BD,3113,Lalbazar,Sylhet Division,86,Sylhet,6091,Sylhet Sadar,"",24.6972,91.9514
BD,3114,Shahajalal Science &,Sylhet Division,86,Sylhet,6091,Sylhet Sadar,"",24.6972,91.9514
BD,3116,Fenchuganj,Sylhet Division,86,Sylhet,6091,Fenchuganj,"",24.6972,91.9514
BD,3117,Fenchuganj SareKarkh,Sylhet Division,86,Sylhet,6091,Fenchuganj,"",24.6972,91.9514
BD,3120,Balaganj,Sylhet Division,86,Sylhet,6091,Balaganj,"",24.6573,91.826
BD,3121,Karua,Sylhet Division,86,Sylhet,6091,Balaganj,"",24.6996,91.7447
BD,3122,Brahman Shashon,Sylhet Division,86,Sylhet,6091,Balaganj,"",24.6996,91.7447
BD,3123,Tajpur,Sylhet Division,86,Sylhet,6091,Balaganj,"",24.7117,91.7451
BD,3124,Goala Bazar,Sylhet Division,86,Sylhet,6091,Balaganj,"",24.7061,91.7327
BD,3125,Begumpur,Sylhet Division,86,Sylhet,6091,Balaganj,"",24.6996,91.7447
BD,3126,Omarpur,Sylhet Division,86,Sylhet,6091,Balaganj,"",24.7234,91.6749
BD,3127,Kathal Khair,Sylhet Division,86,Sylhet,6091,Balaganj,"",24.6996,91.7447
BD,3128,Gaharpur,Sylhet Division,86,Sylhet,6091,Balaganj,"",24.6996,91.7447
BD,3129,Natun Bazar,Sylhet Division,86,Sylhet,6091,Balaganj,"",24.6996,91.7447
BD,3130,Bishwanath,Sylhet Division,86,Sylhet,6091,Bishwanath,"",24.7809,91.8772
BD,3131,Dashghar,Sylhet Division,86,Sylhet,6091,Bishwanath,"",24.7809,91.8772
BD,3132,Doulathpur,Sylhet Division,86,Sylhet,6091,Bishwanath,"",24.7809,91.8772
BD,3133,Deokalas,Sylhet Division,86,Sylhet,6091,Bishwanath,"",24.7809,91.8772
BD,3134,Singer kanch,Sylhet Division,86,Sylhet,6091,Bishwanath,"",24.7809,91.8772
BD,3140,Kompanyganj,Sylhet Division,86,Sylhet,6091,Kompanyganj,"",24.7809,91.8772
BD,3150,Goainhat,Sylhet Division,86,Sylhet,6091,Goainhat,"",24.7809,91.8772
BD,3151,Jaflong,Sylhet Division,86,Sylhet,6091,Goainhat,"",24.7809,91.8772
BD,3152,Chiknagul,Sylhet Division,86,Sylhet,6091,Goainhat,"",24.7809,91.8772
BD,3156,Jainthapur,Sylhet Division,86,Sylhet,6091,Jaintapur,"",24.7809,91.8772
BD,3160,Gopalgannj,Sylhet Division,86,Sylhet,6091,Gopalganj,"",24.7809,91.8772
BD,3161,Dhaka Dakkhin,Sylhet Division,86,Sylhet,6091,Gopalganj,"",24.7809,91.8772
BD,3162,Dakkhin Bhadashore,Sylhet Division,86,Sylhet,6091,Gopalganj,"",24.7809,91.8772
BD,3163,Ranaping,Sylhet Division,86,Sylhet,6091,Gopalganj,"",24.7809,91.8772
BD,3164,banigram,Sylhet Division,86,Sylhet,6091,Gopalganj,"",24.7809,91.8772
BD,3165,Chandanpur,Sylhet Division,86,Sylhet,6091,Gopalganj,"",24.7809,91.8772
BD,3170,Bianibazar,Sylhet Division,86,Sylhet,6091,Bianibazar,"",24.8333,92.1083
BD,3171,jaldup,Sylhet Division,86,Sylhet,6091,Bianibazar,"",24.8333,92.1083
BD,3172,Mathiura,Sylhet Division,86,Sylhet,6091,Bianibazar,"",24.8167,92.1167
BD,3173,Kurar bazar,Sylhet Division,86,Sylhet,6091,Bianibazar,"",24.85,92.1
BD,3174,Salia bazar,Sylhet Division,86,Sylhet,6091,Bianibazar,"",24.8333,92.1083
BD,3175,Churkai,Sylhet Division,86,Sylhet,6091,Bianibazar,"",24.8333,92.1083
BD,3180,Kanaighat,Sylhet Division,86,Sylhet,6091,Kanaighat,"",24.7809,91.8772
BD,3181,Chatulbazar,Sylhet Division,86,Sylhet,6091,Kanaighat,"",24.7809,91.8772
BD,3182,Manikganj,Sylhet Division,86,Sylhet,6091,Kanaighat,"",24.7809,91.8772
BD,3183,Gachbari,Sylhet Division,86,Sylhet,6091,Kanaighat,"",24.7809,91.8772
BD,3190,Jakiganj,Sylhet Division,86,Sylhet,6091,Jakiganj,"",24.7809,91.8772
BD,3191,Ichhamati,Sylhet Division,86,Sylhet,6091,Jakiganj,"",24.7809,91.8772
BD,5200,Dinajpur Sadar,Rangpur Division,87,Dinajpur,5527,Dinajpur Sadar,"",25.5223,88.9504
BD,5201,Dinajpur Rajbari,Rangpur Division,87,Dinajpur,5527,Dinajpur Sadar,"",25.5223,88.9504
BD,5210,Biral,Rangpur Division,87,Dinajpur,5527,Biral,"",25.6252,88.5595
BD,5216,Setabganj,Rangpur Division,87,Dinajpur,5527,Setabganj,"",25.6252,88.5595
BD,5220,Birganj,Rangpur Division,87,Dinajpur,5527,Birganj,"",25.8623,88.654
BD,5226,Maharajganj,Rangpur Division,87,Dinajpur,5527,Maharajganj,"",25.8623,88.654
BD,5230,Khansama,Rangpur Division,87,Dinajpur,5527,Khansama,"",25.9248,88.7307
BD,5231,Pakarhat,Rangpur Division,87,Dinajpur,5527,Khansama,"",25.9248,88.7307
BD,5240,Chrirbandar,Rangpur Division,87,Dinajpur,5527,Chrirbandar,"",25.5223,88.9504
BD,5241,Ranirbandar,Rangpur Division,87,Dinajpur,5527,Chrirbandar,"",25.5223,88.9504
BD,5250,Parbatipur,Rangpur Division,87,Dinajpur,5527,Parbatipur,"",25.6637,88.9309
BD,5260,Phulbari,Rangpur Division,87,Dinajpur,5527,Phulbari,"",25.4998,88.9543
BD,5266,Birampur,Rangpur Division,87,Dinajpur,5527,Birampur,"",25.3891,88.9933
BD,5270,Bangla Hili,Rangpur Division,87,Dinajpur,5527,Bangla Hili,"",25.5223,88.9504
BD,5280,Nababganj,Rangpur Division,87,Dinajpur,5527,Nababganj,"",25.3824,89.0797
BD,5281,Daudpur,Rangpur Division,87,Dinajpur,5527,Nababganj,"",25.402,89.1115
BD,5282,Gopalpur,Rangpur Division,87,Dinajpur,5527,Nababganj,"",25.3627,89.0479
BD,5290,Osmanpur,Rangpur Division,87,Dinajpur,5527,Osmanpur,"",25.257,89.2414
BD,5291,Ghoraghat,Rangpur Division,87,Dinajpur,5527,Osmanpur,"",25.236,89.2801
BD,5700,Gaibandha Sadar,Rangpur Division,87,Gaibandha,5532,Gaibandha Sadar,"",25.5496,89.5502
BD,5710,Saadullapur,Rangpur Division,87,Gaibandha,5532,Saadullapur,"",25.4869,89.4661
BD,5711,Naldanga,Rangpur Division,87,Gaibandha,5532,Saadullapur,"",25.4869,89.4661
BD,5720,Sundarganj,Rangpur Division,87,Gaibandha,5532,Sundarganj,"",25.568,89.5222
BD,5721,Bamandanga,Rangpur Division,87,Gaibandha,5532,Sundarganj,"",25.535,89.4466
BD,5730,Palashbari,Rangpur Division,87,Gaibandha,5532,Palashbari,"",25.2821,89.353
BD,5740,Gobindhaganj,Rangpur Division,87,Gaibandha,5532,Gobindaganj,"",25.4323,89.4875
BD,5741,Mahimaganj,Rangpur Division,87,Gaibandha,5532,Gobindaganj,"",25.4323,89.4875
BD,5750,Bonarpara,Rangpur Division,87,Gaibandha,5532,Bonarpara,"",25.4323,89.4875
BD,5751,saghata,Rangpur Division,87,Gaibandha,5532,Bonarpara,"",25.4323,89.4875
BD,5760,Phulchhari,Rangpur Division,87,Gaibandha,5532,Phulchhari,"",25.1721,89.5866
BD,5761,Bharatkhali,Rangpur Division,87,Gaibandha,5532,Phulchhari,"",25.1721,89.5866
BD,5600,Kurigram Sadar,Rangpur Division,87,Kurigram,5549,Kurigram Sadar,"",25.7244,89.6004
BD,5601,Pandul,Rangpur Division,87,Kurigram,5549,Kurigram Sadar,"",25.7244,89.6004
BD,5610,Rajarhat,Rangpur Division,87,Kurigram,5549,Rajarhat,"",25.7412,89.6513
BD,5611,Nazimkhan,Rangpur Division,87,Kurigram,5549,Rajarhat,"",25.7412,89.6513
BD,5620,Ulipur,Rangpur Division,87,Kurigram,5549,Ulipur,"",25.659,89.6183
BD,5621,Bazarhat,Rangpur Division,87,Kurigram,5549,Ulipur,"",25.659,89.6183
BD,5630,Chilmari,Rangpur Division,87,Kurigram,5549,Chilmari,"",25.5561,89.671
BD,5631,Jorgachh,Rangpur Division,87,Kurigram,5549,Chilmari,"",25.5561,89.671
BD,5640,Roumari,Rangpur Division,87,Kurigram,5549,Roumari,"",25.7412,89.6513
BD,5650,Rajibpur,Rangpur Division,87,Kurigram,5549,Rajibpur,"",25.4388,89.7944
BD,5660,Nageshwar,Rangpur Division,87,Kurigram,5549,Nageshwar,"",25.7412,89.6513
BD,5670,Bhurungamari,Rangpur Division,87,Kurigram,5549,Bhurungamari,"",26.1198,89.6677
BD,5680,Phulbari,Rangpur Division,87,Kurigram,5549,Kurigram Sadar,"",25.949,89.5559
BD,5500,Lalmonirhat Sadar,Rangpur Division,87,Lalmonirhat,5552,Lalmonirhat Sadar,"",26.1669,89.1228
BD,5501,Moghalhat,Rangpur Division,87,Lalmonirhat,5552,Lalmonirhat Sadar,"",26.1669,89.1228
BD,5502,Kulaghat SO,Rangpur Division,87,Lalmonirhat,5552,Lalmonirhat Sadar,"",26.1669,89.1228
BD,5510,Aditmari,Rangpur Division,87,Lalmonirhat,5552,Aditmari,"",25.9254,89.355
BD,5520,Tushbhandar,Rangpur Division,87,Lalmonirhat,5552,Tushbhandar,"",25.9646,89.197
BD,5530,Hatibandha,Rangpur Division,87,Lalmonirhat,5552,Hatibandha,"",26.1249,89.1408
BD,5540,Patgram,Rangpur Division,87,Lalmonirhat,5552,Patgram,"",26.3488,89.0352
BD,5541,Baura,Rangpur Division,87,Lalmonirhat,5552,Patgram,"",26.25,89.0833
BD,5542,Burimari,Rangpur Division,87,Lalmonirhat,5552,Patgram,"",26.3878,88.9254
BD,5300,Nilphamari Sadar,Rangpur Division,87,Nilphamari,5573,Nilphamari Sadar,"",26.0297,88.917
BD,5301,Nilphamari Sugar Mil,Rangpur Division,87,Nilphamari,5573,Nilphamari Sadar,"",26.0297,88.917
BD,5310,Syedpur,Rangpur Division,87,Nilphamari,5573,Syedpur,"",25.7777,88.8917
BD,5311,Syedpur Upashahar,Rangpur Division,87,Nilphamari,5573,Syedpur,"",25.7777,88.8917
BD,5320,Kishoriganj,Rangpur Division,87,Nilphamari,5573,Kishoriganj,"",25.9036,89.0314
BD,5330,Jaldhaka,Rangpur Division,87,Nilphamari,5573,Jaldhaka,"",26.0223,89.0158
BD,5340,Domar,Rangpur Division,87,Nilphamari,5573,Domar,"",26.106,88.8206
BD,5341,Chilahati,Rangpur Division,87,Nilphamari,5573,Domar,"",26.2417,88.8026
BD,5350,Dimla,Rangpur Division,87,Nilphamari,5573,Dimla,"",26.1269,88.94
BD,5351,Ghaga Kharibari,Rangpur Division,87,Nilphamari,5573,Dimla,"",26.1269,88.94
BD,5000,Panchagar Sadar,Rangpur Division,87,Panchagarh,5577,Panchagra Sadar,"",26.0631,88.6224
BD,5010,Boda,Rangpur Division,87,Panchagarh,5577,Boda,"",26.1998,88.5552
BD,5020,Dabiganj,Rangpur Division,87,Panchagarh,5577,Dabiganj,"",26.0631,88.6224
BD,5030,Tetulia,Rangpur Division,87,Panchagarh,5577,Tetulia,"",26.4917,88.3397
BD,5040,Chotto Dab,Rangpur Division,87,Panchagarh,5577,Chotto Dab,"",25.4978,88.9725
BD,5041,Mirjapur,Rangpur Division,87,Panchagarh,5577,Chotto Dab,"",25.4978,88.9725
BD,5400,Rangpur Sadar,Rangpur Division,87,Rangpur,5585,Rangpur Sadar,"",25.7317,89.2762
BD,5401,Rangpur Upa-Shahar,Rangpur Division,87,Rangpur,5585,Rangpur Sadar,"",25.7317,89.2762
BD,5402,Alamnagar,Rangpur Division,87,Rangpur,5585,Rangpur Sadar,"",25.732,89.2649
BD,5403,Mahiganj,Rangpur Division,87,Rangpur,5585,Rangpur Sadar,"",25.7313,89.2875
BD,5404,Rangpur Cadet Colleg,Rangpur Division,87,Rangpur,5585,Rangpur Sadar,"",25.7317,89.2762
BD,5405,Rangpur Carmiecal Col,Rangpur Division,87,Rangpur,5585,Rangpur Sadar,"",25.7317,89.2762
BD,5410,Gangachara,Rangpur Division,87,Rangpur,5585,Gangachara,"",25.6974,89.301
BD,5420,Taraganj,Rangpur Division,87,Rangpur,5585,Taraganj,"",25.6974,89.301
BD,5430,Badarganj,Rangpur Division,87,Rangpur,5585,Badarganj,"",25.6742,89.0538
BD,5431,Shyampur,Rangpur Division,87,Rangpur,5585,Badarganj,"",25.6244,89.3387
BD,5440,Kaunia,Rangpur Division,87,Rangpur,5585,Kaunia,"",25.7742,89.4204
BD,5441,Haragachh,Rangpur Division,87,Rangpur,5585,Kaunia,"",25.8139,89.3364
BD,5450,Pirgachha,Rangpur Division,87,Rangpur,5585,Pirgachha,"",25.6569,89.4309
BD,5460,Mithapukur,Rangpur Division,87,Rangpur,5585,Mithapukur,"",25.5724,89.2751
BD,5100,Thakurgaon Sadar,Rangpur Division,87,Thakurgaon,5594,Thakurgaon Sadar,"",25.9152,88.1013
BD,5101,Thakurgaon Road,Rangpur Division,87,Thakurgaon,5594,Thakurgaon Sadar,"",25.9152,88.1013
BD,5102,Shibganj,Rangpur Division,87,Thakurgaon,5594,Thakurgaon Sadar,"",25.9152,88.1013
BD,5103,Ruhia,Rangpur Division,87,Thakurgaon,5594,Thakurgaon Sadar,"",25.9152,88.1013
BD,5110,Pirganj,Rangpur Division,87,Thakurgaon,5594,Pirganj,"",25.8559,88.3594
BD,5120,Rani Sankail,Rangpur Division,87,Thakurgaon,5594,Rani Sankail,"",25.9801,88.2645
BD,5121,Nekmarad,Rangpur Division,87,Thakurgaon,5594,Rani Sankail,"",25.9801,88.2645
BD,5130,Jibanpur,Rangpur Division,87,Thakurgaon,5594,Jibanpur,"",25.8132,88.1372
BD,5140,Baliadangi,Rangpur Division,87,Thakurgaon,5594,Baliadangi,"",26.0866,88.278
BD,5141,Lahiri,Rangpur Division,87,Thakurgaon,5594,Baliadangi,"",26.1456,88.2941
BD,5470,Pirganj,Rangpur Division,87,Thakurgaon,5594,Pirganj,"",25.6974,89.301
BD,2000,Jamalpur,Dhaka Division,H,Jamalpur,3039,Jamalpur,"",24.9197,89.9481
BD,2001,Nandina,Dhaka Division,H,Jamalpur,3039,Jamalpur,"",24.8672,90.0332
BD,2002,Narundi,Dhaka Division,H,Jamalpur,3039,Jamalpur,"",24.8529,90.1331
BD,2010,Malandah,Dhaka Division,H,Jamalpur,3039,Malandah,"",24.1614,89.9958
BD,2011,Jamalpur,Dhaka Division,H,Jamalpur,3039,Malandah,"",24.9197,89.9481
BD,2012,Malancha,Dhaka Division,H,Jamalpur,3039,Malandah,"",23.9833,90.2
BD,2013,Mahmoodpur,Dhaka Division,H,Jamalpur,3039,Malandah,"",23.5812,89.8392
BD,2020,Islampur,Dhaka Division,H,Jamalpur,3039,Islampur,"",25.0808,89.7947
BD,2021,Durmoot,Dhaka Division,H,Jamalpur,3039,Islampur,"",24.7913,89.9275
BD,2022,Gilabari,Dhaka Division,H,Jamalpur,3039,Islampur,"",24.5017,90.0603
BD,2030,Dewangonj,Dhaka Division,H,Jamalpur,3039,Dewangonj,"",25.1424,89.7622
BD,2031,Dewangonj S. Mills,Dhaka Division,H,Jamalpur,3039,Dewangonj,"",25.1424,89.7622
BD,2040,Mathargonj,Dhaka Division,H,Jamalpur,3039,Mathargonj,"",24.6626,89.9378
BD,2041,Balijhuri,Dhaka Division,H,Jamalpur,3039,Mathargonj,"",24.6626,89.9378
BD,2050,Shorishabari,Dhaka Division,H,Jamalpur,3039,Shorishabari,"",24.7199,89.7987
BD,2051,Gunerbari,Dhaka Division,H,Jamalpur,3039,Shorishabari,"",24.8247,89.7894
BD,2052,Bausee,Dhaka Division,H,Jamalpur,3039,Shorishabari,"",24.7199,89.7987
BD,2053,Jagannath Ghat,Dhaka Division,H,Jamalpur,3039,Shorishabari,"",24.7199,89.7987
BD,2054,Pingna,Dhaka Division,H,Jamalpur,3039,Shorishabari,"",24.6151,89.808
BD,2055,Jamuna Sar Karkhana,Dhaka Division,H,Jamalpur,3039,Shorishabari,"",24.7199,89.7987
BD,2200,Mymensingh Sadar,Dhaka Division,H,Mymensingh,3061,Mymensingh Sadar,"",24.7192,90.6501
BD,2201,Kawatkhali,Dhaka Division,H,Mymensingh,3061,Mymensingh Sadar,"",24.7192,90.6501
BD,2202,Agriculture Universi,Dhaka Division,H,Mymensingh,3061,Mymensingh Sadar,"",24.7192,90.6501
BD,2203,Shombhuganj,Dhaka Division,H,Mymensingh,3061,Mymensingh Sadar,"",24.7192,90.6501
BD,2204,Biddyaganj,Dhaka Division,H,Mymensingh,3061,Mymensingh Sadar,"",24.7192,90.6501
BD,2205,Pearpur,Dhaka Division,H,Mymensingh,3061,Mymensingh Sadar,"",24.7192,90.6501
BD,2210,Muktagachha,Dhaka Division,H,Mymensingh,3061,Muktagachha,"",24.7648,90.257
BD,2216,Fulbaria,Dhaka Division,H,Mymensingh,3061,Fulbaria,"",24.6323,90.269
BD,2220,Trishal,Dhaka Division,H,Mymensingh,3061,Trishal,"",24.5817,90.3948
BD,2221,Ahmadbad,Dhaka Division,H,Mymensingh,3061,Trishal,"",24.5571,90.4455
BD,2222,Ram Amritaganj,Dhaka Division,H,Mymensingh,3061,Trishal,"",24.5571,90.4455
BD,2223,Dhala,Dhaka Division,H,Mymensingh,3061,Trishal,"",24.5324,90.4961
BD,2230,Gaforgaon,Dhaka Division,H,Mymensingh,3061,Gaforgaon,"",24.3738,90.5918
BD,2231,Shibganj,Dhaka Division,H,Mymensingh,3061,Gaforgaon,"",24.3738,90.5918
BD,2232,Usti,Dhaka Division,H,Mymensingh,3061,Gaforgaon,"",24.3738,90.5918
BD,2233,Kandipara,Dhaka Division,H,Mymensingh,3061,Gaforgaon,"",24.3738,90.5918
BD,2234,Duttarbazar,Dhaka Division,H,Mymensingh,3061,Gaforgaon,"",24.3738,90.5918
BD,2240,Bhaluka,Dhaka Division,H,Mymensingh,3061,Bhaluka,"",24.4048,90.3862
BD,2250,Phulpur,Dhaka Division,H,Mymensingh,3061,Phulpur,"",24.9608,90.4552
BD,2251,Beltia,Dhaka Division,H,Mymensingh,3061,Phulpur,"",24.9778,90.4448
BD,2252,Tarakanda,Dhaka Division,H,Mymensingh,3061,Phulpur,"",24.9439,90.4655
BD,2260,Haluaghat,Dhaka Division,H,Mymensingh,3061,Haluaghat,"",25.1171,90.3365
BD,2261,Dhara,Dhaka Division,H,Mymensingh,3061,Haluaghat,"",25.0581,90.3375
BD,2262,Munshirhat,Dhaka Division,H,Mymensingh,3061,Haluaghat,"",25.0876,90.337
BD,2270,Gouripur,Dhaka Division,H,Mymensingh,3061,Gouripur,"",24.7597,90.5684
BD,2271,Ramgopalpur,Dhaka Division,H,Mymensingh,3061,Gouripur,"",24.7203,90.5539
BD,2280,Isshwargonj,Dhaka Division,H,Mymensingh,3061,Isshwargonj,"",24.6629,90.6912
BD,2281,Sohagi,Dhaka Division,H,Mymensingh,3061,Isshwargonj,"",24.6992,90.6658
BD,2282,Atharabari,Dhaka Division,H,Mymensingh,3061,Isshwargonj,"",24.6266,90.7166
BD,2290,Nandail,Dhaka Division,H,Mymensingh,3061,Nandail,"",24.569,90.6901
BD,2291,Gangail,Dhaka Division,H,Mymensingh,3061,Nandail,"",24.5832,90.7609
BD,2400,Netrakona Sadar,Dhaka Division,H,Netrakona,3072,Netrakona Sadar,"",24.8644,90.8339
BD,2401,Baikherhati,Dhaka Division,H,Netrakona,3072,Netrakona Sadar,"",24.8644,90.8339
BD,2410,Purbadhola,Dhaka Division,H,Netrakona,3072,Purbadhola,"",25.0867,90.5119
BD,2411,Shamgonj,Dhaka Division,H,Netrakona,3072,Purbadhola,"",25.0867,90.5119
BD,2412,Jaria Jhanjhail,Dhaka Division,H,Netrakona,3072,Purbadhola,"",25.0867,90.5119
BD,2416,Dhobaura,Dhaka Division,H,Netrakona,3072,Dhobaura,"",25.0867,90.5119
BD,2417,Sakoai,Dhaka Division,H,Netrakona,3072,Dhobaura,"",25.0867,90.5119
BD,2420,Susnng Durgapur,Dhaka Division,H,Netrakona,3072,Susung Durgapur,"",24.8644,90.8339
BD,2430,Kalmakanda,Dhaka Division,H,Netrakona,3072,Kalmakanda,"",25.0011,90.8077
BD,2440,Barhatta,Dhaka Division,H,Netrakona,3072,Barhatta,"",24.8984,90.8865
BD,2446,Mohanganj,Dhaka Division,H,Netrakona,3072,Mohanganj,"",24.8756,90.9777
BD,2450,Dharampasha,Dhaka Division,H,Netrakona,3072,Dharmapasha,"",24.8644,90.8339
BD,2456,Moddoynagar,Dhaka Division,H,Netrakona,3072,Moddhynagar,"",24.8644,90.8339
BD,2460,Khaliajhri,Dhaka Division,H,Netrakona,3072,Khaliajuri,"",24.8644,90.8339
BD,2462,Shaldigha,Dhaka Division,H,Netrakona,3072,Khaliajuri,"",24.8644,90.8339
BD,2470,Atpara,Dhaka Division,H,Netrakona,3072,Atpara,"",24.8112,90.8616
BD,2480,Kendua,Dhaka Division,H,Netrakona,3072,Kendua,"",24.6621,90.843
BD,2490,Madan,Dhaka Division,H,Netrakona,3072,Madan,"",24.7158,90.9489
BD,2100,Sherpur Shadar,Dhaka Division,H,Sherpur,3089,Sherpur Shadar,"",25.0929,90.0827
BD,2110,Nalitabari,Dhaka Division,H,Sherpur,3089,Nalitabari,"",25.0833,90.0195
BD,2111,Hatibandha,Dhaka Division,H,Sherpur,3089,Nalitabari,"",25.1311,90.0666
BD,2120,Jhinaigati,Dhaka Division,H,Sherpur,3089,Jhinaigati,"",25.1856,90.0668
BD,2130,Shribardi,Dhaka Division,H,Sherpur,3089,Shribardi,"",25.0929,90.0827
BD,2140,Bakshigonj,Dhaka Division,H,Sherpur,3089,Bakshigonj,"",25.0929,90.0827
BD,2150,Nakla,Dhaka Division,H,Sherpur,3089,Nakla,"",24.9714,90.1778
BD,2151,Gonopaddi,Dhaka Division,H,Sherpur,3089,Nakla,"",24.9714,90.1778
